basin,region,subRegion,island,siteName,yearFishSurvey,siteFishSurvey,latitudeFishSurvey,longitudeFishSurvey,latitudeBMU,longitudeBMU,boundaryNumber,habitatFishSurvey,density_ind_PSU,biomass_kg_PSU,density_ind_m2,biomass_g_m2,density_ind_ha,biomass_kg_ha
pacific,MARIAN,GUA,Guam,OCC-GUA-002,2014,6655,13.60119819,144.9354076,13.6033,144.92365,3,PAV,,,0.019805948,7.276268368,198.0594847,72.76268368
pacific,MARIAN,GUA,Guam,OCC-GUA-002,2014,6656,13.61763049,144.9053256,13.6033,144.92365,3,AGR,,,0.008488264,1.014233151,84.88263631,10.1423315
pacific,MARIAN,GUA,Guam,OCC-GUA-002,2014,6659,13.60173714,144.9476443,13.6033,144.92365,3,AGR,,,0.016976527,4.488846478,169.7652726,44.88846478
pacific,MARIAN,GUA,Guam,OCC-GUA-002,2014,6660,13.61366887,144.9077283,13.6033,144.92365,3,AGR,,,0.011317684,2.132799026,113.1768484,21.32799026
pacific,MARIAN,GUA,Guam,OCC-GUA-002,2017,10675,13.602456,144.927007,13.6033,144.92365,3,AGR,,,0.008488263,1.542983508,84.88263632,15.42983508
pacific,MARIAN,GUA,Guam,OCC-GUA-002,2017,10676,13.627403,144.900122,13.6033,144.92365,3,AGR,,,0,0,0,0
pacific,MARIAN,GUA,Guam,OCC-GUA-002,2017,10692,13.607038,144.913937,13.6033,144.92365,3,AGR,,,0.011317684,0.46327135,113.1768484,4.632713502
pacific,MARIAN,GUA,Guam,OCC-GUA-002,2017,10696,13.602218,144.924638,13.6033,144.92365,3,AGR,,,0.084882635,17.25541689,848.8263631,172.5541688
pacific,MARIAN,GUA,Guam,OCC-GUA-002,2017,10697,13.620567,144.904726,13.6033,144.92365,3,AGR,,,0,0,0,0
pacific,MARIAN,GUA,Guam,OCC-GUA-002,2017,10698,13.601128,144.935517,13.6033,144.92365,3,PAV,,,0,0,0,0
pacific,MARIAN,GUA,Guam,OCC-GUA-002,2022,38209,13.606343,144.912645,13.6033,144.92365,3,AGR,,,0,0,0,0
pacific,MARIAN,GUA,Guam,OCC-GUA-002,2022,38210,13.613472,144.907106,13.6033,144.92365,3,AGR,,,0.022635368,4.425214882,226.3536968,44.25214882
pacific,MARIAN,GUA,Guam,OCC-GUA-002,2022,38211,13.601756,144.926739,13.6033,144.92365,3,PAV,,,0,0,0,0
pacific,MARIAN,GUA,Guam,OCC-GUA-002,2022,39665,13.601914,144.929723,13.6033,144.92365,3,AGR,,,0.056588425,18.95133199,565.884242,189.5133199
pacific,MARIAN,GUA,Guam,OCC-GUA-005,2014,6633,13.46689839,144.8589869,13.47516,144.86485,2,AGR,,,0.005658842,1.72499405,56.58842421,17.2499405
pacific,MARIAN,GUA,Guam,OCC-GUA-005,2014,6634,13.47940553,144.8676742,13.47516,144.86485,2,AGR,,,0.016976527,1.58558472,169.7652726,15.8558472
pacific,MARIAN,GUA,Guam,OCC-GUA-005,2014,6635,13.48836394,144.8755297,13.47516,144.86485,2,PAV,,,0.011317684,0.927644623,113.1768484,9.276446232
pacific,MARIAN,GUA,Guam,OCC-GUA-005,2014,6637,13.44992529,144.8367388,13.47516,144.86485,2,AGR,,,0.039611895,5.27928998,396.1189694,52.79289979
pacific,MARIAN,GUA,Guam,OCC-GUA-005,2014,6638,13.51632924,144.9201938,13.47516,144.86485,2,AGR,,,0.028294212,3.170811923,282.942121,31.70811922
pacific,MARIAN,GUA,Guam,OCC-GUA-005,2017,10757,13.4744,144.866672,13.47516,144.86485,2,AGR,,,0.005658842,1.947286291,56.58842421,19.47286291
pacific,MARIAN,GUA,Guam,OCC-GUA-005,2017,10758,13.462509,144.848806,13.47516,144.86485,2,AGR,,,0,0,0,0
pacific,MARIAN,GUA,Guam,OCC-GUA-005,2017,10759,13.488822,144.878894,13.47516,144.86485,2,AGR,,,0.011317685,0.966976058,113.1768484,9.669760578
pacific,MARIAN,GUA,Guam,OCC-GUA-005,2017,10760,13.514761,144.919844,13.47516,144.86485,2,AGR,,,0.008488263,0.784328177,84.88263632,7.843281769
pacific,MARIAN,GUA,Guam,OCC-GUA-005,2017,10761,13.510671,144.900755,13.47516,144.86485,2,AGR,,,0.011317684,1.106078097,113.1768484,11.06078097
pacific,MARIAN,GUA,Guam,OCC-GUA-009,2014,7369,13.24119989,144.7073594,13.24126317,144.7044194,1,AGR,,,0,0,0,0
pacific,MARIAN,GUA,Guam,OCC-GUA-009,2014,7370,13.24106603,144.701416,13.24126317,144.7044194,1,AGR,,,0.022635369,0.478288384,226.3536968,4.782883833
pacific,MARIAN,GUA,Guam,OCC-GUA-009,2014,7371,13.24155511,144.7027728,13.24126317,144.7044194,1,AGR,,,0.028294211,7.739111239,282.942121,77.39111239
pacific,MARIAN,GUA,Guam,OCC-GUA-009,2014,7372,13.2401871,144.7090573,13.24126317,144.7044194,1,AGR,,,0.028294211,7.609761668,282.942121,76.09761668
pacific,MARIAN,GUA,Guam,OCC-GUA-009,2014,7373,13.24080057,144.7038539,13.24126317,144.7044194,1,AGR,,,0.053759002,21.43018404,537.5900299,214.3018404
pacific,MARIAN,GUA,Guam,OCC-GUA-009,2014,7375,13.23960347,144.7024407,13.24126317,144.7044194,1,AGR,,,0.02546479,14.5900422,254.6479089,145.900422
pacific,MARIAN,GUA,Guam,OCC-GUA-009,2014,7376,13.24031568,144.6989525,13.24126317,144.7044194,1,AGR,,,0.011317685,1.059493109,113.1768484,10.59493109
pacific,MARIAN,GUA,Guam,OCC-GUA-009,2014,7377,13.23930466,144.69993,13.24126317,144.7044194,1,AGR,,,0,0,0,0
pacific,MARIAN,GUA,Guam,OCC-GUA-009,2014,7378,13.24115572,144.6993153,13.24126317,144.7044194,1,AGR,,,0.011317685,2.826489253,113.1768484,28.26489253
pacific,MARIAN,GUA,Guam,OCC-GUA-009,2014,7380,13.24014955,144.6995307,13.24126317,144.7044194,1,AGR,,,0.005658842,0.340102392,56.58842421,3.401023921
pacific,MARIAN,GUA,Guam,OCC-GUA-009,2014,7381,13.24196842,144.7070559,13.24126317,144.7044194,1,AGR,,,0.019805948,14.9668422,198.0594847,149.668422
pacific,MARIAN,GUA,Guam,OCC-GUA-009,2014,7404,13.24055096,144.7066532,13.24126317,144.7044194,1,AGR,,,0.016976527,2.038880194,169.7652726,20.38880194
pacific,MARIAN,GUA,Guam,OCC-GUA-009,2014,7406,13.24158059,144.7095064,13.24126317,144.7044194,1,AGR,,,0.014147106,2.242733801,141.4710605,22.42733801
pacific,MARIAN,GUA,Guam,OCC-GUA-009,2014,7407,13.24150415,144.704575,13.24126317,144.7044194,1,AGR,,,0.02546479,3.404222191,254.647909,34.0422219
pacific,MARIAN,GUA,Guam,OCC-GUA-009,2014,7429,13.24143,144.70323,13.24126317,144.7044194,1,AGR,,,0.011317685,9.607865605,113.1768484,96.07865605
pacific,MARIAN,GUA,Guam,OCC-GUA-009,2014,7430,13.24101,144.70282,13.24126317,144.7044194,1,AGR,,,0,0,0,0
pacific,MARIAN,GUA,Guam,OCC-GUA-009,2014,7431,13.24126,144.70511,13.24126317,144.7044194,1,AGR,,,0.011317684,1.164409726,113.1768484,11.64409726
pacific,MARIAN,GUA,Guam,OCC-GUA-009,2014,7432,13.24155,144.70546,13.24126317,144.7044194,1,AGR,,,0.011317684,3.912791296,113.1768484,39.12791296
pacific,MARIAN,GUA,Guam,OCC-GUA-009,2014,7433,13.24113,144.70784,13.24126317,144.7044194,1,AGR,,,0,0,0,0
pacific,MARIAN,GUA,Guam,OCC-GUA-009,2014,7434,13.23984,144.70201,13.24126317,144.7044194,1,AGR,,,0.011317684,1.630665642,113.1768484,16.30665642
pacific,MARIAN,GUA,Guam,OCC-GUA-009,2014,7436,13.24108,144.7074,13.24126317,144.7044194,1,AGR,,,0.005658842,2.653562449,56.58842421,26.53562449
pacific,MARIAN,GUA,Guam,OCC-GUA-009,2014,7437,13.24146,144.70703,13.24126317,144.7044194,1,AGR,,,0.016976526,12.66712075,169.7652726,126.6712075
pacific,MARIAN,GUA,Guam,OCC-GUA-009,2014,7438,13.24173,144.70428,13.24126317,144.7044194,1,AGR,,,0,0,0,0
pacific,MARIAN,GUA,Guam,OCC-GUA-009,2014,7439,13.24117,144.70831,13.24126317,144.7044194,1,AGR,,,0,0,0,0
pacific,MARIAN,GUA,Guam,OCC-GUA-009,2017,10648,13.238751,144.700778,13.24126317,144.7044194,1,AGR,,,0,0,0,0
pacific,MARIAN,GUA,Guam,OCC-GUA-009,2017,10654,13.240796,144.704281,13.24126317,144.7044194,1,AGR,,,0.016976527,1.650271942,169.7652726,16.50271942
pacific,MARIAN,GUA,Guam,OCC-GUA-009,2017,10664,13.241914,144.702539,13.24126317,144.7044194,1,AGR,,,0.011317685,1.271744768,113.1768484,12.71744767
pacific,MARIAN,GUA,Guam,OCC-GUA-009,2022,38221,13.240269,144.709578,13.24126317,144.7044194,1,PAV,,,0,0,0,0
pacific,MARIAN,GUA,Guam,OCC-GUA-009,2022,39761,13.242237,144.708318,13.24126317,144.7044194,1,PAV,,,0.036782475,1.536757058,367.8247573,15.36757058
pacific,MARIAN,GUA,Guam,OCC-GUA-009,2022,39762,13.238558,144.699641,13.24126317,144.7044194,1,PAV,,,0.02546479,4.520873446,254.6479089,45.20873446
pacific,MARIAN,GUA,Guam,OCC-GUA-009,2022,39763,13.24087,144.700048,13.24126317,144.7044194,1,PSC,,,0.028294212,2.737586267,282.942121,27.37586268
pacific,MARIAN,GUA,Guam,OCC-GUA-015,2014,6575,13.52449891,144.8013113,13.52894,144.80037,4,AGR,,,0.039611897,6.634530244,396.1189694,66.34530244
pacific,MARIAN,GUA,Guam,OCC-GUA-015,2014,6584,13.51760245,144.7988612,13.52894,144.80037,4,PPR,,,0.033953054,3.234997826,339.5305452,32.34997826
pacific,MARIAN,GUA,Guam,OCC-GUA-015,2014,6695,13.51085166,144.7925651,13.52894,144.80037,4,AGR,,,0.005658842,0.279354515,56.58842421,2.793545149
pacific,MARIAN,GUA,Guam,OCC-GUA-015,2017,10616,13.51658,144.798918,13.52894,144.80037,4,AGR,,,0.016976526,2.518883105,169.7652726,25.18883105
pacific,MARIAN,GUA,Guam,OCC-GUA-015,2017,10619,13.511408,144.789049,13.52894,144.80037,4,AGR,,,0.005658842,0.83893297,56.58842421,8.389329697
pacific,MARIAN,GUA,Guam,OCC-GUA-015,2017,10623,13.533337,144.79993,13.52894,144.80037,4,AGR,,,0.005658842,0.879748675,56.58842421,8.797486745
pacific,MARIAN,GUA,Guam,OCC-GUA-015,2022,38144,13.534073,144.799662,13.52894,144.80037,4,AGR,,,0.008488263,1.008700881,84.88263632,10.08700881
pacific,MARIAN,GUA,Guam,OCC-GUA-015,2022,39420,13.512066,144.789584,13.52894,144.80037,4,AGR,,,0.022635369,3.234509471,226.3536968,32.3450947
pacific,MARIAN,GUA,Guam,OCC-GUA-015,2022,39421,13.518771,144.797351,13.52894,144.80037,4,PAV,,,0.008488263,0.929190771,84.88263632,9.291907704
pacific,MARIAN,GUA,Guam,OCC-GUA-015,2022,39422,13.520932,144.801164,13.52894,144.80037,4,AGR,,,0.025464791,5.980099646,254.6479089,59.80099646
pacific,MARIAN,GUA,Guam,OCC-GUA-015,2022,39423,13.531195,144.799711,13.52894,144.80037,4,AGR,,,0.005658842,0.73418543,56.58842421,7.341854298
pacific,MARIAN,GUA,Guam,OCC-GUA-015,2022,39700,13.530298,144.800062,13.52894,144.80037,4,AGR,,,0.062247265,11.65042574,622.4726662,116.5042574
pacific,MARIAN,GUA,Guam,OCC-GUA-015,2022,39701,13.525254,144.801084,13.52894,144.80037,4,AGR,,,0.022635369,8.29409288,226.3536968,82.9409288
pacific,MARIAN,GUA,Guam,OCC-GUA-015,2022,39702,13.519084,144.799982,13.52894,144.80037,4,AGR,,,0.028294212,2.119621827,282.942121,21.19621826
pacific,MARIAN,GUA,Guam,OCC-GUA-015,2022,39703,13.521725,144.79986,13.52894,144.80037,4,AGR,,,0.005658842,0.389317657,56.58842421,3.893176563
pacific,MARIAN,GUA,Guam,OCC-GUA-015,2022,39704,13.513193,144.794603,13.52894,144.80037,4,AGR,,,0.025464791,3.903344589,254.6479089,39.03344589
pacific,MARIAN,MAU,Maug,OCC-MAU-002,2014,7117,20.03567085,145.2221602,20.03570278,145.224671,5,AGR,,,0.014147105,20.17311072,141.4710605,201.7311072
pacific,MARIAN,MAU,Maug,OCC-MAU-002,2014,7118,20.03623319,145.2251678,20.03570278,145.224671,5,AGR,,,0,0,0,0
pacific,MARIAN,MAU,Maug,OCC-MAU-002,2014,7123,20.03425305,145.229212,20.03570278,145.224671,5,AGR,,,0.011317684,3.960456445,113.1768484,39.60456445
pacific,MARIAN,MAU,Maug,OCC-MAU-002,2014,7136,20.0334431,145.2273314,20.03570278,145.224671,5,SAG,,,0.028294211,7.343234354,282.942121,73.43234354
pacific,MARIAN,MAU,Maug,OCC-MAU-002,2017,11057,20.034825,145.228589,20.03570278,145.224671,5,AGR,,,0,0,0,0
pacific,MARIAN,MAU,Maug,OCC-MAU-002,2017,11059,20.033535,145.22947,20.03570278,145.224671,5,AGR,,,0.033953052,10.84438665,339.5305453,108.4438665
pacific,MARIAN,MAU,Maug,OCC-MAU-002,2017,11060,20.035038,145.225229,20.03570278,145.224671,5,AGR,,,0.031123631,18.22071363,311.2363332,182.2071363
pacific,MARIAN,MAU,Maug,OCC-MAU-002,2022,39203,20.036568,145.225443,20.03570278,145.224671,5,AGR,,,0.011317684,6.020970308,113.1768484,60.20970308
pacific,MARIAN,MAU,Maug,OCC-MAU-002,2022,39281,20.035948,145.226559,20.03570278,145.224671,5,AGR,,,0.011317684,7.205299374,113.1768484,72.05299374
pacific,MARIAN,MAU,Maug,OCC-MAU-002,2022,39282,20.033527,145.227613,20.03570278,145.224671,5,AGR,,,0.025464789,20.38565589,254.6479089,203.8565589
pacific,MARIAN,MAU,Maug,OCC-MAU-005,2014,7119,20.02738802,145.2361619,20.02032585,145.2397174,3,AGR,,,0.016976526,6.675464611,169.7652726,66.75464611
pacific,MARIAN,MAU,Maug,OCC-MAU-005,2014,7135,20.02515525,145.2367923,20.02032585,145.2397174,3,ROB,,,0.022635368,12.62395911,226.3536968,126.2395911
pacific,MARIAN,MAU,Maug,OCC-MAU-005,2014,7139,20.01751992,145.2398099,20.02032585,145.2397174,3,AGR,,,0.005658842,4.643358228,56.58842421,46.43358228
pacific,MARIAN,MAU,Maug,OCC-MAU-005,2014,7144,20.01922287,145.2397687,20.02032585,145.2397174,3,AGR,,,0.022635368,9.64159607,226.3536968,96.4159607
pacific,MARIAN,MAU,Maug,OCC-MAU-005,2014,7151,20.02359889,145.2378243,20.02032585,145.2397174,3,PAV,,,0.028294211,22.38870729,282.942121,223.8870729
pacific,MARIAN,MAU,Maug,OCC-MAU-005,2017,11096,20.01737,145.238246,20.02032585,145.2397174,3,AGR,,,0.011317685,7.22819523,113.1768484,72.2819523
pacific,MARIAN,MAU,Maug,OCC-MAU-005,2017,11098,20.026274,145.236228,20.02032585,145.2397174,3,AGR,,,0.014147105,6.490057114,141.4710605,64.90057114
pacific,MARIAN,MAU,Maug,OCC-MAU-005,2017,11113,20.020083,145.240403,20.02032585,145.2397174,3,AGR,,,0.014147105,7.18334894,141.4710605,71.8334894
pacific,MARIAN,MAU,Maug,OCC-MAU-005,2017,11123,20.02594,145.23709,20.02032585,145.2397174,3,AGR,,,0.014147106,7.225542519,141.4710605,72.25542519
pacific,MARIAN,MAU,Maug,OCC-MAU-005,2017,11124,20.02361,145.23755,20.02032585,145.2397174,3,PAV,,,0.025464789,26.36740447,254.6479089,263.6740447
pacific,MARIAN,MAU,Maug,OCC-MAU-005,2022,39361,20.02174,145.239679,20.02032585,145.2397174,3,AGR,,,0.022635368,9.104165494,226.3536968,91.04165494
pacific,MARIAN,MAU,Maug,OCC-MAU-008,2014,7095,20.0136142,145.2095198,20.0131216,145.2080595,1,ROB,,,0.016976526,18.58155706,169.7652726,185.8155706
pacific,MARIAN,MAU,Maug,OCC-MAU-008,2014,7096,20.01744951,145.2066699,20.0131216,145.2080595,1,AGR,,,0.016976526,13.49906318,169.7652726,134.9906318
pacific,MARIAN,MAU,Maug,OCC-MAU-008,2014,7100,20.01860605,145.207487,20.0131216,145.2080595,1,AGR,,,0.005658842,2.236012359,56.58842421,22.36012359
pacific,MARIAN,MAU,Maug,OCC-MAU-008,2014,7101,20.01136576,145.2095204,20.0131216,145.2080595,1,AGR,,,0.016976526,12.21310686,169.7652726,122.1310686
pacific,MARIAN,MAU,Maug,OCC-MAU-008,2017,11076,20.011337,145.208608,20.0131216,145.2080595,1,AGR,,,0.005658842,2.990474427,56.58842421,29.90474427
pacific,MARIAN,MAU,Maug,OCC-MAU-008,2017,11077,20.014862,145.207001,20.0131216,145.2080595,1,AGR,,,0.022635369,3.159057933,226.3536968,31.59057932
pacific,MARIAN,MAU,Maug,OCC-MAU-008,2017,11078,20.015366,145.208589,20.0131216,145.2080595,1,APS,,,0.02829421,27.60233341,282.9421211,276.0233341
pacific,MARIAN,MAU,Maug,OCC-MAU-008,2017,11114,20.010294,145.213003,20.0131216,145.2080595,1,AGR,,,0.025464789,19.50290632,254.6479089,195.0290632
pacific,MARIAN,MAU,Maug,OCC-MAU-008,2022,39206,20.010954,145.212179,20.0131216,145.2080595,1,APS,,,0.008488263,4.112495549,84.88263632,41.12495549
pacific,MARIAN,MAU,Maug,OCC-MAU-008,2022,39303,20.014822,145.20833,20.0131216,145.2080595,1,ROB,,,0.02829421,12.12794607,282.9421211,121.2794607
pacific,MARIAN,MAU,Maug,OCC-MAU-016,2014,7063,20.01808494,145.2299857,20.02296447,145.2299637,4,AGR,,,0.011317684,8.258012985,113.1768484,82.58012984
pacific,MARIAN,MAU,Maug,OCC-MAU-016,2014,7071,20.0205395,145.2300088,20.02296447,145.2299637,4,AGR,,,0.005658842,1.476213304,56.58842421,14.76213304
pacific,MARIAN,MAU,Maug,OCC-MAU-016,2014,7140,20.0150869,145.2286121,20.02296447,145.2299637,4,ROB,,,0.056588421,14.85006149,565.8842421,148.5006149
pacific,MARIAN,MAU,Maug,OCC-MAU-016,2017,11095,20.023049,145.230014,20.02296447,145.2299637,4,ROB,,,0.005658842,5.302323481,56.58842421,53.02323481
pacific,MARIAN,MAU,Maug,OCC-MAU-016,2017,11100,20.014688,145.227793,20.02296447,145.2299637,4,AGR,,,0.005658842,1.689594599,56.58842421,16.89594599
pacific,MARIAN,MAU,Maug,OCC-MAU-016,2017,11101,20.017018,145.229027,20.02296447,145.2299637,4,ROB,,,0.031123633,4.476210113,311.2363331,44.76210113
pacific,MARIAN,MAU,Maug,OCC-MAU-016,2022,39205,20.018459,145.230181,20.02296447,145.2299637,4,ROB,,,0.059417841,44.04300735,594.1784542,440.4300735
pacific,MARIAN,MAU,Maug,OCC-MAU-016,2022,39283,20.016847,145.229033,20.02296447,145.2299637,4,ROB,,,0.039611894,22.75824618,396.1189695,227.5824618
pacific,MARIAN,MAU,Maug,OCC-MAU-016,2022,39304,20.021502,145.229476,20.02296447,145.2299637,4,ROB,,,0.031123632,11.67974811,311.2363331,116.7974811
pacific,MARIAN,MAU,Maug,OCC-MAU-016,2022,39325,20.015073,145.22838,20.02296447,145.2299637,4,ROB,,,0.022635369,2.840899764,226.3536968,28.40899763
pacific,MARIAN,MAU,Maug,OCC-MAU-018,2014,7063,20.01808494,145.2299857,20.02249,145.22971,4,AGR,,,0.011317684,8.258012985,113.1768484,82.58012984
pacific,MARIAN,MAU,Maug,OCC-MAU-018,2014,7071,20.0205395,145.2300088,20.02249,145.22971,4,AGR,,,0.005658842,1.476213304,56.58842421,14.76213304
pacific,MARIAN,MAU,Maug,OCC-MAU-018,2014,7140,20.0150869,145.2286121,20.02249,145.22971,4,ROB,,,0.056588421,14.85006149,565.8842421,148.5006149
pacific,MARIAN,MAU,Maug,OCC-MAU-018,2017,11095,20.023049,145.230014,20.02249,145.22971,4,ROB,,,0.005658842,5.302323481,56.58842421,53.02323481
pacific,MARIAN,MAU,Maug,OCC-MAU-018,2017,11100,20.014688,145.227793,20.02249,145.22971,4,AGR,,,0.005658842,1.689594599,56.58842421,16.89594599
pacific,MARIAN,MAU,Maug,OCC-MAU-018,2017,11101,20.017018,145.229027,20.02249,145.22971,4,ROB,,,0.031123633,4.476210113,311.2363331,44.76210113
pacific,MARIAN,MAU,Maug,OCC-MAU-018,2022,39205,20.018459,145.230181,20.02249,145.22971,4,ROB,,,0.059417841,44.04300735,594.1784542,440.4300735
pacific,MARIAN,MAU,Maug,OCC-MAU-018,2022,39283,20.016847,145.229033,20.02249,145.22971,4,ROB,,,0.039611894,22.75824618,396.1189695,227.5824618
pacific,MARIAN,MAU,Maug,OCC-MAU-018,2022,39304,20.021502,145.229476,20.02249,145.22971,4,ROB,,,0.031123632,11.67974811,311.2363331,116.7974811
pacific,MARIAN,MAU,Maug,OCC-MAU-018,2022,39325,20.015073,145.22838,20.02249,145.22971,4,ROB,,,0.022635369,2.840899764,226.3536968,28.40899763
pacific,MARIAN,MAU,Maug,OCC-MAU-019,2014,7103,20.011206,145.2268421,20.01398,145.22746,2,AGR,,,0,0,0,0
pacific,MARIAN,MAU,Maug,OCC-MAU-019,2014,7140,20.0150869,145.2286121,20.01398,145.22746,2,ROB,,,0.056588421,14.85006149,565.8842421,148.5006149
pacific,MARIAN,MAU,Maug,OCC-MAU-019,2014,7141,20.01347557,145.2266663,20.01398,145.22746,2,AGR,,,0.016976526,4.297964796,169.7652726,42.97964796
pacific,MARIAN,MAU,Maug,OCC-MAU-019,2014,7142,20.0111459,145.2313212,20.01398,145.22746,2,AGR,,,0.011317684,4.111260845,113.1768484,41.11260845
pacific,MARIAN,MAU,Maug,OCC-MAU-019,2014,7152,20.01002583,145.2291126,20.01398,145.22746,2,AGR,,,0,0,0,0
pacific,MARIAN,MAU,Maug,OCC-MAU-019,2017,11094,20.010271,145.230254,20.01398,145.22746,2,AGR,,,0.011317684,3.858767778,113.1768484,38.58767778
pacific,MARIAN,MAU,Maug,OCC-MAU-019,2017,11100,20.014688,145.227793,20.01398,145.22746,2,AGR,,,0.005658842,1.689594599,56.58842421,16.89594599
pacific,MARIAN,MAU,Maug,OCC-MAU-019,2017,11116,20.010593,145.227438,20.01398,145.22746,2,AGR,,,0.033953052,21.76528439,339.5305453,217.6528439
pacific,MARIAN,MAU,Maug,OCC-MAU-019,2022,39280,20.013121,145.226011,20.01398,145.22746,2,AGR,,,0.02263537,16.70031443,226.3536968,167.0031443
pacific,MARIAN,MAU,Maug,OCC-MAU-019,2022,39325,20.015073,145.22838,20.01398,145.22746,2,ROB,,,0.022635369,2.840899764,226.3536968,28.40899763
pacific,MARIAN,MAU,Maug,OCC-MAU-019,2022,39363,20.011199,145.231346,20.01398,145.22746,2,AGR,,,0.014147105,11.25350978,141.4710605,112.5350978
pacific,MARIAN,PAG,Pagan,OCC-PAG-002,2014,6955,18.15455971,145.8074209,18.16783765,145.7949484,3,ROB,,,0.011317684,6.689891826,113.1768484,66.89891826
pacific,MARIAN,PAG,Pagan,OCC-PAG-002,2014,6961,18.15874857,145.8077774,18.16783765,145.7949484,3,AGR,,,0.016976526,3.356775397,169.7652726,33.56775397
pacific,MARIAN,PAG,Pagan,OCC-PAG-002,2014,6974,18.16955687,145.7931388,18.16783765,145.7949484,3,AGR,,,0.028294211,17.63202553,282.942121,176.3202553
pacific,MARIAN,PAG,Pagan,OCC-PAG-002,2014,6975,18.16849136,145.7849975,18.16783765,145.7949484,3,PAV,,,0,0,0,0
pacific,MARIAN,PAG,Pagan,OCC-PAG-002,2014,6976,18.17047435,145.7791176,18.16783765,145.7949484,3,AGR,,,0.016976526,16.54373204,169.7652726,165.4373204
pacific,MARIAN,PAG,Pagan,OCC-PAG-002,2017,10932,18.163628,145.803245,18.16783765,145.7949484,3,AGR,,,0.011317684,4.8585964,113.1768484,48.585964
pacific,MARIAN,PAG,Pagan,OCC-PAG-002,2017,10933,18.166786,145.798806,18.16783765,145.7949484,3,AGR,,,0.008488263,2.602553362,84.88263632,26.02553362
pacific,MARIAN,PAG,Pagan,OCC-PAG-002,2017,10938,18.169705,145.791789,18.16783765,145.7949484,3,AGR,,,0.016976526,10.05687823,169.7652726,100.5687823
pacific,MARIAN,PAG,Pagan,OCC-PAG-002,2017,10943,18.158203,145.806402,18.16783765,145.7949484,3,ROB,,,0.022635368,12.77489206,226.3536968,127.7489206
pacific,MARIAN,PAG,Pagan,OCC-PAG-002,2022,39184,18.153754,145.807587,18.16783765,145.7949484,3,ROB,,,0.022635368,12.41843103,226.3536968,124.1843103
pacific,MARIAN,PAG,Pagan,OCC-PAG-002,2022,39608,18.15496,145.80765,18.16783765,145.7949484,3,ROB,,,0.011317684,6.365872682,113.1768484,63.65872682
pacific,MARIAN,PAG,Pagan,OCC-PAG-002,2022,39609,18.161447,145.806286,18.16783765,145.7949484,3,AGR,,,0.048100159,37.63247833,481.0016057,376.3247833
pacific,MARIAN,PAG,Pagan,OCC-PAG-002,2022,39610,18.167871,145.792585,18.16783765,145.7949484,3,AGR,,,0.022635369,15.31393567,226.3536968,153.1393567
pacific,MARIAN,PAG,Pagan,OCC-PAG-002,2022,39611,18.17046,145.778856,18.16783765,145.7949484,3,AGR,,,0.02546479,22.39753048,254.6479089,223.9753048
pacific,MARIAN,PAG,Pagan,OCC-PAG-006,2014,6897,18.10593068,145.7831409,18.09612301,145.7648616,2,SCR,,,0,0,0,0
pacific,MARIAN,PAG,Pagan,OCC-PAG-006,2014,6898,18.09061602,145.7591141,18.09612301,145.7648616,2,ROB,,,0.022635368,21.07530871,226.3536968,210.7530871
pacific,MARIAN,PAG,Pagan,OCC-PAG-006,2014,6907,18.10292182,145.7720827,18.09612301,145.7648616,2,ROB,,,0.025464789,15.35190174,254.6479089,153.5190174
pacific,MARIAN,PAG,Pagan,OCC-PAG-006,2017,10917,18.090721,145.761289,18.09612301,145.7648616,2,AGR,,,0.008488263,5.180678518,84.88263632,51.80678518
pacific,MARIAN,PAG,Pagan,OCC-PAG-006,2017,10921,18.09933,145.768536,18.09612301,145.7648616,2,APS,,,0,0,0,0
pacific,MARIAN,PAG,Pagan,OCC-PAG-006,2017,10922,18.084114,145.754432,18.09612301,145.7648616,2,ROB,,,0.011317684,17.1387265,113.1768484,171.387265
pacific,MARIAN,PAG,Pagan,OCC-PAG-006,2017,10945,18.105012,145.779169,18.09612301,145.7648616,2,AGR,,,0.011317684,3.949398022,113.1768484,39.49398022
pacific,MARIAN,PAG,Pagan,OCC-PAG-006,2022,39180,18.10446,145.778809,18.09612301,145.7648616,2,APS,,,0.036782474,34.63956294,367.8247574,346.3956294
pacific,MARIAN,PAG,Pagan,OCC-PAG-006,2022,39580,18.096297,145.764923,18.09612301,145.7648616,2,AGR,,,0.011317684,29.47095762,113.1768484,294.7095762
pacific,MARIAN,PAG,Pagan,OCC-PAG-006,2022,39581,18.092339,145.762026,18.09612301,145.7648616,2,PAV,,,0.011317684,14.72655005,113.1768484,147.2655005
pacific,MARIAN,PAG,Pagan,OCC-PAG-006,2022,39582,18.083121,145.753955,18.09612301,145.7648616,2,ROB,,,0.011317684,4.8585964,113.1768484,48.585964
pacific,MARIAN,PAG,Pagan,OCC-PAG-009,2014,6900,18.04265359,145.7116766,18.0456409,145.706226,1,AGR,,,0.011317684,11.55674857,113.1768484,115.5674857
pacific,MARIAN,PAG,Pagan,OCC-PAG-009,2014,6921,18.05575359,145.7078195,18.0456409,145.706226,1,AGR,,,0.011317684,3.470783663,113.1768484,34.70783663
pacific,MARIAN,PAG,Pagan,OCC-PAG-009,2014,6925,18.0603177,145.7084089,18.0456409,145.706226,1,AGR,,,0.011317684,5.285496698,113.1768484,52.85496698
pacific,MARIAN,PAG,Pagan,OCC-PAG-009,2014,6938,18.04469308,145.7051747,18.0456409,145.706226,1,APS,,,0.005658842,2.990474427,56.58842421,29.90474427
pacific,MARIAN,PAG,Pagan,OCC-PAG-009,2014,6939,18.05099904,145.7089135,18.0456409,145.706226,1,AGR,,,0.028294211,9.214383697,282.942121,92.14383697
pacific,MARIAN,PAG,Pagan,OCC-PAG-009,2017,10958,18.050178,145.705884,18.0456409,145.706226,1,AGR,,,0,0,0,0
pacific,MARIAN,PAG,Pagan,OCC-PAG-009,2017,10959,18.050813,145.709302,18.0456409,145.706226,1,AGR,,,0.062247265,39.53167263,622.4726663,395.3167263
pacific,MARIAN,PAG,Pagan,OCC-PAG-009,2017,10960,18.058492,145.709313,18.0456409,145.706226,1,AGR,,,0.022635368,9.409524658,226.3536968,94.09524657
pacific,MARIAN,PAG,Pagan,OCC-PAG-009,2022,39830,18.043319,145.710671,18.0456409,145.706226,1,ROB,,,0.005658842,2.405610629,56.58842421,24.05610629
pacific,MARIAN,PAG,Pagan,OCC-PAG-009,2022,39831,18.053885,145.710762,18.0456409,145.706226,1,SAG,,,0.079223792,52.02786059,792.2379389,520.2786059
pacific,MARIAN,PAG,Pagan,OCC-PAG-009,2022,39863,18.04592,145.703629,18.0456409,145.706226,1,APR,,,0.011317684,8.097600442,113.1768484,80.97600442
pacific,MARIAN,PAG,Pagan,OCC-PAG-009,2022,39864,18.056737,145.70701,18.0456409,145.706226,1,AGR,,,0.033953053,23.63388391,339.5305453,236.3388391
pacific,MARIAN,PAG,Pagan,OCC-PAG-013,2014,6929,18.1208135,145.7556671,18.12013918,145.7546645,4,SAG,,,0.016976526,6.242143715,169.7652726,62.42143715
pacific,MARIAN,PAG,Pagan,OCC-PAG-013,2014,6942,18.11534607,145.7529909,18.12013918,145.7546645,4,AGR,,,0.031123631,10.51188587,311.2363332,105.1188587
pacific,MARIAN,PAG,Pagan,OCC-PAG-013,2014,6943,18.12349789,145.7571276,18.12013918,145.7546645,4,ROB,,,0,0,0,0
pacific,MARIAN,PAG,Pagan,OCC-PAG-013,2017,11140,18.129283,145.753865,18.12013918,145.7546645,4,PAV,,,0,0,0,0
pacific,MARIAN,PAG,Pagan,OCC-PAG-013,2017,11142,18.116489,145.757114,18.12013918,145.7546645,4,SAG,,,0.011317684,3.858767778,113.1768484,38.58767778
pacific,MARIAN,PAG,Pagan,OCC-PAG-013,2017,11143,18.12479,145.7534,18.12013918,145.7546645,4,PAV,,,0.033953054,18.00930123,339.5305452,180.0930123
pacific,MARIAN,PAG,Pagan,OCC-PAG-013,2017,11145,18.118452,145.753773,18.12013918,145.7546645,4,AGR,,,0.118835688,60.03350799,1188.356908,600.3350799
pacific,MARIAN,PAG,Pagan,OCC-PAG-013,2022,39842,18.114295,145.752509,18.12013918,145.7546645,4,AGR,,,0.059417845,48.10161281,594.1784541,481.0161281
pacific,MARIAN,PAG,Pagan,OCC-PAG-013,2022,39843,18.122403,145.757499,18.12013918,145.7546645,4,ROB,,,0,0,0,0
pacific,MARIAN,PAG,Pagan,OCC-PAG-013,2022,39844,18.128556,145.753092,18.12013918,145.7546645,4,PAV,,,0.028294211,29.69802727,282.942121,296.9802727
pacific,MARIAN,SAI,Saipan,OCC-SAI-002,2014,6815,15.28295497,145.8027198,15.29061788,145.8094132,3,PAV,,,0.016976526,3.628240214,169.7652726,36.28240214
pacific,MARIAN,SAI,Saipan,OCC-SAI-002,2014,6816,15.27518922,145.8297087,15.29061788,145.8094132,3,AGR,,,0,0,0,0
pacific,MARIAN,SAI,Saipan,OCC-SAI-002,2014,6817,15.28644679,145.8200421,15.29061788,145.8094132,3,SAG,,,0,0,0,0
pacific,MARIAN,SAI,Saipan,OCC-SAI-002,2014,6852,15.28129066,145.8006952,15.29061788,145.8094132,3,PAV,,,0,0,0,0
pacific,MARIAN,SAI,Saipan,OCC-SAI-002,2014,6853,15.27665438,145.8273128,15.29061788,145.8094132,3,PAV,,,0,0,0,0
pacific,MARIAN,SAI,Saipan,OCC-SAI-002,2014,6864,15.2756939,145.7935438,15.29061788,145.8094132,3,PAV,,,0.022635369,13.46436468,226.3536968,134.6436468
pacific,MARIAN,SAI,Saipan,OCC-SAI-002,2014,6865,15.28706035,145.8158703,15.29061788,145.8094132,3,ROB,,,0.039611896,4.74456007,396.1189694,47.4456007
pacific,MARIAN,SAI,Saipan,OCC-SAI-002,2017,10783,15.279149,145.79912,15.29061788,145.8094132,3,PAV,,,0.005658842,0.402046093,56.58842421,4.020460926
pacific,MARIAN,SAI,Saipan,OCC-SAI-002,2017,10787,15.284082,145.824004,15.29061788,145.8094132,3,PAV,,,0,0,0,0
pacific,MARIAN,SAI,Saipan,OCC-SAI-002,2017,10788,15.287882,145.814087,15.29061788,145.8094132,3,AGR,,,0,0,0,0
pacific,MARIAN,SAI,Saipan,OCC-SAI-002,2017,10790,15.274841,145.792591,15.29061788,145.8094132,3,AGR,,,0,0,0,0
pacific,MARIAN,SAI,Saipan,OCC-SAI-005,2014,6813,15.25500384,145.8120341,15.25866095,145.8156865,2,RRB,,,0.005658842,0.73418543,56.58842421,7.341854298
pacific,MARIAN,SAI,Saipan,OCC-SAI-005,2014,6814,15.26122497,145.8288851,15.25866095,145.8156865,2,SAG,,,0,0,0,0
pacific,MARIAN,SAI,Saipan,OCC-SAI-005,2014,6849,15.26883633,145.8319069,15.25866095,145.8156865,2,PAV,,,0,0,0,0
pacific,MARIAN,SAI,Saipan,OCC-SAI-005,2014,6854,15.25957558,145.8176694,15.25866095,145.8156865,2,SAG,,,0,0,0,0
pacific,MARIAN,SAI,Saipan,OCC-SAI-005,2014,6866,15.25671409,145.8146288,15.25866095,145.8156865,2,AGR,,,0.005658842,1.72499405,56.58842421,17.2499405
pacific,MARIAN,SAI,Saipan,OCC-SAI-005,2014,6867,15.24793924,145.8100267,15.25866095,145.8156865,2,AGR,,,0.02546479,2.224989573,254.6479089,22.24989573
pacific,MARIAN,SAI,Saipan,OCC-SAI-005,2014,6868,15.23508945,145.8029245,15.25866095,145.8156865,2,PAV,,,0.045270738,16.06771465,452.7073936,160.6771465
pacific,MARIAN,SAI,Saipan,OCC-SAI-005,2017,10839,15.258623,145.821939,15.25866095,145.8156865,2,AGR,,,0,0,0,0
pacific,MARIAN,SAI,Saipan,OCC-SAI-005,2017,10845,15.244006,145.809076,15.25866095,145.8156865,2,AGR,,,0.011317684,3.00866099,113.1768484,30.0866099
pacific,MARIAN,SAI,Saipan,OCC-SAI-005,2022,39560,15.244746,145.809268,15.25866095,145.8156865,2,ROB,,,0.093370896,51.87563857,933.7089994,518.7563857
pacific,MARIAN,SAI,Saipan,OCC-SAI-005,2022,39561,15.233967,145.80287,15.25866095,145.8156865,2,PAV,,,0.039611894,43.5402867,396.1189695,435.402867
pacific,MARIAN,SAI,Saipan,OCC-SAI-009,2014,6785,15.1039658,145.7268617,15.09785095,145.7433723,1,AGR,,,0.02546479,4.321867649,254.6479089,43.21867649
pacific,MARIAN,SAI,Saipan,OCC-SAI-009,2014,6786,15.10417409,145.7333183,15.09785095,145.7433723,1,AGR,,,0.016976527,2.617971524,169.7652726,26.17971524
pacific,MARIAN,SAI,Saipan,OCC-SAI-009,2014,6791,15.09768264,145.7428457,15.09785095,145.7433723,1,AGR,,,0.022635369,2.461542946,226.3536968,24.61542946
pacific,MARIAN,SAI,Saipan,OCC-SAI-009,2014,6792,15.10564839,145.724804,15.09785095,145.7433723,1,AGR,,,0.011317684,2.463189084,113.1768484,24.63189084
pacific,MARIAN,SAI,Saipan,OCC-SAI-009,2017,11177,15.104186,145.731804,15.09785095,145.7433723,1,AGR,,,0.031123632,1.857786313,311.2363331,18.57786312
pacific,MARIAN,SAI,Saipan,OCC-SAI-009,2022,38287,15.102978,145.728435,15.09785095,145.7433723,1,AGR,,,0.005658842,0.619579224,56.58842421,6.195792236
pacific,MARIAN,SAI,Saipan,OCC-SAI-009,2022,38288,15.097198,145.744893,15.09785095,145.7433723,1,AGR,,,0.016976526,1.493664062,169.7652726,14.93664061
pacific,MARIAN,SAI,Saipan,OCC-SAI-009,2022,38289,15.095998,145.743657,15.09785095,145.7433723,1,AGR,,,0.005658842,0.879748675,56.58842421,8.797486745
pacific,MARIAN,SAI,Saipan,OCC-SAI-009,2022,39146,15.093753,145.751169,15.09785095,145.7433723,1,PAV,,,0.033953053,13.18854409,339.5305452,131.8854409
pacific,MARIAN,SAI,Saipan,OCC-SAI-009,2022,39147,15.104809,145.709607,15.09785095,145.7433723,1,AGR,,,0.016976527,0.730264481,169.7652726,7.302644809
pacific,MARIAN,SAI,Saipan,OCC-SAI-012,2014,6833,15.17092246,145.693476,15.15644758,145.689702,5,AGR,,,0.005658842,0.279354515,56.58842421,2.793545149
pacific,MARIAN,SAI,Saipan,OCC-SAI-012,2014,6834,15.14310158,145.6807206,15.15644758,145.689702,5,AGR,,,0.005658842,0.619579224,56.58842421,6.195792236
pacific,MARIAN,SAI,Saipan,OCC-SAI-012,2014,6835,15.15487312,145.6852728,15.15644758,145.689702,5,AGR,,,0.02546479,1.607259393,254.6479089,16.07259393
pacific,MARIAN,SAI,Saipan,OCC-SAI-012,2014,6838,15.16202414,145.6931727,15.15644758,145.689702,5,AGR,,,0.045270739,1.195087796,452.7073937,11.95087795
pacific,MARIAN,SAI,Saipan,OCC-SAI-012,2017,10801,15.151969,145.686615,15.15644758,145.689702,5,SCR,,,0.042441318,1.093000236,424.4131816,10.93000236
pacific,MARIAN,SAI,Saipan,OCC-SAI-012,2017,10802,15.150637,145.694676,15.15644758,145.689702,5,AGR,,,0.062247266,1.488140697,622.4726663,14.88140696
pacific,MARIAN,SAI,Saipan,OCC-SAI-012,2017,10811,15.163378,145.693832,15.15644758,145.689702,5,AGR,,,0.070735529,4.220954882,707.3553026,42.20954882
pacific,MARIAN,SAI,Saipan,OCC-SAI-012,2017,11180,15.170245,145.695356,15.15644758,145.689702,5,AGR,,,0.076394372,4.883075899,763.9437269,48.83075899
pacific,MARIAN,SAI,Saipan,OCC-SAI-012,2022,38308,15.165933,145.69254,15.15644758,145.689702,5,AGR,,,0.02263537,1.98271666,226.3536968,19.8271666
pacific,MARIAN,SAI,Saipan,OCC-SAI-012,2022,38309,15.148115,145.694093,15.15644758,145.689702,5,RRB,,,0.045270739,1.224857032,452.7073937,12.24857032
pacific,MARIAN,SAI,Saipan,OCC-SAI-012,2022,39148,15.141153,145.684255,15.15644758,145.689702,5,AGR,,,0.028294211,1.819155581,282.942121,18.19155581
pacific,MARIAN,SAI,Saipan,OCC-SAI-012,2022,39545,15.144991,145.693165,15.15644758,145.689702,5,AGR,,,0.067906108,5.681848269,679.0610905,56.81848269
pacific,MARIAN,SAI,Saipan,OCC-SAI-012,2022,39546,15.169006,145.69491,15.15644758,145.689702,5,AGR,,,0.084882636,4.963689405,848.8263631,49.63689405
pacific,MARIAN,SAI,Saipan,OCC-SAI-016,2014,6818,15.2698445,145.7851077,15.25719135,145.7667456,4,AGR,,,0,0,0,0
pacific,MARIAN,SAI,Saipan,OCC-SAI-016,2014,6851,15.25542906,145.7594811,15.25719135,145.7667456,4,RRB,,,0.005658842,2.187797246,56.58842421,21.87797246
pacific,MARIAN,SAI,Saipan,OCC-SAI-016,2014,6863,15.25660101,145.7355076,15.25719135,145.7667456,4,AGR,,,0.011317685,1.550720647,113.1768484,15.50720647
pacific,MARIAN,SAI,Saipan,OCC-SAI-016,2017,10784,15.261174,145.775238,15.25719135,145.7667456,4,AGR,,,0.008488263,0.705698505,84.88263632,7.056985042
pacific,MARIAN,SAI,Saipan,OCC-SAI-016,2017,10785,15.253637,145.759076,15.25719135,145.7667456,4,AGR,,,0.011317684,1.076583126,113.1768484,10.76583126
pacific,MARIAN,SAI,Saipan,OCC-SAI-016,2017,10786,15.255774,145.747397,15.25719135,145.7667456,4,SCR,,,0.028294211,3.210351418,282.942121,32.10351418
pacific,MARIAN,SAI,Saipan,OCC-SAI-016,2017,10789,15.263476,145.778251,15.25719135,145.7667456,4,AGR,,,0.042441318,7.252084188,424.4131815,72.52084187
pacific,MARIAN,SAI,Saipan,OCC-SAI-016,2022,38320,15.256412,145.739327,15.25719135,145.7667456,4,PAV,,,0,0,0,0
pacific,MARIAN,SAI,Saipan,OCC-SAI-016,2022,38362,15.255716,145.730897,15.25719135,145.7667456,4,AGR,,,0,0,0,0
pacific,MARIAN,SAI,Saipan,OCC-SAI-016,2022,38363,15.253424,145.758243,15.25719135,145.7667456,4,AGR,,,0.016976527,1.669647654,169.7652726,16.69647653
pacific,MARIAN,SAI,Saipan,OCC-SAI-016,2022,38364,15.256318,145.765165,15.25719135,145.7667456,4,AGR,,,0.022635368,2.572723271,226.3536968,25.72723271
pacific,MHI,HAW,Hawaii,OCC-HAW-002,2019,12994,20.24141,-155.764613,20.26828,-155.8604,3,ROB,,,0.014147105,11.30193738,141.4710605,113.0193738
pacific,MHI,HAW,Hawaii,OCC-HAW-002,2019,12995,20.246613,-155.777357,20.26828,-155.8604,3,SAG,,,0.011317684,1.986443842,113.1768484,19.86443842
pacific,MHI,HAW,Hawaii,OCC-HAW-002,2019,13003,20.252542,-155.800695,20.26828,-155.8604,3,ROB,,,0.022635368,2.083009762,226.3536968,20.83009762
pacific,MHI,HAW,Hawaii,OCC-HAW-002,2019,13004,20.260587,-155.821472,20.26828,-155.8604,3,ROB,,,0.011317684,3.415796518,113.1768484,34.15796518
pacific,MHI,HAW,Hawaii,OCC-HAW-002,2013-15,5924,20.24326519,-155.7588726,20.26828,-155.8604,3,ROB,,,0.033953054,59.08164731,339.5305452,590.8164731
pacific,MHI,HAW,Hawaii,OCC-HAW-002,2013-15,5925,20.24433305,-155.7739823,20.26828,-155.8604,3,ROB,,,0,0,0,0
pacific,MHI,HAW,Hawaii,OCC-HAW-002,2013-15,5926,20.24934433,-155.7970292,20.26828,-155.8604,3,ROB,,,0,0,0,0
pacific,MHI,HAW,Hawaii,OCC-HAW-002,2013-15,5927,20.26168551,-155.8246959,20.26828,-155.8604,3,ROB,,,0.016976526,6.267294099,169.7652726,62.67294099
pacific,MHI,HAW,Hawaii,OCC-HAW-002,2013-15,5928,20.27029943,-155.8421885,20.26828,-155.8604,3,PAV,,,0.033953052,89.03881176,339.5305453,890.3881176
pacific,MHI,HAW,Hawaii,OCC-HAW-002,2013-15,5931,20.25059533,-155.7924614,20.26828,-155.8604,3,ROB,,,0.022635368,14.11857075,226.3536968,141.1857075
pacific,MHI,HAW,Hawaii,OCC-HAW-002,2013-15,5932,20.25749448,-155.8038442,20.26828,-155.8604,3,ROB,,,0.011317684,11.55674857,113.1768484,115.5674857
pacific,MHI,HAW,Hawaii,OCC-HAW-002,2013-15,5933,20.26759828,-155.8473238,20.26828,-155.8604,3,ROB,,,0,0,0,0
pacific,MHI,HAW,Hawaii,OCC-HAW-002,2013-15,5934,20.24361681,-155.8899036,20.26828,-155.8604,3,ROB,,,0,0,0,0
pacific,MHI,HAW,Hawaii,OCC-HAW-008,2016,9841,19.094083,-155.536128,19.06075,-155.55231,1,AGR,,,0.011317685,6.69227021,113.1768484,66.9227021
pacific,MHI,HAW,Hawaii,OCC-HAW-008,2016,9842,19.065545,-155.551831,19.06075,-155.55231,1,AGR,,,0,0,0,0
pacific,MHI,HAW,Hawaii,OCC-HAW-008,2016,9843,19.028007,-155.564814,19.06075,-155.55231,1,ROB,,,0,0,0,0
pacific,MHI,HAW,Hawaii,OCC-HAW-008,2016,9848,19.079331,-155.554422,19.06075,-155.55231,1,ROB,,,0.014147105,15.77803201,141.4710605,157.7803201
pacific,MHI,HAW,Hawaii,OCC-HAW-008,2016,9849,19.031586,-155.56104,19.06075,-155.55231,1,ROB,,,0,0,0,0
pacific,MHI,HAW,Hawaii,OCC-HAW-008,2013-15,5990,19.08245567,-155.5452286,19.06075,-155.55231,1,AGR,,,0,0,0,0
pacific,MHI,HAW,Hawaii,OCC-HAW-008,2013-15,5991,19.04885941,-155.5520371,19.06075,-155.55231,1,AGR,,,0.011317684,3.415796518,113.1768484,34.15796518
pacific,MHI,HAW,Hawaii,OCC-HAW-008,2013-15,5992,19.03911771,-155.5566665,19.06075,-155.55231,1,ROB,,,0.008488264,2.614738856,84.88263631,26.14738856
pacific,MHI,HAW,Hawaii,OCC-HAW-008,2013-15,5998,19.08267595,-155.5481138,19.06075,-155.55231,1,SCR,,,0.011317684,8.097600442,113.1768484,80.97600442
pacific,MHI,HAW,Hawaii,OCC-HAW-008,2013-15,5999,19.02496713,-155.5691274,19.06075,-155.55231,1,ROB,,,0.011317684,4.8585964,113.1768484,48.585964
pacific,MHI,HAW,Hawaii,OCC-HAW-010,2016,9895,19.277203,-155.892118,19.24432,-155.90024,4,ROB,,,0.048100161,13.01395911,481.0016057,130.1395911
pacific,MHI,HAW,Hawaii,OCC-HAW-010,2016,9903,19.253842,-155.900541,19.24432,-155.90024,4,AGR,,,0.02546479,5.726362034,254.6479089,57.26362034
pacific,MHI,HAW,Hawaii,OCC-HAW-010,2016,9904,19.227075,-155.902417,19.24432,-155.90024,4,ROB,,,0,0,0,0
pacific,MHI,HAW,Hawaii,OCC-HAW-010,2016,9905,19.207305,-155.903668,19.24432,-155.90024,4,AGR,,,0,0,0,0
pacific,MHI,HAW,Hawaii,OCC-HAW-010,2019,12923,19.262566,-155.895701,19.24432,-155.90024,4,ROB,,,0,0,0,0
pacific,MHI,HAW,Hawaii,OCC-HAW-010,2019,12931,19.242862,-155.899904,19.24432,-155.90024,4,AGR,,,0.011317684,1.161445292,113.1768484,11.61445292
pacific,MHI,HAW,Hawaii,OCC-HAW-010,2019,13057,19.209742,-155.900209,19.24432,-155.90024,4,AGR,,,0.011317684,1.230095198,113.1768484,12.30095197
pacific,MHI,HAW,Hawaii,OCC-HAW-010,2013-15,7528,19.238813,-155.898787,19.24432,-155.90024,4,AGR,,,0,0,0,0
pacific,MHI,HAW,Hawaii,OCC-HAW-010,2013-15,7529,19.221516,-155.903135,19.24432,-155.90024,4,AGR,,,0,0,0,0
pacific,MHI,HAW,Hawaii,OCC-HAW-010,2013-15,7532,19.272309,-155.893603,19.24432,-155.90024,4,AGR,,,0.005658842,2.329703217,56.58842421,23.29703217
pacific,MHI,HAW,Hawaii,OCC-HAW-010,2013-15,7533,19.218277,-155.901028,19.24432,-155.90024,4,ROB,,,0.011317684,7.358813344,113.1768484,73.58813344
pacific,MHI,HAW,Hawaii,OCC-HAW-010,2013-15,7539,19.229177,-155.901983,19.24432,-155.90024,4,AGR,,,0.036782475,26.78066387,367.8247573,267.8066387
pacific,MHI,HAW,Hawaii,OCC-HAW-010,2013-15,7545,19.257267,-155.900001,19.24432,-155.90024,4,AGR,,,0,0,0,0
pacific,MHI,HAW,Hawaii,OCC-HAW-014,2019,12994,20.24141,-155.764613,20.24913,-155.89095,3,ROB,,,0.014147105,11.30193738,141.4710605,113.0193738
pacific,MHI,HAW,Hawaii,OCC-HAW-014,2019,12995,20.246613,-155.777357,20.24913,-155.89095,3,SAG,,,0.011317684,1.986443842,113.1768484,19.86443842
pacific,MHI,HAW,Hawaii,OCC-HAW-014,2019,13003,20.252542,-155.800695,20.24913,-155.89095,3,ROB,,,0.022635368,2.083009762,226.3536968,20.83009762
pacific,MHI,HAW,Hawaii,OCC-HAW-014,2019,13004,20.260587,-155.821472,20.24913,-155.89095,3,ROB,,,0.011317684,3.415796518,113.1768484,34.15796518
pacific,MHI,HAW,Hawaii,OCC-HAW-014,2013-15,5924,20.24326519,-155.7588726,20.24913,-155.89095,3,ROB,,,0.033953054,59.08164731,339.5305452,590.8164731
pacific,MHI,HAW,Hawaii,OCC-HAW-014,2013-15,5925,20.24433305,-155.7739823,20.24913,-155.89095,3,ROB,,,0,0,0,0
pacific,MHI,HAW,Hawaii,OCC-HAW-014,2013-15,5926,20.24934433,-155.7970292,20.24913,-155.89095,3,ROB,,,0,0,0,0
pacific,MHI,HAW,Hawaii,OCC-HAW-014,2013-15,5927,20.26168551,-155.8246959,20.24913,-155.89095,3,ROB,,,0.016976526,6.267294099,169.7652726,62.67294099
pacific,MHI,HAW,Hawaii,OCC-HAW-014,2013-15,5928,20.27029943,-155.8421885,20.24913,-155.89095,3,PAV,,,0.033953052,89.03881176,339.5305453,890.3881176
pacific,MHI,HAW,Hawaii,OCC-HAW-014,2013-15,5931,20.25059533,-155.7924614,20.24913,-155.89095,3,ROB,,,0.022635368,14.11857075,226.3536968,141.1857075
pacific,MHI,HAW,Hawaii,OCC-HAW-014,2013-15,5932,20.25749448,-155.8038442,20.24913,-155.89095,3,ROB,,,0.011317684,11.55674857,113.1768484,115.5674857
pacific,MHI,HAW,Hawaii,OCC-HAW-014,2013-15,5933,20.26759828,-155.8473238,20.24913,-155.89095,3,ROB,,,0,0,0,0
pacific,MHI,HAW,Hawaii,OCC-HAW-014,2013-15,5934,20.24361681,-155.8899036,20.24913,-155.89095,3,ROB,,,0,0,0,0
pacific,MHI,HAW,Hawaii,OCC-HAW-066,2016,9871,19.450839,-154.846345,19.48642,-154.8176,2,ROB,,,0.011317684,17.1387265,113.1768484,171.387265
pacific,MHI,HAW,Hawaii,OCC-HAW-066,2016,9877,19.456547,-154.839091,19.48642,-154.8176,2,RRB,,,0,0,0,0
pacific,MHI,HAW,Hawaii,OCC-HAW-066,2016,9878,19.473039,-154.822906,19.48642,-154.8176,2,ROB,,,0,0,0,0
pacific,MHI,HAW,Hawaii,OCC-HAW-066,2016,9879,19.496331,-154.811416,19.48642,-154.8176,2,ROB,,,0,0,0,0
pacific,MHI,HAW,Hawaii,OCC-HAW-066,2019,12975,19.458164,-154.834713,19.48642,-154.8176,2,RRB,,,0,0,0,0
pacific,MHI,HAW,Hawaii,OCC-HAW-066,2019,12976,19.506029,-154.808004,19.48642,-154.8176,2,ROB,,,0,0,0,0
pacific,MHI,HAW,Hawaii,OCC-HAW-066,2013-15,5970,19.46009243,-154.8347954,19.48642,-154.8176,2,ROB,,,0.014147105,8.481364553,141.4710605,84.81364553
pacific,MHI,HAW,Hawaii,OCC-HAW-066,2013-15,5971,19.44146164,-154.8574018,19.48642,-154.8176,2,RRB,,,0,0,0,0
pacific,MHI,HAW,Hawaii,OCC-HAW-066,2013-15,5975,19.49032243,-154.8146333,19.48642,-154.8176,2,AGR,,,0.005658842,0.220260299,56.58842421,2.202602993
pacific,MHI,HAW,Hawaii,OCC-HAW-066,2013-15,5976,19.4433614,-154.8556298,19.48642,-154.8176,2,ROB,,,0.005658842,6.35708329,56.58842421,63.5708329
pacific,MHI,OAH,Oahu,OCC-OAH-002,2019,13272,21.592828,-158.139736,21.53412,-158.23441,5,PAV,,,0,0,0,0
pacific,MHI,OAH,Oahu,OCC-OAH-002,2019,13273,21.58505,-158.158875,21.53412,-158.23441,5,PSC,,,0,0,0,0
pacific,MHI,OAH,Oahu,OCC-OAH-002,2019,13277,21.590902,-158.175852,21.53412,-158.23441,5,RRB,,,0,0,0,0
pacific,MHI,OAH,Oahu,OCC-OAH-002,2013_2015,6187,21.58317234,-158.1621239,21.53412,-158.23441,5,AGR,,,0,0,0,0
pacific,MHI,OAH,Oahu,OCC-OAH-002,2013_2015,6191,21.59094949,-158.1215031,21.53412,-158.23441,5,PAV,,,0,0,0,0
pacific,MHI,OAH,Oahu,OCC-OAH-002,2013_2015,6192,21.59450753,-158.1494167,21.53412,-158.23441,5,AGR,,,0.011317685,0.407814536,113.1768484,4.078145363
pacific,MHI,OAH,Oahu,OCC-OAH-002,2013_2015,6193,21.59315201,-158.1579677,21.53412,-158.23441,5,AGR,,,0.022635369,2.065953582,226.3536968,20.65953582
pacific,MHI,OAH,Oahu,OCC-OAH-002,2013_2015,6194,21.59008171,-158.1909914,21.53412,-158.23441,5,SAG,,,0,0,0,0
pacific,MHI,OAH,Oahu,OCC-OAH-002,2013_2015,6195,21.58681545,-158.1765855,21.53412,-158.23441,5,PAV,,,0,0,0,0
pacific,MHI,OAH,Oahu,OCC-OAH-002,2013_2015,7840,21.590639,-158.175714,21.53412,-158.23441,5,PAV,,,0.016976526,0.045543982,169.7652726,0.455439818
pacific,MHI,OAH,Oahu,OCC-OAH-005,2016,10085,21.477866,-157.776844,21.47972,-157.78294,4,AGR,,,0.014147106,3.083255815,141.4710605,30.83255815
pacific,MHI,OAH,Oahu,OCC-OAH-005,2019,13334,21.487401,-157.782821,21.47972,-157.78294,4,AGR,,,0.011317684,0.469856081,113.1768484,4.69856081
pacific,MHI,OAH,Oahu,OCC-OAH-005,2019,13343,21.471604,-157.780418,21.47972,-157.78294,4,SAG,,,0.025464791,1.535591109,254.6479089,15.35591109
pacific,MHI,OAH,Oahu,OCC-OAH-005,2019,13432,21.473697,-157.787669,21.47972,-157.78294,4,SAG,,,0.005658842,0.427259862,56.58842421,4.272598619
pacific,MHI,OAH,Oahu,OCC-OAH-005,2019,13433,21.463604,-157.773609,21.47972,-157.78294,4,AGR,,,0.005658842,0.427611066,56.58842421,4.276110659
pacific,MHI,OAH,Oahu,OCC-OAH-005,2013_2015,6429,21.4748686,-157.7833199,21.47972,-157.78294,4,AGR,,,0.008488263,4.566465869,84.88263632,45.66465869
pacific,MHI,OAH,Oahu,OCC-OAH-005,2013_2015,6430,21.47225076,-157.7898415,21.47972,-157.78294,4,PSC,,,0,0,0,0
pacific,MHI,OAH,Oahu,OCC-OAH-005,2013_2015,6436,21.46609769,-157.7642707,21.47972,-157.78294,4,AGR,,,0.048100159,4.777483079,481.0016057,47.77483079
pacific,MHI,OAH,Oahu,OCC-OAH-005,2013_2015,7823,21.478216,-157.776002,21.47972,-157.78294,4,PAV,,,0,0,0,0
pacific,MHI,OAH,Oahu,OCC-OAH-005,2013_2015,7826,21.470013,-157.761159,21.47972,-157.78294,4,PAV,,,0,0,0,0
pacific,MHI,OAH,Oahu,OCC-OAH-007,2016,10085,21.477866,-157.776844,21.458624,-157.798648,4,AGR,,,0.014147106,3.083255815,141.4710605,30.83255815
pacific,MHI,OAH,Oahu,OCC-OAH-007,2019,13334,21.487401,-157.782821,21.458624,-157.798648,4,AGR,,,0.011317684,0.469856081,113.1768484,4.69856081
pacific,MHI,OAH,Oahu,OCC-OAH-007,2019,13343,21.471604,-157.780418,21.458624,-157.798648,4,SAG,,,0.025464791,1.535591109,254.6479089,15.35591109
pacific,MHI,OAH,Oahu,OCC-OAH-007,2019,13432,21.473697,-157.787669,21.458624,-157.798648,4,SAG,,,0.005658842,0.427259862,56.58842421,4.272598619
pacific,MHI,OAH,Oahu,OCC-OAH-007,2019,13433,21.463604,-157.773609,21.458624,-157.798648,4,AGR,,,0.005658842,0.427611066,56.58842421,4.276110659
pacific,MHI,OAH,Oahu,OCC-OAH-007,2013_2015,6429,21.4748686,-157.7833199,21.458624,-157.798648,4,AGR,,,0.008488263,4.566465869,84.88263632,45.66465869
pacific,MHI,OAH,Oahu,OCC-OAH-007,2013_2015,6430,21.47225076,-157.7898415,21.458624,-157.798648,4,PSC,,,0,0,0,0
pacific,MHI,OAH,Oahu,OCC-OAH-007,2013_2015,6436,21.46609769,-157.7642707,21.458624,-157.798648,4,AGR,,,0.048100159,4.777483079,481.0016057,47.77483079
pacific,MHI,OAH,Oahu,OCC-OAH-007,2013_2015,7823,21.478216,-157.776002,21.458624,-157.798648,4,PAV,,,0,0,0,0
pacific,MHI,OAH,Oahu,OCC-OAH-007,2013_2015,7826,21.470013,-157.761159,21.458624,-157.798648,4,PAV,,,0,0,0,0
pacific,MHI,OAH,Oahu,OCC-OAH-008,2016,9980,21.242593,-157.791434,21.26184,-157.76547,3,PAV,,,0,0,0,0
pacific,MHI,OAH,Oahu,OCC-OAH-008,2016,9981,21.271373,-157.734447,21.26184,-157.76547,3,RRB,,,0,0,0,0
pacific,MHI,OAH,Oahu,OCC-OAH-008,2016,9982,21.263145,-157.738757,21.26184,-157.76547,3,PAV,,,0,0,0,0
pacific,MHI,OAH,Oahu,OCC-OAH-008,2019,13359,21.254815,-157.745744,21.26184,-157.76547,3,SCR,,,0,0,0,0
pacific,MHI,OAH,Oahu,OCC-OAH-008,2019,13360,21.274039,-157.7347,21.26184,-157.76547,3,AGR,,,0.005658842,3.007629604,56.58842421,30.07629604
pacific,MHI,OAH,Oahu,OCC-OAH-008,2019,13361,21.267782,-157.765801,21.26184,-157.76547,3,PSC,,,0,0,0,0
pacific,MHI,OAH,Oahu,OCC-OAH-008,2013_2015,7616,21.249638,-157.771685,21.26184,-157.76547,3,PAV,,,0.014147105,1.25221892,141.4710605,12.5221892
pacific,MHI,OAH,Oahu,OCC-OAH-008,2013_2015,7617,21.259926,-157.768376,21.26184,-157.76547,3,PAV,,,0.02263537,1.722706185,226.3536968,17.22706185
pacific,MHI,OAH,Oahu,OCC-OAH-008,2013_2015,7623,21.27142204,-157.7366925,21.26184,-157.76547,3,PAV,,,0,0,0,0
pacific,MHI,OAH,Oahu,OCC-OAH-008,2013_2015,7624,21.27301376,-157.7404445,21.26184,-157.76547,3,PAV,,,0,0,0,0
pacific,MHI,OAH,Oahu,OCC-OAH-008,2013_2015,7629,21.262502,-157.753272,21.26184,-157.76547,3,SCR,,,0,0,0,0
pacific,MHI,OAH,Oahu,OCC-OAH-008,2013_2015,7630,21.26953,-157.755277,21.26184,-157.76547,3,PAV,,,0,0,0,0
pacific,MHI,OAH,Oahu,OCC-OAH-008,2013_2015,7631,21.253034,-157.780555,21.26184,-157.76547,3,AGR,,,0.02263537,1.640025211,226.3536968,16.40025211
pacific,MHI,OAH,Oahu,OCC-OAH-008,2013_2015,7632,21.242949,-157.792696,21.26184,-157.76547,3,PAV,,,0.022635368,35.96555713,226.3536968,359.6555713
pacific,MHI,OAH,Oahu,OCC-OAH-010,2016,9983,21.277561,-157.843758,21.28838,-157.86542,2,AGR,,,0.014147105,5.513009876,141.4710605,55.13009876
pacific,MHI,OAH,Oahu,OCC-OAH-010,2016,9986,21.28362,-157.862287,21.28838,-157.86542,2,SCR,,,0,0,0,0
pacific,MHI,OAH,Oahu,OCC-OAH-010,2016,9987,21.295687,-157.882848,21.28838,-157.86542,2,PAV,,,0,0,0,0
pacific,MHI,OAH,Oahu,OCC-OAH-010,2019,13092,21.277308,-157.847269,21.28838,-157.86542,2,PAV,,,0,0,0,0
pacific,MHI,OAH,Oahu,OCC-OAH-010,2019,13093,21.297019,-157.892229,21.28838,-157.86542,2,PSC,,,0,0,0,0
pacific,MHI,OAH,Oahu,OCC-OAH-010,2019,13094,21.292094,-157.889321,21.28838,-157.86542,2,PSC,,,0,0,0,0
pacific,MHI,OAH,Oahu,OCC-OAH-010,2013_2015,7620,21.283204,-157.852796,21.28838,-157.86542,2,PAV,,,0,0,0,0
pacific,MHI,OAH,Oahu,OCC-OAH-010,2013_2015,7621,21.294595,-157.890851,21.28838,-157.86542,2,PAV,,,0,0,0,0
pacific,MHI,OAH,Oahu,OCC-OAH-010,2013_2015,7627,21.29360139,-157.8777619,21.28838,-157.86542,2,PSC,,,0,0,0,0
pacific,MHI,OAH,Oahu,OCC-OAH-010,2013_2015,7628,21.28190939,-157.8608213,21.28838,-157.86542,2,PAV,,,0,0,0,0
pacific,MHI,OAH,Oahu,OCC-OAH-010,2013_2015,7634,21.290614,-157.885344,21.28838,-157.86542,2,AGR,,,0.005658842,1.003861817,56.58842421,10.03861817
pacific,MHI,OAH,Oahu,OCC-OAH-012,2016,10009,21.547161,-158.252005,21.53412,-158.23441,6,PAV,,,0,0,0,0
pacific,MHI,OAH,Oahu,OCC-OAH-012,2016,10010,21.501435,-158.236933,21.53412,-158.23441,6,PAV,,,0,0,0,0
pacific,MHI,OAH,Oahu,OCC-OAH-012,2019,13276,21.576772,-158.285644,21.53412,-158.23441,6,ROB,,,0.014147106,9.748656805,141.4710605,97.48656805
pacific,MHI,OAH,Oahu,OCC-OAH-012,2019,13280,21.563076,-158.262344,21.53412,-158.23441,6,SAG,,,0,0,0,0
pacific,MHI,OAH,Oahu,OCC-OAH-012,2019,13296,21.572206,-158.278362,21.53412,-158.23441,6,ROB,,,0.016976526,5.062761097,169.7652726,50.62761097
pacific,MHI,OAH,Oahu,OCC-OAH-012,2019,13297,21.564631,-158.273955,21.53412,-158.23441,6,PAV,,,0,0,0,0
pacific,MHI,OAH,Oahu,OCC-OAH-012,2019,13298,21.569702,-158.285599,21.53412,-158.23441,6,ROB,,,0.022635368,10.08294321,226.3536968,100.8294321
pacific,MHI,OAH,Oahu,OCC-OAH-012,2019,13299,21.537065,-158.232438,21.53412,-158.23441,6,PAV,,,0,0,0,0
pacific,MHI,OAH,Oahu,OCC-OAH-012,2013_2015,6395,21.50545978,-158.2393174,21.53412,-158.23441,6,PAV,,,0,0,0,0
pacific,MHI,OAH,Oahu,OCC-OAH-012,2013_2015,6396,21.54116794,-158.2398734,21.53412,-158.23441,6,PAV,,,0,0,0,0
pacific,MHI,OAH,Oahu,OCC-OAH-014,2016,9996,21.336052,-158.127875,21.30566,-158.12622,1,AGR,,,0.022635368,6.395298492,226.3536968,63.95298492
pacific,MHI,OAH,Oahu,OCC-OAH-014,2016,9999,21.297026,-158.122439,21.30566,-158.12622,1,PAV,,,0,0,0,0
pacific,MHI,OAH,Oahu,OCC-OAH-014,2016,10000,21.311209,-158.125831,21.30566,-158.12622,1,PAV,,,0,0,0,0
pacific,MHI,OAH,Oahu,OCC-OAH-014,2019,13260,21.309255,-158.128098,21.30566,-158.12622,1,PAV,,,0,0,0,0
pacific,MHI,OAH,Oahu,OCC-OAH-014,2019,13261,21.330941,-158.131487,21.30566,-158.12622,1,AGR,,,0,0,0,0
pacific,MHI,OAH,Oahu,OCC-OAH-014,2013_2015,6383,21.3304355,-158.1255859,21.30566,-158.12622,1,PAV,,,0.005658842,0.783120384,56.58842421,7.831203843
pacific,MHI,OAH,Oahu,OCC-OAH-014,2013_2015,6384,21.32364172,-158.1330644,21.30566,-158.12622,1,PAV,,,0,0,0,0
pacific,MHI,OAH,Oahu,OCC-OAH-014,2013_2015,7835,21.297486,-158.121318,21.30566,-158.12622,1,PAV,,,0.014147106,0.86554668,141.4710605,8.655466794
pacific,MHI,OAH,Oahu,OCC-OAH-014,2013_2015,7836,21.307776,-158.126483,21.30566,-158.12622,1,PPR,,,0.022635368,58.94191524,226.3536968,589.4191524
pacific,MHI,OAH,Oahu,OCC-OAH-014,2013_2015,7847,21.324571,-158.136123,21.30566,-158.12622,1,PAV,,,0,0,0,0
pacific,NWHI,FFS,French_Frigate,OCC-FFS-002,2016,10358,23.880939,-166.269044,23.87806,-166.291,3,SAG,,,0.014147105,10.82074752,141.4710605,108.2074752
pacific,NWHI,FFS,French_Frigate,OCC-FFS-002,2016,10359,23.876125,-166.281871,23.87806,-166.291,3,PAV,,,0.031123632,13.24110119,311.2363331,132.4110119
pacific,NWHI,FFS,French_Frigate,OCC-FFS-002,2016,10363,23.883236,-166.251689,23.87806,-166.291,3,AGR,,,0,0,0,0
pacific,NWHI,FFS,French_Frigate,OCC-FFS-002,2016,10364,23.875131,-166.299507,23.87806,-166.291,3,AGR,,,0.033953054,4.866851494,339.5305453,48.66851494
pacific,NWHI,FFS,French_Frigate,OCC-FFS-002,2016,10371,23.876965,-166.293968,23.87806,-166.291,3,AGR,,,0.036782474,8.485909421,367.8247574,84.8590942
pacific,NWHI,FFS,French_Frigate,OCC-FFS-002,2017,11232,23.87395998,-166.29411,23.87806,-166.291,3,SAG,,,0.090541477,6.671464483,905.4147873,66.71464483
pacific,NWHI,FFS,French_Frigate,OCC-FFS-002,2017,11234,23.88334,-166.25197,23.87806,-166.291,3,SAG,,,0.014147105,3.914710839,141.4710605,39.14710839
pacific,NWHI,FFS,French_Frigate,OCC-FFS-002,2017,11422,23.87416667,-166.3066148,23.87806,-166.291,3,SAG,,,0.05092958,9.85054977,509.2958179,98.5054977
pacific,NWHI,FFS,French_Frigate,OCC-FFS-002,2017,11423,23.88063155,-166.2619621,23.87806,-166.291,3,SAG,,,0.039611895,9.043809171,396.1189695,90.43809171
pacific,NWHI,FFS,French_Frigate,OCC-FFS-002,2017,11424,23.8782671,-166.2789391,23.87806,-166.291,3,SAG,,,0.022635368,1.675526248,226.3536968,16.75526248
pacific,NWHI,FFS,French_Frigate,OCC-FFS-002,2013_2015,7236,23.87405478,-166.3050114,23.87806,-166.291,3,AGR,,,0.02546479,8.620501708,254.6479089,86.20501708
pacific,NWHI,FFS,French_Frigate,OCC-FFS-002,2013_2015,7239,23.87926974,-166.2519088,23.87806,-166.291,3,SAG,,,0,0,0,0
pacific,NWHI,FFS,French_Frigate,OCC-FFS-002,2013_2015,7240,23.8787535,-166.2806801,23.87806,-166.291,3,SAG,,,0.084882634,74.8014763,848.8263631,748.014763
pacific,NWHI,FFS,French_Frigate,OCC-FFS-002,2013_2015,9039,23.883078,-166.251131,23.87806,-166.291,3,SAG,,,0,0,0,0
pacific,NWHI,FFS,French_Frigate,OCC-FFS-002,2013_2015,9040,23.879402,-166.250265,23.87806,-166.291,3,SAG,,,0.011317684,9.074537814,113.1768484,90.74537814
pacific,NWHI,FFS,French_Frigate,OCC-FFS-002,2013_2015,9041,23.877309,-166.292711,23.87806,-166.291,3,AGR,,,0.050929579,9.758350534,509.2958179,97.58350534
pacific,NWHI,FFS,French_Frigate,OCC-FFS-004,2016,10358,23.880939,-166.269044,23.88021,-166.27707,3,SAG,,,0.014147105,10.82074752,141.4710605,108.2074752
pacific,NWHI,FFS,French_Frigate,OCC-FFS-004,2016,10359,23.876125,-166.281871,23.88021,-166.27707,3,PAV,,,0.031123632,13.24110119,311.2363331,132.4110119
pacific,NWHI,FFS,French_Frigate,OCC-FFS-004,2016,10363,23.883236,-166.251689,23.88021,-166.27707,3,AGR,,,0,0,0,0
pacific,NWHI,FFS,French_Frigate,OCC-FFS-004,2016,10364,23.875131,-166.299507,23.88021,-166.27707,3,AGR,,,0.033953054,4.866851494,339.5305453,48.66851494
pacific,NWHI,FFS,French_Frigate,OCC-FFS-004,2016,10371,23.876965,-166.293968,23.88021,-166.27707,3,AGR,,,0.036782474,8.485909421,367.8247574,84.8590942
pacific,NWHI,FFS,French_Frigate,OCC-FFS-004,2017,11232,23.87395998,-166.29411,23.88021,-166.27707,3,SAG,,,0.090541477,6.671464483,905.4147873,66.71464483
pacific,NWHI,FFS,French_Frigate,OCC-FFS-004,2017,11234,23.88334,-166.25197,23.88021,-166.27707,3,SAG,,,0.014147105,3.914710839,141.4710605,39.14710839
pacific,NWHI,FFS,French_Frigate,OCC-FFS-004,2017,11422,23.87416667,-166.3066148,23.88021,-166.27707,3,SAG,,,0.05092958,9.85054977,509.2958179,98.5054977
pacific,NWHI,FFS,French_Frigate,OCC-FFS-004,2017,11423,23.88063155,-166.2619621,23.88021,-166.27707,3,SAG,,,0.039611895,9.043809171,396.1189695,90.43809171
pacific,NWHI,FFS,French_Frigate,OCC-FFS-004,2017,11424,23.8782671,-166.2789391,23.88021,-166.27707,3,SAG,,,0.022635368,1.675526248,226.3536968,16.75526248
pacific,NWHI,FFS,French_Frigate,OCC-FFS-004,2013_2015,7236,23.87405478,-166.3050114,23.88021,-166.27707,3,AGR,,,0.02546479,8.620501708,254.6479089,86.20501708
pacific,NWHI,FFS,French_Frigate,OCC-FFS-004,2013_2015,7239,23.87926974,-166.2519088,23.88021,-166.27707,3,SAG,,,0,0,0,0
pacific,NWHI,FFS,French_Frigate,OCC-FFS-004,2013_2015,7240,23.8787535,-166.2806801,23.88021,-166.27707,3,SAG,,,0.084882634,74.8014763,848.8263631,748.014763
pacific,NWHI,FFS,French_Frigate,OCC-FFS-004,2013_2015,9039,23.883078,-166.251131,23.88021,-166.27707,3,SAG,,,0,0,0,0
pacific,NWHI,FFS,French_Frigate,OCC-FFS-004,2013_2015,9040,23.879402,-166.250265,23.88021,-166.27707,3,SAG,,,0.011317684,9.074537814,113.1768484,90.74537814
pacific,NWHI,FFS,French_Frigate,OCC-FFS-004,2013_2015,9041,23.877309,-166.292711,23.88021,-166.27707,3,AGR,,,0.050929579,9.758350534,509.2958179,97.58350534
pacific,NWHI,FFS,French_Frigate,OCC-FFS-007,2016,10348,23.821135,-166.09477,23.83515,-166.11682,2,AGR,,,0.005658842,0.340102392,56.58842421,3.401023921
pacific,NWHI,FFS,French_Frigate,OCC-FFS-007,2016,10349,23.809284,-166.089529,23.83515,-166.11682,2,AGR,,,0.079223792,24.45279567,792.2379389,244.5279566
pacific,NWHI,FFS,French_Frigate,OCC-FFS-007,2016,10352,23.829417,-166.109599,23.83515,-166.11682,2,AGR,,,0,0,0,0
pacific,NWHI,FFS,French_Frigate,OCC-FFS-007,2016,10360,23.855185,-166.157656,23.83515,-166.11682,2,AGR,,,0,0,0,0
pacific,NWHI,FFS,French_Frigate,OCC-FFS-007,2017,11262,23.85812564,-166.1766847,23.83515,-166.11682,2,SAG,,,0,0,0,0
pacific,NWHI,FFS,French_Frigate,OCC-FFS-007,2017,11263,23.85769824,-166.1650685,23.83515,-166.11682,2,PAV,,,0,0,0,0
pacific,NWHI,FFS,French_Frigate,OCC-FFS-007,2017,11264,23.82940639,-166.1089813,23.83515,-166.11682,2,PAV,,,0.04810016,6.126376822,481.0016058,61.26376821
pacific,NWHI,FFS,French_Frigate,OCC-FFS-007,2017,11265,23.85683918,-166.1756528,23.83515,-166.11682,2,SAG,,,0.059417843,34.32241226,594.1784542,343.2241226
pacific,NWHI,FFS,French_Frigate,OCC-FFS-007,2013_2015,7234,23.84482515,-166.135005,23.83515,-166.11682,2,PAV,,,0,0,0,0
pacific,NWHI,FFS,French_Frigate,OCC-FFS-007,2013_2015,7250,23.81090091,-166.0689624,23.83515,-166.11682,2,AGR,,,0.011317684,11.69480368,113.1768484,116.9480368
pacific,NWHI,FFS,French_Frigate,OCC-FFS-007,2013_2015,7251,23.80643494,-166.0860749,23.83515,-166.11682,2,AGR,,,0.050929579,33.7561555,509.2958179,337.561555
pacific,NWHI,FFS,French_Frigate,OCC-FFS-010,2016,10102,23.626821,-166.113943,23.63686,-166.18515,1,PAV,,,0,0,0,0
pacific,NWHI,FFS,French_Frigate,OCC-FFS-010,2016,10103,23.624255,-166.133696,23.63686,-166.18515,1,PAV,,,0.019805947,6.149112786,198.0594847,61.49112786
pacific,NWHI,FFS,French_Frigate,OCC-FFS-010,2016,10104,23.635364,-166.159037,23.63686,-166.18515,1,PAV,,,0,0,0,0
pacific,NWHI,FFS,French_Frigate,OCC-FFS-010,2017,11254,23.67903949,-166.0692564,23.63686,-166.18515,1,PAV,,,0,0,0,0
pacific,NWHI,FFS,French_Frigate,OCC-FFS-010,2017,11255,23.66173957,-166.077586,23.63686,-166.18515,1,RRB,,,0,0,0,0
pacific,NWHI,FFS,French_Frigate,OCC-FFS-010,2017,11256,23.64244854,-166.0986439,23.63686,-166.18515,1,PAV,,,0.028294211,6.527759449,282.942121,65.27759449
pacific,NWHI,FFS,French_Frigate,OCC-FFS-010,2013_2015,7256,23.68260649,-166.071086,23.63686,-166.18515,1,AGR,,,0.005658842,0.427259862,56.58842421,4.272598619
pacific,NWHI,FFS,French_Frigate,OCC-FFS-010,2013_2015,7257,23.63346859,-166.1073649,23.63686,-166.18515,1,AGR,,,0,0,0,0
pacific,NWHI,FFS,French_Frigate,OCC-FFS-010,2013_2015,9027,23.639013,-166.091255,23.63686,-166.18515,1,RRB,,,0,0,0,0
pacific,NWHI,FFS,French_Frigate,OCC-FFS-010,2013_2015,9028,23.644129,-166.086826,23.63686,-166.18515,1,RRB,,,0,0,0,0
pacific,NWHI,FFS,French_Frigate,OCC-FFS-014,2016,10356,23.871681,-166.206675,23.79247,-166.25372,4,SAG,,,0.016976527,1.157560684,169.7652726,11.57560684
pacific,NWHI,FFS,French_Frigate,OCC-FFS-014,2016,10357,23.881739,-166.230705,23.79247,-166.25372,4,SAG,,,0.031123632,13.91955467,311.2363331,139.1955467
pacific,NWHI,FFS,French_Frigate,OCC-FFS-014,2016,10361,23.863206,-166.18819,23.79247,-166.25372,4,AGR,,,0.04810016,2.234011391,481.0016058,22.34011391
pacific,NWHI,FFS,French_Frigate,OCC-FFS-014,2016,10362,23.863528,-166.198914,23.79247,-166.25372,4,AGR,,,0,0,0,0
pacific,NWHI,FFS,French_Frigate,OCC-FFS-014,2017,11233,23.87798002,-166.24456,23.79247,-166.25372,4,PAV,,,0.011317684,4.636182238,113.1768484,46.36182238
pacific,NWHI,FFS,French_Frigate,OCC-FFS-014,2017,11260,23.88225085,-166.2401045,23.79247,-166.25372,4,SAG,,,0.056588423,16.39529469,565.884242,163.9529469
pacific,NWHI,FFS,French_Frigate,OCC-FFS-014,2017,11261,23.87544818,-166.2089772,23.79247,-166.25372,4,SAG,,,0.008488263,3.189511329,84.88263632,31.89511329
pacific,NWHI,FFS,French_Frigate,OCC-FFS-014,2013_2015,7235,23.87805194,-166.236623,23.79247,-166.25372,4,AGR,,,0.011317684,2.393961592,113.1768484,23.93961591
pacific,NWHI,FFS,French_Frigate,OCC-FFS-014,2013_2015,7237,23.8656867,-166.1943244,23.79247,-166.25372,4,AGR,,,0.121665111,11.29034711,1216.65112,112.9034711
pacific,NWHI,FFS,French_Frigate,OCC-FFS-014,2013_2015,7238,23.88059266,-166.2214484,23.79247,-166.25372,4,AGR,,,0,0,0,0
pacific,NWHI,PHR,Pearl_Hermes,OCC-PHR_002,2016,10132,27.953997,-175.842854,NA,NA,4,AGR,,,0.042441315,7.613046809,424.4131816,76.13046809
pacific,NWHI,PHR,Pearl_Hermes,OCC-PHR_002,2016,10133,27.952142,-175.833674,NA,NA,4,AGR,,,0.107518003,28.64764289,1075.18006,286.4764289
pacific,NWHI,PHR,Pearl_Hermes,OCC-PHR_002,2016,10134,27.965134,-175.779221,NA,NA,4,AGR,,,0.019805947,5.957740988,198.0594847,59.57740988
pacific,NWHI,PHR,Pearl_Hermes,OCC-PHR_002,2016,10137,27.93865009,-175.8676933,NA,NA,4,SAG,,,0.022635368,13.44014692,226.3536968,134.4014692
pacific,NWHI,PHR,Pearl_Hermes,OCC-PHR_002,2016,10138,27.94434342,-175.8549169,NA,NA,4,SAG,,,0.079223791,13.40034629,792.2379389,134.0034629
pacific,NWHI,PHR,Pearl_Hermes,OCC-PHR_002,2016,10139,27.95736018,-175.8174747,NA,NA,4,PAV,,,0.073564947,24.34576455,735.6495147,243.4576455
pacific,NWHI,PHR,Pearl_Hermes,OCC-PHR_002,2016,10140,27.95997826,-175.8159506,NA,NA,4,SAG,,,0.036782474,10.97683844,367.8247574,109.7683844
pacific,NWHI,PHR,Pearl_Hermes,OCC-PHR_002,2016,10154,27.923921,-175.887033,NA,NA,4,SAG,,,0.02546479,2.142295568,254.6479089,21.42295568
pacific,NWHI,PHR,Pearl_Hermes,OCC-PHR_002,2013_2015,9076,27.94957,-175.852052,NA,NA,4,SAG,,,0.274453854,28.03078273,2744.538574,280.3078273
pacific,NWHI,PHR,Pearl_Hermes,OCC-PHR_002,2013_2015,9077,27.962813,-175.801172,NA,NA,4,SAG,,,0.12449453,27.89351933,1244.945333,278.9351933
pacific,NWHI,PHR,Pearl_Hermes,OCC-PHR_002,2013_2015,9078,27.963134,-175.783718,NA,NA,4,ROB,,,0.110347424,32.02620677,1103.474272,320.2620676
pacific,NWHI,PHR,Pearl_Hermes,OCC-PHR_012,2016,10159,27.760339,-175.92652,NA,NA,2,PAV,,,0.011317684,5.710192027,113.1768484,57.10192027
pacific,NWHI,PHR,Pearl_Hermes,OCC-PHR_012,2016,10160,27.790863,-175.869689,NA,NA,2,AGR,,,0,0,0,0
pacific,NWHI,PHR,Pearl_Hermes,OCC-PHR_012,2016,10163,27.778811,-175.888559,NA,NA,2,PAV,,,0.039611897,4.424361092,396.1189694,44.24361092
pacific,NWHI,PHR,Pearl_Hermes,OCC-PHR_012,2016,10164,27.790492,-175.863448,NA,NA,2,PAV,,,0,0,0,0
pacific,NWHI,PHR,Pearl_Hermes,OCC-PHR_012,2017,11302,27.7850746,-175.8273156,NA,NA,2,PAV,,,0.016976526,0.692321248,169.7652726,6.92321248
pacific,NWHI,PHR,Pearl_Hermes,OCC-PHR_012,2017,11303,27.788983,-175.8571755,NA,NA,2,PAV,,,0,0,0,0
pacific,NWHI,PHR,Pearl_Hermes,OCC-PHR_012,2017,11304,27.77345569,-175.8929338,NA,NA,2,PAV,,,0,0,0,0
pacific,NWHI,PHR,Pearl_Hermes,OCC-PHR_012,2017,11305,27.76030758,-175.9308434,NA,NA,2,PAV,,,0.028294212,1.719815302,282.942121,17.19815302
pacific,NWHI,PHR,Pearl_Hermes,OCC-PHR_012,2017,11316,27.78541675,-175.8327189,NA,NA,2,PAV,,,0,0,0,0
pacific,NWHI,PHR,Pearl_Hermes,OCC-PHR_012,2013_2015,9093,27.789216,-175.861039,NA,NA,2,PAV,,,0,0,0,0
pacific,NWHI,PHR,Pearl_Hermes,OCC-PHR_012,2013_2015,9094,27.784334,-175.879267,NA,NA,2,PAV,,,0.101859162,7.89137767,1018.591636,78.9137767
pacific,NWHI,PHR,Pearl_Hermes,OCC-PHR_016,2016,10202,27.794243,-176.00722,NA,NA,1,SAG,,,0.031123633,9.746886513,311.2363331,97.46886512
pacific,NWHI,PHR,Pearl_Hermes,OCC-PHR_016,2016,10203,27.829707,-176.016234,NA,NA,1,SAG,,,0.045270738,2.638285274,452.7073936,26.38285273
pacific,NWHI,PHR,Pearl_Hermes,OCC-PHR_016,2016,10204,27.80417,-175.997385,NA,NA,1,SAG,,,0.082053213,11.85094115,820.532151,118.5094115
pacific,NWHI,PHR,Pearl_Hermes,OCC-PHR_016,2016,10206,27.77364,-175.985669,NA,NA,1,SAG,,,0.011317685,0.419917575,113.1768484,4.199175751
pacific,NWHI,PHR,Pearl_Hermes,OCC-PHR_016,2016,10207,27.828327,-175.998209,NA,NA,1,AGR,,,0.127323952,17.35555158,1273.239545,173.5555158
pacific,NWHI,PHR,Pearl_Hermes,OCC-PHR_016,2016,10210,27.837944,-175.998357,NA,NA,1,AGR,,,0.050929582,4.950416259,509.2958179,49.50416259
pacific,NWHI,PHR,Pearl_Hermes,OCC-PHR_016,2013_2015,9097,27.760971,-175.976667,NA,NA,1,SAG,,,0.073564951,4.586794748,735.6495147,45.86794748
pacific,NWHI,PHR,Pearl_Hermes,OCC-PHR_016,2013_2015,9098,27.77572,-175.984095,NA,NA,1,PAV,,,0.220694851,33.40266089,2206.948544,334.0266089
pacific,NWHI,PHR,Pearl_Hermes,OCC-PHR_016,2013_2015,9099,27.800468,-176.00703,NA,NA,1,SAG,,,0.127323952,13.41085457,1273.239545,134.1085457
pacific,NWHI,PHR,Pearl_Hermes,OCC-PHR_016,2013_2015,9100,27.828381,-176.0064,NA,NA,1,SAG,,,0.195230063,17.45732783,1952.300635,174.5732783
pacific,NWHI,PHR,Pearl_Hermes,OCC-PHR-007,2016,10186,27.877105,-175.727172,27.86679,-175.73358,3,ROB,,,0,0,0,0
pacific,NWHI,PHR,Pearl_Hermes,OCC-PHR-007,2016,10189,27.89393,-175.724568,27.86679,-175.73358,3,SAG,,,0.028294211,2.394858366,282.942121,23.94858366
pacific,NWHI,PHR,Pearl_Hermes,OCC-PHR-007,2016,10191,27.844694,-175.745412,27.86679,-175.73358,3,SAG,,,0.022635368,7.842480903,226.3536968,78.42480902
pacific,NWHI,PHR,Pearl_Hermes,OCC-PHR-007,2016,10192,27.855164,-175.740858,27.86679,-175.73358,3,SAG,,,0.016976526,9.375051413,169.7652726,93.75051412
pacific,NWHI,PHR,Pearl_Hermes,OCC-PHR-007,2016,10193,27.868397,-175.734583,27.86679,-175.73358,3,SAG,,,0.011317684,3.945854494,113.1768484,39.45854493
pacific,NWHI,PHR,Pearl_Hermes,OCC-PHR-007,2016,10194,27.883704,-175.730107,27.86679,-175.73358,3,SAG,,,0.011317684,6.233780812,113.1768484,62.33780812
pacific,NWHI,PHR,Pearl_Hermes,OCC-PHR-007,2017,11365,27.88908354,-175.7253347,27.86679,-175.73358,3,PAV,,,0.016976527,0.469475034,169.7652726,4.69475034
pacific,NWHI,PHR,Pearl_Hermes,OCC-PHR-007,2017,11366,27.86933871,-175.7347192,27.86679,-175.73358,3,SAG,,,0.011317684,0.779222602,113.1768484,7.792226014
pacific,NWHI,PHR,Pearl_Hermes,OCC-PHR-007,2017,11367,27.86959109,-175.7348097,27.86679,-175.73358,3,SAG,,,0.031123632,9.692003984,311.2363331,96.92003984
pacific,NWHI,PHR,Pearl_Hermes,OCC-PHR-007,2013_2015,9084,27.876201,-175.728024,27.86679,-175.73358,3,PAV,,,0.016976526,18.97208919,169.7652726,189.7208919
pacific,NWHI,PHR,Pearl_Hermes,OCC-PHR-007,2013_2015,9085,27.893284,-175.725122,27.86679,-175.73358,3,SAG,,,0.022635369,3.889715107,226.3536968,38.89715107
pacific,NWHI,PHR,Pearl_Hermes,OCC-PHR-016,2016,10132,27.953997,-175.842854,27.95493,-175.83582,4,AGR,,,0.042441315,7.613046809,424.4131816,76.13046809
pacific,NWHI,PHR,Pearl_Hermes,OCC-PHR-016,2016,10133,27.952142,-175.833674,27.95493,-175.83582,4,AGR,,,0.107518003,28.64764289,1075.18006,286.4764289
pacific,NWHI,PHR,Pearl_Hermes,OCC-PHR-016,2016,10134,27.965134,-175.779221,27.95493,-175.83582,4,AGR,,,0.019805947,5.957740988,198.0594847,59.57740988
pacific,NWHI,PHR,Pearl_Hermes,OCC-PHR-016,2016,10137,27.93865009,-175.8676933,27.95493,-175.83582,4,SAG,,,0.022635368,13.44014692,226.3536968,134.4014692
pacific,NWHI,PHR,Pearl_Hermes,OCC-PHR-016,2016,10138,27.94434342,-175.8549169,27.95493,-175.83582,4,SAG,,,0.079223791,13.40034629,792.2379389,134.0034629
pacific,NWHI,PHR,Pearl_Hermes,OCC-PHR-016,2016,10139,27.95736018,-175.8174747,27.95493,-175.83582,4,PAV,,,0.073564947,24.34576455,735.6495147,243.4576455
pacific,NWHI,PHR,Pearl_Hermes,OCC-PHR-016,2016,10140,27.95997826,-175.8159506,27.95493,-175.83582,4,SAG,,,0.036782474,10.97683844,367.8247574,109.7683844
pacific,NWHI,PHR,Pearl_Hermes,OCC-PHR-016,2016,10154,27.923921,-175.887033,27.95493,-175.83582,4,SAG,,,0.02546479,2.142295568,254.6479089,21.42295568
pacific,NWHI,PHR,Pearl_Hermes,OCC-PHR-016,2013_2015,9076,27.94957,-175.852052,27.95493,-175.83582,4,SAG,,,0.274453854,28.03078273,2744.538574,280.3078273
pacific,NWHI,PHR,Pearl_Hermes,OCC-PHR-016,2013_2015,9077,27.962813,-175.801172,27.95493,-175.83582,4,SAG,,,0.12449453,27.89351933,1244.945333,278.9351933
pacific,NWHI,PHR,Pearl_Hermes,OCC-PHR-016,2013_2015,9078,27.963134,-175.783718,27.95493,-175.83582,4,ROB,,,0.110347424,32.02620677,1103.474272,320.2620676
pacific,PRIA,JAR,Jarvis,OCC-JAR-003,2015,8707,-0.37346089,-159.9736622,-0.36776,-159.97881,2,RRB,,,0.008488263,7.303223526,84.88263632,73.03223526
pacific,PRIA,JAR,Jarvis,OCC-JAR-003,2015,8709,-0.37598653,-159.9776368,-0.36776,-159.97881,2,AGR,,,0.011317684,3.420124671,113.1768484,34.20124671
pacific,PRIA,JAR,Jarvis,OCC-JAR-003,2015,8719,-0.36716357,-159.9793781,-0.36776,-159.97881,2,AGR,,,0.019805948,15.31810531,198.0594847,153.1810531
pacific,PRIA,JAR,Jarvis,OCC-JAR-003,2015,8720,-0.36843376,-159.9832122,-0.36776,-159.97881,2,AGR,,,0.016976526,10.08016366,169.7652726,100.8016366
pacific,PRIA,JAR,Jarvis,OCC-JAR-003,2015,8721,-0.37300902,-159.9809348,-0.36776,-159.97881,2,AGR,,,0.005658842,2.323513099,56.58842421,23.23513099
pacific,PRIA,JAR,Jarvis,OCC-JAR-003,2015,8722,-0.37527264,-159.9795826,-0.36776,-159.97881,2,RRB,,,0.016976526,5.409280002,169.7652726,54.09280002
pacific,PRIA,JAR,Jarvis,OCC-JAR-003,2015,8723,-0.37633035,-159.9762924,-0.36776,-159.97881,2,AGR,,,0.022635369,21.25527778,226.3536968,212.5527778
pacific,PRIA,JAR,Jarvis,OCC-JAR-003,2015,8726,-0.3699135,-159.9761676,-0.36776,-159.97881,2,AGR,,,0.016976526,28.65305541,169.7652726,286.5305541
pacific,PRIA,JAR,Jarvis,OCC-JAR-003,2015,8727,-0.37119828,-159.9826178,-0.36776,-159.97881,2,AGR,,,0.02829421,25.67894194,282.9421211,256.7894194
pacific,PRIA,JAR,Jarvis,OCC-JAR-003,2015,8728,-0.37238709,-159.9759576,-0.36776,-159.97881,2,RRB,,,0,0,0,0
pacific,PRIA,JAR,Jarvis,OCC-JAR-003,2015,8746,-0.36716759,-159.9815376,-0.36776,-159.97881,2,AGR,,,0.011317684,10.96313154,113.1768484,109.6313154
pacific,PRIA,JAR,Jarvis,OCC-JAR-003,2015,8753,-0.37237971,-159.9742129,-0.36776,-159.97881,2,AGR,,,0.014147105,18.93793239,141.4710605,189.3793239
pacific,PRIA,JAR,Jarvis,OCC-JAR-003,2015,8754,-0.37299134,-159.9764434,-0.36776,-159.97881,2,AGR,,,0.016976526,14.97691501,169.7652726,149.7691501
pacific,PRIA,JAR,Jarvis,OCC-JAR-003,2015,8755,-0.37175719,-159.9807029,-0.36776,-159.97881,2,AGR,,,0.016976526,2.672228395,169.7652726,26.72228396
pacific,PRIA,JAR,Jarvis,OCC-JAR-003,2016,9579,-0.367099,-159.979691,-0.36776,-159.97881,2,AGR,,,0.016976526,15.06339877,169.7652726,150.6339877
pacific,PRIA,JAR,Jarvis,OCC-JAR-003,2016,9580,-0.370144,-159.981363,-0.36776,-159.97881,2,AGR,,,0.005658842,3.323246633,56.58842421,33.23246632
pacific,PRIA,JAR,Jarvis,OCC-JAR-003,2016,9619,-0.367526,-159.983219,-0.36776,-159.97881,2,AGR,,,0.011317684,13.37653803,113.1768484,133.7653803
pacific,PRIA,JAR,Jarvis,OCC-JAR-003,2016,9624,-0.371247,-159.976039,-0.36776,-159.97881,2,AGR,,,0.014147105,32.48392213,141.4710605,324.8392213
pacific,PRIA,JAR,Jarvis,OCC-JAR-003,2017,10425,-0.370222,-159.976498,-0.36776,-159.97881,2,RRB,,,0.028294211,20.43944459,282.942121,204.3944459
pacific,PRIA,JAR,Jarvis,OCC-JAR-003,2017,10426,-0.368868,-159.981791,-0.36776,-159.97881,2,AGR,,,0.008488263,20.71787062,84.88263632,207.1787062
pacific,PRIA,JAR,Jarvis,OCC-JAR-003,2017,10440,-0.375851,-159.980505,-0.36776,-159.97881,2,AGR,,,0.016976526,3.235331423,169.7652726,32.35331423
pacific,PRIA,JAR,Jarvis,OCC-JAR-003,2018,12239,-0.370161,-159.978205,-0.36776,-159.97881,2,AGR,,,0.028294211,27.12304381,282.942121,271.2304381
pacific,PRIA,JAR,Jarvis,OCC-JAR-003,2018,12240,-0.371017,-159.983576,-0.36776,-159.97881,2,AGR,,,0.005658842,4.487613872,56.58842421,44.87613872
pacific,PRIA,JAR,Jarvis,OCC-JAR-003,2018,12244,-0.367498,-159.980004,-0.36776,-159.97881,2,AGR,,,0.011317684,6.171694637,113.1768484,61.71694637
pacific,PRIA,JAR,Jarvis,OCC-JAR-003,2018,12245,-0.373745,-159.978199,-0.36776,-159.97881,2,AGR,,,0.014147105,6.512274286,141.4710605,65.12274286
pacific,PRIA,JAR,Jarvis,OCC-JAR-003,2018,12279,-0.372014,-159.974928,-0.36776,-159.97881,2,AGR,,,0.031123631,34.37889678,311.2363332,343.7889678
pacific,PRIA,JAR,Jarvis,OCC-JAR-003,2018,12280,-0.367884,-159.982523,-0.36776,-159.97881,2,AGR,,,0.011317684,9.853788532,113.1768484,98.53788532
pacific,PRIA,JAR,Jarvis,OCC-JAR-003,2018,12297,-0.375695,-159.976467,-0.36776,-159.97881,2,RRB,,,0.022635368,18.40983844,226.3536968,184.0983844
pacific,PRIA,JAR,Jarvis,OCC-JAR-008,2015,8699,-0.381892,-160.0011468,-0.38234,-160.00305,1,AGR,,,0.025464789,23.49093707,254.6479089,234.9093707
pacific,PRIA,JAR,Jarvis,OCC-JAR-008,2015,8700,-0.38177968,-159.9914902,-0.38234,-160.00305,1,AGR,,,0.014147105,19.18218599,141.4710605,191.8218599
pacific,PRIA,JAR,Jarvis,OCC-JAR-008,2015,8701,-0.38208269,-159.9881174,-0.38234,-160.00305,1,AGR,,,0.011317684,6.680402955,113.1768484,66.80402955
pacific,PRIA,JAR,Jarvis,OCC-JAR-008,2015,8703,-0.38183609,-160.0048884,-0.38234,-160.00305,1,SAG,,,0.008488264,4.031048597,84.88263631,40.31048597
pacific,PRIA,JAR,Jarvis,OCC-JAR-008,2015,8704,-0.38243975,-160.0033367,-0.38234,-160.00305,1,AGR,,,0.005658842,4.035907921,56.58842421,40.35907921
pacific,PRIA,JAR,Jarvis,OCC-JAR-008,2015,8705,-0.38160291,-160.0072756,-0.38234,-160.00305,1,AGR,,,0.028294211,17.08358259,282.942121,170.8358259
pacific,PRIA,JAR,Jarvis,OCC-JAR-008,2015,8787,-0.38222057,-160.0026219,-0.38234,-160.00305,1,AGR,,,0.028294211,28.97548729,282.942121,289.7548729
pacific,PRIA,JAR,Jarvis,OCC-JAR-008,2015,8788,-0.38178261,-159.9944623,-0.38234,-160.00305,1,AGR,,,0.016976526,34.36549329,169.7652726,343.6549329
pacific,PRIA,JAR,Jarvis,OCC-JAR-008,2016,9598,-0.381892,-159.989628,-0.38234,-160.00305,1,RRB,,,0.016976526,25.33777015,169.7652726,253.3777015
pacific,PRIA,JAR,Jarvis,OCC-JAR-008,2016,9606,-0.381987,-159.995818,-0.38234,-160.00305,1,AGR,,,0.025464789,18.7595951,254.6479089,187.595951
pacific,PRIA,JAR,Jarvis,OCC-JAR-008,2016,9607,-0.381831,-159.998748,-0.38234,-160.00305,1,AGR,,,0.011317684,11.18228356,113.1768484,111.8228356
pacific,PRIA,JAR,Jarvis,OCC-JAR-008,2016,9608,-0.381009,-160.008729,-0.38234,-160.00305,1,SAG,,,0.016976526,11.41800669,169.7652726,114.1800669
pacific,PRIA,JAR,Jarvis,OCC-JAR-008,2016,9622,-0.38202,-160.005707,-0.38234,-160.00305,1,AGR,,,0.008488263,7.838304709,84.88263632,78.38304709
pacific,PRIA,JAR,Jarvis,OCC-JAR-008,2017,10412,-0.382208,-160.002526,-0.38234,-160.00305,1,AGR,,,0.113176847,19.10943434,1131.768484,191.0943434
pacific,PRIA,JAR,Jarvis,OCC-JAR-008,2017,10413,-0.381411,-159.99854,-0.38234,-160.00305,1,SAG,,,0.130153375,33.86969443,1301.533757,338.6969443
pacific,PRIA,JAR,Jarvis,OCC-JAR-008,2017,10436,-0.382229,-159.991677,-0.38234,-160.00305,1,RRB,,,0.031123632,21.64462297,311.2363331,216.4462297
pacific,PRIA,JAR,Jarvis,OCC-JAR-008,2018,12219,-0.381499,-160.007448,-0.38234,-160.00305,1,AGR,,,0.056588422,59.57908683,565.8842421,595.7908683
pacific,PRIA,JAR,Jarvis,OCC-JAR-008,2018,12220,-0.381891,-159.988001,-0.38234,-160.00305,1,AGR,,,0.022635369,14.53036396,226.3536968,145.3036396
pacific,PRIA,JAR,Jarvis,OCC-JAR-008,2018,12223,-0.38133,-159.999561,-0.38234,-160.00305,1,SAG,,,0.169765272,65.75707821,1697.652726,657.5707821
pacific,PRIA,JAR,Jarvis,OCC-JAR-008,2018,12282,-0.38206,-160.002187,-0.38234,-160.00305,1,AGR,,,0.025464789,37.48424253,254.6479089,374.8424253
pacific,PRIA,JAR,Jarvis,OCC-JAR-013,2015,8685,-0.36929442,-160.008344,-0.36896,-160.00813,3,AGR,,,0.011317684,13.00907092,113.1768484,130.0907092
pacific,PRIA,JAR,Jarvis,OCC-JAR-013,2015,8686,-0.3652224,-160.0061019,-0.36896,-160.00813,3,AGR,,,0.016976526,33.71544938,169.7652726,337.1544938
pacific,PRIA,JAR,Jarvis,OCC-JAR-013,2015,8687,-0.37125302,-160.0107054,-0.36896,-160.00813,3,AGR,,,0.011317684,13.05687865,113.1768484,130.5687865
pacific,PRIA,JAR,Jarvis,OCC-JAR-013,2015,8764,-0.36327537,-160.0049524,-0.36896,-160.00813,3,RRB,,,0.016976526,21.38876245,169.7652726,213.8876245
pacific,PRIA,JAR,Jarvis,OCC-JAR-013,2015,8765,-0.36619747,-160.0065382,-0.36896,-160.00813,3,SAG,,,0.014147105,17.26263741,141.4710605,172.6263741
pacific,PRIA,JAR,Jarvis,OCC-JAR-013,2015,8769,-0.37081355,-160.0099869,-0.36896,-160.00813,3,AGR,,,0.011317684,12.55578026,113.1768484,125.5578026
pacific,PRIA,JAR,Jarvis,OCC-JAR-013,2015,8770,-0.36647483,-160.0068832,-0.36896,-160.00813,3,AGR,,,0.016976526,18.04228473,169.7652726,180.4228473
pacific,PRIA,JAR,Jarvis,OCC-JAR-013,2015,8771,-0.3633374,-160.0047243,-0.36896,-160.00813,3,SAG,,,0.014147105,21.21846347,141.4710605,212.1846347
pacific,PRIA,JAR,Jarvis,OCC-JAR-013,2015,8792,-0.37108915,-160.0094813,-0.36896,-160.00813,3,SAG,,,0.022635368,29.59333295,226.3536968,295.9333295
pacific,PRIA,JAR,Jarvis,OCC-JAR-013,2015,8793,-0.36826411,-160.0074457,-0.36896,-160.00813,3,SAG,,,0.02829421,67.09348651,282.9421211,670.9348651
pacific,PRIA,JAR,Jarvis,OCC-JAR-013,2016,9566,-0.36317,-160.004883,-0.36896,-160.00813,3,AGR,,,0.005658842,2.687365731,56.58842421,26.87365731
pacific,PRIA,JAR,Jarvis,OCC-JAR-013,2016,9568,-0.366654,-160.006872,-0.36896,-160.00813,3,AGR,,,0.011317684,13.09818567,113.1768484,130.9818567
pacific,PRIA,JAR,Jarvis,OCC-JAR-013,2016,9609,-0.372703,-160.011614,-0.36896,-160.00813,3,SAG,,,0.016976526,16.20917712,169.7652726,162.0917712
pacific,PRIA,JAR,Jarvis,OCC-JAR-013,2016,9626,-0.369011,-160.008139,-0.36896,-160.00813,3,AGR,,,0.02829421,24.63635266,282.9421211,246.3635266
pacific,PRIA,JAR,Jarvis,OCC-JAR-013,2017,10397,-0.371312,-160.010626,-0.36896,-160.00813,3,AGR,,,0.042441316,21.02701553,424.4131815,210.2701553
pacific,PRIA,JAR,Jarvis,OCC-JAR-013,2017,10398,-0.370127,-160.008941,-0.36896,-160.00813,3,AGR,,,0.048100159,13.12965543,481.0016057,131.2965543
pacific,PRIA,JAR,Jarvis,OCC-JAR-013,2017,10404,-0.371407,-160.010989,-0.36896,-160.00813,3,AGR,,,0.056588424,33.60126603,565.884242,336.0126603
pacific,PRIA,JAR,Jarvis,OCC-JAR-013,2017,10405,-0.372027,-160.011727,-0.36896,-160.00813,3,AGR,,,0.036782475,2.232620789,367.8247574,22.32620788
pacific,PRIA,JAR,Jarvis,OCC-JAR-013,2017,10406,-0.363192,-160.004818,-0.36896,-160.00813,3,AGR,,,0.02546479,28.09232554,254.6479089,280.9232554
pacific,PRIA,JAR,Jarvis,OCC-JAR-013,2017,10407,-0.365279,-160.006139,-0.36896,-160.00813,3,AGR,,,0.042441317,25.40429728,424.4131815,254.0429728
pacific,PRIA,JAR,Jarvis,OCC-JAR-013,2018,12225,-0.36472,-160.005902,-0.36896,-160.00813,3,AGR,,,0.048100158,32.92223147,481.0016058,329.2223147
pacific,PRIA,JAR,Jarvis,OCC-JAR-013,2018,12226,-0.366942,-160.007139,-0.36896,-160.00813,3,AGR,,,0.039611895,11.39725057,396.1189695,113.9725057
pacific,PRIA,JAR,Jarvis,OCC-JAR-013,2018,12242,-0.362887,-160.004638,-0.36896,-160.00813,3,RRB,,,0.014147105,22.71172274,141.4710605,227.1172274
pacific,PRIA,JAR,Jarvis,OCC-JAR-013,2018,12281,-0.371858,-160.010672,-0.36896,-160.00813,3,SAG,,,0.036782473,15.32852142,367.8247574,153.2852142
pacific,PRIA,JAR,Jarvis,OCC-JAR-013,2018,12293,-0.368892,-160.007361,-0.36896,-160.00813,3,SAG,,,0.019805947,21.76849428,198.0594847,217.6849428
pacific,PRIA,JAR,Jarvis,OCC-JAR-013,2018,12294,-0.371975,-160.011699,-0.36896,-160.00813,3,SAG,,,0.033953054,11.34160213,339.5305452,113.4160213
pacific,PRIA,PAL,Palmyra,OCC-PAL-003,2015,8816,5.898855,-162.064242,5.89733,-162.07817,3,AGR,,,0.02829421,8.418218693,282.9421211,84.18218692
pacific,PRIA,PAL,Palmyra,OCC-PAL-003,2015,8838,5.89788501,-162.0776555,5.89733,-162.07817,3,AGR,,,0.008488264,3.620353844,84.88263631,36.20353844
pacific,PRIA,PAL,Palmyra,OCC-PAL-003,2015,8839,5.89886192,-162.0721595,5.89733,-162.07817,3,AGR,,,0.031123631,7.243576539,311.2363332,72.43576539
pacific,PRIA,PAL,Palmyra,OCC-PAL-003,2015,8840,5.89588207,-162.0800733,5.89733,-162.07817,3,AGR,,,0.05092958,12.67326537,509.2958178,126.7326537
pacific,PRIA,PAL,Palmyra,OCC-PAL-003,2015,8841,5.8954442,-162.0868691,5.89733,-162.07817,3,AGR,,,0.016976527,2.666952659,169.7652726,26.66952658
pacific,PRIA,PAL,Palmyra,OCC-PAL-003,2015,8842,5.89791686,-162.093688,5.89733,-162.07817,3,AGR,,,0.014147105,4.442907438,141.4710605,44.42907438
pacific,PRIA,PAL,Palmyra,OCC-PAL-003,2015,8843,5.89630804,-162.0988536,5.89733,-162.07817,3,SAG,,,0.019805947,6.692044761,198.0594847,66.92044761
pacific,PRIA,PAL,Palmyra,OCC-PAL-003,2018,12369,5.895169,-162.087263,5.89733,-162.07817,3,AGR,,,0.016976527,1.443065715,169.7652726,14.43065715
pacific,PRIA,PAL,Palmyra,OCC-PAL-003,2018,12403,5.898475,-162.075081,5.89733,-162.07817,3,AGR,,,0.033953054,3.036669795,339.5305452,30.36669794
pacific,PRIA,PAL,Palmyra,OCC-PAL-003,2018,12405,5.896167,-162.09845,5.89733,-162.07817,3,AGR,,,0.039611895,17.44477402,396.1189695,174.4477402
pacific,PRIA,PAL,Palmyra,OCC-PAL-008,2015,8801,5.86420183,-162.0349871,5.86379,-162.03062,2,AGR,,,0.014147105,3.263845093,141.4710605,32.63845093
pacific,PRIA,PAL,Palmyra,OCC-PAL-008,2015,8802,5.86671665,-162.0438082,5.86379,-162.03062,2,AGR,,,0.019805947,8.100949654,198.0594847,81.00949653
pacific,PRIA,PAL,Palmyra,OCC-PAL-008,2015,8808,5.87079763,-162.0257784,5.86379,-162.03062,2,PSC,,,0.011317684,2.421631156,113.1768484,24.21631156
pacific,PRIA,PAL,Palmyra,OCC-PAL-008,2015,8827,5.86413184,-162.0250631,5.86379,-162.03062,2,PAV,,,0.033953054,12.69800074,339.5305452,126.9800074
pacific,PRIA,PAL,Palmyra,OCC-PAL-008,2015,8845,5.86477691,-162.0389196,5.86379,-162.03062,2,AGR,,,0.014147105,3.119245258,141.4710605,31.19245257
pacific,PRIA,PAL,Palmyra,OCC-PAL-008,2018,12380,5.868163,-162.032051,5.86379,-162.03062,2,RRB,,,0,0,0,0
pacific,PRIA,PAL,Palmyra,OCC-PAL-008,2018,12381,5.866152,-162.041666,5.86379,-162.03062,2,AGR,,,0.014147106,1.119036285,141.4710605,11.19036285
pacific,PRIA,PAL,Palmyra,OCC-PAL-008,2018,12389,5.865515,-162.029881,5.86379,-162.03062,2,AGR,,,0.022635369,7.848790069,226.3536968,78.48790068
pacific,PRIA,PAL,Palmyra,OCC-PAL-008,2018,12390,5.872814,-162.022348,5.86379,-162.03062,2,SAG,,,0,0,0,0
pacific,PRIA,PAL,Palmyra,OCC-PAL-008,2018,12391,5.868946,-162.04051,5.86379,-162.03062,2,APS,,,0.028294211,3.363689805,282.942121,33.63689804
pacific,PRIA,PAL,Palmyra,OCC-PAL-017,2015,8872,5.8776407,-162.1408258,5.88322,-162.13322,1,AGR,,,0.02829421,35.22315607,282.9421211,352.2315607
pacific,PRIA,PAL,Palmyra,OCC-PAL-017,2015,8876,5.87399458,-162.1316521,5.88322,-162.13322,1,AGR,,,0.019805947,7.401352217,198.0594847,74.01352217
pacific,PRIA,PAL,Palmyra,OCC-PAL-017,2015,8878,5.8759572,-162.126314,5.88322,-162.13322,1,AGR,,,0.025464789,5.190251823,254.6479089,51.90251823
pacific,PRIA,PAL,Palmyra,OCC-PAL-017,2015,8884,5.88157617,-162.1316453,5.88322,-162.13322,1,AGR,,,0.042441316,24.35333843,424.4131816,243.5333843
pacific,PRIA,PAL,Palmyra,OCC-PAL-017,2015,8885,5.88990293,-162.1364704,5.88322,-162.13322,1,AGR,,,0.02829421,35.86860937,282.9421211,358.6860937
pacific,PRIA,PAL,Palmyra,OCC-PAL-017,2015,8886,5.88297721,-162.1260189,5.88322,-162.13322,1,AGR,,,0.031123631,9.673873782,311.2363332,96.73873781
pacific,PRIA,PAL,Palmyra,OCC-PAL-017,2015,8900,5.87977943,-162.1388969,5.88322,-162.13322,1,AGR,,,0.008488263,2.05575243,84.88263632,20.5575243
pacific,PRIA,PAL,Palmyra,OCC-PAL-017,2015,8906,5.88725341,-162.1405547,5.88322,-162.13322,1,AGR,,,0.022635369,3.782929856,226.3536968,37.82929856
pacific,PRIA,PAL,Palmyra,OCC-PAL-017,2015,8908,5.8880087,-162.1320354,5.88322,-162.13322,1,AGR,,,0.005658842,1.475574054,56.58842421,14.75574054
pacific,PRIA,PAL,Palmyra,OCC-PAL-017,2015,8909,5.88832235,-162.1303147,5.88322,-162.13322,1,AGR,,,0.022635369,3.720517744,226.3536968,37.20517744
pacific,PRIA,PAL,Palmyra,OCC-PAL-017,2015,8913,5.88648059,-162.1293374,5.88322,-162.13322,1,AGR,,,0.02546479,3.635256876,254.6479089,36.35256875
pacific,PRIA,PAL,Palmyra,OCC-PAL-017,2018,12347,5.880153,-162.129242,5.88322,-162.13322,1,AGR,,,0.062247265,37.84281937,622.4726663,378.4281937
pacific,PRIA,PAL,Palmyra,OCC-PAL-017,2018,12363,5.885253,-162.130273,5.88322,-162.13322,1,AGR,,,0.048100159,17.75449822,481.0016058,177.5449822
pacific,PRIA,PAL,Palmyra,OCC-PAL-017,2018,12421,5.886582,-162.137701,5.88322,-162.13322,1,AGR,,,0.031123633,7.824968669,311.2363331,78.24968669
pacific,PRIA,PAL,Palmyra,OCC-PAL-017,2018,12430,5.880826,-162.135794,5.88322,-162.13322,1,AGR,,,0.045270738,40.75133212,452.7073937,407.5133212
pacific,PRIA,WAK,Wake,OCC-WAK-002,2014,6521,19.31935508,166.623196,19.31602,166.62721,3,AGR,,,0.005658842,2.702589414,56.58842421,27.02589414
pacific,PRIA,WAK,Wake,OCC-WAK-002,2014,6524,19.31613777,166.6401021,19.31602,166.62721,3,AGR,,,0.008488264,5.742881435,84.88263631,57.42881435
pacific,PRIA,WAK,Wake,OCC-WAK-002,2014,6526,19.31512146,166.6419026,19.31602,166.62721,3,AGR,,,0.008488263,1.536220356,84.88263632,15.36220355
pacific,PRIA,WAK,Wake,OCC-WAK-002,2014,6527,19.31524996,166.6322599,19.31602,166.62721,3,AGR,,,0.011317684,2.532736727,113.1768484,25.32736726
pacific,PRIA,WAK,Wake,OCC-WAK-002,2014,6528,19.31482407,166.6301456,19.31602,166.62721,3,AGR,,,0.019805948,2.12763018,198.0594847,21.2763018
pacific,PRIA,WAK,Wake,OCC-WAK-002,2014,6529,19.31579235,166.6275567,19.31602,166.62721,3,AGR,,,0.042441318,10.50196139,424.4131815,105.0196139
pacific,PRIA,WAK,Wake,OCC-WAK-002,2014,6538,19.31573041,166.6336331,19.31602,166.62721,3,AGR,,,0.011317684,6.033500836,113.1768484,60.33500836
pacific,PRIA,WAK,Wake,OCC-WAK-002,2014,6539,19.31610516,166.6415067,19.31602,166.62721,3,AGR,,,0.022635368,15.91864904,226.3536968,159.1864904
pacific,PRIA,WAK,Wake,OCC-WAK-002,2017,10513,19.315347,166.631536,19.31602,166.62721,3,AGR,,,0.011317685,3.864725192,113.1768484,38.64725192
pacific,PRIA,WAK,Wake,OCC-WAK-002,2017,10514,19.31934,166.622933,19.31602,166.62721,3,PAV,,,0,0,0,0
pacific,PRIA,WAK,Wake,OCC-WAK-002,2017,10572,19.316283,166.637794,19.31602,166.62721,3,AGR,,,0.011317684,1.793889471,113.1768484,17.9388947
pacific,PRIA,WAK,Wake,OCC-WAK-002,2017,10573,19.31502,166.641253,19.31602,166.62721,3,PAV,,,0.011317684,6.143597318,113.1768484,61.43597318
pacific,PRIA,WAK,Wake,OCC-WAK-002,2017,10574,19.315434,166.633119,19.31602,166.62721,3,AGR,,,0.005658842,2.687365731,56.58842421,26.87365731
pacific,PRIA,WAK,Wake,OCC-WAK-005,2014,6543,19.2969925,166.6532768,19.30616,166.65108,2,AGR,,,0.008488264,3.246658759,84.88263631,32.46658759
pacific,PRIA,WAK,Wake,OCC-WAK-005,2014,6544,19.29930548,166.6515803,19.30616,166.65108,2,AGR,,,0.005658842,2.687365731,56.58842421,26.87365731
pacific,PRIA,WAK,Wake,OCC-WAK-005,2014,6545,19.29794175,166.6520721,19.30616,166.65108,2,PAV,,,0.005658842,2.405610629,56.58842421,24.05610629
pacific,PRIA,WAK,Wake,OCC-WAK-005,2014,6553,19.30990264,166.6525906,19.30616,166.65108,2,AGR,,,0.008488263,3.362603563,84.88263632,33.62603563
pacific,PRIA,WAK,Wake,OCC-WAK-005,2014,6554,19.29434725,166.6544875,19.30616,166.65108,2,PAV,,,0,0,0,0
pacific,PRIA,WAK,Wake,OCC-WAK-005,2017,10554,19.296869,166.653045,19.30616,166.65108,2,AGR,,,0.019805948,5.889356574,198.0594847,58.89356574
pacific,PRIA,WAK,Wake,OCC-WAK-005,2017,10555,19.303906,166.650709,19.30616,166.65108,2,AGR,,,0.056588424,20.78298456,565.8842421,207.8298456
pacific,PRIA,WAK,Wake,OCC-WAK-005,2017,10556,19.310509,166.652146,19.30616,166.65108,2,AGR,,,0,0,0,0
pacific,PRIA,WAK,Wake,OCC-WAK-005,2017,10557,19.307557,166.650951,19.30616,166.65108,2,PAV,,,0.014147106,9.206965492,141.4710605,92.06965492
pacific,PRIA,WAK,Wake,OCC-WAK-005,2017,10562,19.301537,166.650704,19.30616,166.65108,2,AGR,,,0.019805948,10.06725899,198.0594847,100.6725899
pacific,PRIA,WAK,Wake,OCC-WAK-005,2017,10563,19.295036,166.653919,19.30616,166.65108,2,PAV,,,0,0,0,0
pacific,PRIA,WAK,Wake,OCC-WAK-008,2014,6498,19.28550803,166.6154091,19.28065,166.62778,1,AGR,,,0.011317684,3.446541067,113.1768484,34.46541066
pacific,PRIA,WAK,Wake,OCC-WAK-008,2014,6500,19.28440581,166.6169555,19.28065,166.62778,1,APS,,,0.02546479,10.62671892,254.6479089,106.2671892
pacific,PRIA,WAK,Wake,OCC-WAK-008,2014,6501,19.27958496,166.6294564,19.28065,166.62778,1,AGR,,,0.022635368,5.360797394,226.3536968,53.60797393
pacific,PRIA,WAK,Wake,OCC-WAK-008,2014,6503,19.28353401,166.6186775,19.28065,166.62778,1,SAG,,,0.016976526,4.615008985,169.7652726,46.15008985
pacific,PRIA,WAK,Wake,OCC-WAK-008,2017,10535,19.274244,166.642453,19.28065,166.62778,1,AGR,,,0.039611897,11.00052278,396.1189694,110.0052278
pacific,PRIA,WAK,Wake,OCC-WAK-008,2017,10536,19.276414,166.639327,19.28065,166.62778,1,AGR,,,0.02546479,12.55250721,254.6479089,125.5250721
pacific,PRIA,WAK,Wake,OCC-WAK-008,2017,10537,19.277862,166.635201,19.28065,166.62778,1,AGR,,,0.022635369,3.556757055,226.3536968,35.56757055
pacific,PRIA,WAK,Wake,OCC-WAK-008,2017,10538,19.27955,166.630739,19.28065,166.62778,1,APS,,,0.011317685,0.759976392,113.1768484,7.599763919
pacific,PRIA,WAK,Wake,OCC-WAK-008,2017,10542,19.280927,166.625858,19.28065,166.62778,1,APS,,,0.025464791,3.718145323,254.6479089,37.18145323
pacific,PRIA,WAK,Wake,OCC-WAK-008,2017,10543,19.282455,166.621919,19.28065,166.62778,1,APS,,,0.016976526,7.635220753,169.7652726,76.35220752
pacific,PRIA,WAK,Wake,OCC-WAK-013,2014,6507,19.32132281,166.6038513,19.31625,166.59824,4,PAV,,,0.016976527,1.444382416,169.7652726,14.44382416
pacific,PRIA,WAK,Wake,OCC-WAK-013,2014,6512,19.32573345,166.6104156,19.31625,166.59824,4,AGR,,,0.02546479,5.446471014,254.6479089,54.46471014
pacific,PRIA,WAK,Wake,OCC-WAK-013,2014,6513,19.32359657,166.6056694,19.31625,166.59824,4,AGR,,,0.045270737,27.32894271,452.7073937,273.2894271
pacific,PRIA,WAK,Wake,OCC-WAK-013,2014,6514,19.31640465,166.5989368,19.31625,166.59824,4,AGR,,,0.079223792,7.860197181,792.2379388,78.60197181
pacific,PRIA,WAK,Wake,OCC-WAK-013,2014,6515,19.31375052,166.5954837,19.31625,166.59824,4,PAV,,,0,0,0,0
pacific,PRIA,WAK,Wake,OCC-WAK-013,2017,10511,19.313186,166.594737,19.31625,166.59824,4,AGR,,,0.011317684,4.398131131,113.1768484,43.98131131
pacific,PRIA,WAK,Wake,OCC-WAK-013,2017,10512,19.318095,166.600413,19.31625,166.59824,4,PAV,,,0.005658842,1.003861817,56.58842421,10.03861817
pacific,PRIA,WAK,Wake,OCC-WAK-013,2017,10516,19.325587,166.610493,19.31625,166.59824,4,AGR,,,0.101859162,79.82604179,1018.591636,798.2604179
pacific,PRIA,WAK,Wake,OCC-WAK-013,2017,10517,19.323975,166.606399,19.31625,166.59824,4,PAV,,,0,0,0,0
pacific,PRIA,WAK,Wake,OCC-WAK-013,2017,10518,19.317925,166.599793,19.31625,166.59824,4,AGR,,,0.014147105,2.460541879,141.4710605,24.60541878
pacific,PRIA,WAK,Wake,OCC-WAK-013,2017,10522,19.325435,166.607815,19.31625,166.59824,4,AGR,,,0.062247266,27.95170162,622.4726662,279.5170162
pacific,PRIA,WAK,Wake,OCC-WAK-013,2017,10523,19.322123,166.604309,19.31625,166.59824,4,AGR,,,0.008488263,3.9406828,84.88263632,39.40682799
pacific,PRIA,WAK,Wake,OCC-WAK-013,2017,10524,19.316295,166.599067,19.31625,166.59824,4,PAV,,,0.022635369,6.475095696,226.3536968,64.75095696
pacific,PRIA,WAK,Wake,OCC-WAK-013,2017,10570,19.311712,166.593973,19.31625,166.59824,4,AGR,,,0.087712056,38.31337461,877.1205752,383.1337461
pacific,SAMOA,OFU,Ofu_Olosega,OCC-OFU-002,2018,12010,-14.162772,-169.664501,-14.15785,-169.67442,2,SAG,,,0.022635368,30.184724,226.3536968,301.84724
pacific,SAMOA,OFU,Ofu_Olosega,OCC-OFU-002,2018,12019,-14.158985,-169.682421,-14.15785,-169.67442,2,AGR,,,0.045270737,84.93147677,452.7073937,849.3147677
pacific,SAMOA,OFU,Ofu_Olosega,OCC-OFU-002,2018,12020,-14.15889,-169.672197,-14.15785,-169.67442,2,SAG,,,0.059417844,24.30799158,594.1784542,243.0799158
pacific,SAMOA,OFU,Ofu_Olosega,OCC-OFU-002,2018,12025,-14.158002,-169.6795,-14.15785,-169.67442,2,AGR,,,0.022635368,8.738252408,226.3536968,87.38252408
pacific,SAMOA,OFU,Ofu_Olosega,OCC-OFU-002,2015_2016,8323,-14.16191256,-169.6643102,-14.15785,-169.67442,2,AGR,,,0.016976527,1.121461786,169.7652726,11.21461785
pacific,SAMOA,OFU,Ofu_Olosega,OCC-OFU-002,2015_2016,8324,-14.15954861,-169.6695895,-14.15785,-169.67442,2,AGR,,,0.065076687,40.31230648,650.7668784,403.1230648
pacific,SAMOA,OFU,Ofu_Olosega,OCC-OFU-002,2015_2016,8552,-14.16326146,-169.6648446,-14.15785,-169.67442,2,SAG,,,0.033953052,44.92959646,339.5305453,449.2959646
pacific,SAMOA,OFU,Ofu_Olosega,OCC-OFU-002,2015_2016,8553,-14.15779386,-169.680023,-14.15785,-169.67442,2,AGR,,,0.016976526,26.40963598,169.7652726,264.0963598
pacific,SAMOA,OFU,Ofu_Olosega,OCC-OFU-002,2015_2016,8554,-14.16005244,-169.6831507,-14.15785,-169.67442,2,PAV,,,0.065076686,10.28240513,650.7668784,102.8240513
pacific,SAMOA,OFU,Ofu_Olosega,OCC-OFU-002,2015_2016,9446,-14.163099,-169.665015,-14.15785,-169.67442,2,SAG,,,0.019805947,6.298060236,198.0594847,62.98060236
pacific,SAMOA,OFU,Ofu_Olosega,OCC-OFU-002,2015_2016,9458,-14.157495,-169.674635,-14.15785,-169.67442,2,AGR,,,0.011317684,4.559351318,113.1768484,45.59351318
pacific,SAMOA,OFU,Ofu_Olosega,OCC-OFU-009,2018,11977,-14.190402,-169.618975,-14.1733008,-169.6419043,1,AGR,,,0.008488263,1.013855057,84.88263632,10.13855056
pacific,SAMOA,OFU,Ofu_Olosega,OCC-OFU-009,2018,11978,-14.184734,-169.623787,-14.1733008,-169.6419043,1,AGR,,,0.022635369,4.489469806,226.3536968,44.89469806
pacific,SAMOA,OFU,Ofu_Olosega,OCC-OFU-009,2018,11979,-14.179292,-169.627853,-14.1733008,-169.6419043,1,AGR,,,0.031123633,5.747368786,311.2363332,57.47368786
pacific,SAMOA,OFU,Ofu_Olosega,OCC-OFU-009,2018,11980,-14.172462,-169.641721,-14.1733008,-169.6419043,1,SAG,,,0.065076686,34.00396024,650.7668783,340.0396024
pacific,SAMOA,OFU,Ofu_Olosega,OCC-OFU-009,2018,11981,-14.181429,-169.652377,-14.1733008,-169.6419043,1,AGR,,,0.016976526,4.091097476,169.7652726,40.91097476
pacific,SAMOA,OFU,Ofu_Olosega,OCC-OFU-009,2015_2016,8334,-14.1733008,-169.6419043,-14.1733008,-169.6419043,1,AGR,,,0.008488264,0.561744338,84.88263631,5.617443377
pacific,SAMOA,OFU,Ofu_Olosega,OCC-OFU-009,2015_2016,8335,-14.17543491,-169.6280599,-14.1733008,-169.6419043,1,SAG,,,0.076394369,51.95190387,763.9437268,519.5190387
pacific,SAMOA,OFU,Ofu_Olosega,OCC-OFU-009,2015_2016,8336,-14.18825151,-169.6204109,-14.1733008,-169.6419043,1,SAG,,,0.016976526,2.973388903,169.7652726,29.73388903
pacific,SAMOA,OFU,Ofu_Olosega,OCC-OFU-009,2015_2016,8340,-14.1864655,-169.6618662,-14.1733008,-169.6419043,1,AGR,,,0.008488264,1.019440097,84.88263631,10.19440097
pacific,SAMOA,OFU,Ofu_Olosega,OCC-OFU-009,2015_2016,8341,-14.17625324,-169.6486137,-14.1733008,-169.6419043,1,AGR,,,0.183912377,81.44365018,1839.123787,814.4365018
pacific,SAMOA,OFU,Ofu_Olosega,OCC-OFU-009,2015_2016,8478,-14.17422918,-169.6341428,-14.1733008,-169.6419043,1,AGR,,,0.045270738,6.940166009,452.7073937,69.4016601
pacific,SAMOA,OFU,Ofu_Olosega,OCC-OFU-009,2015_2016,8492,-14.18283144,-169.6259332,-14.1733008,-169.6419043,1,AGR,,,0.005658842,0.348114407,56.58842421,3.481144068
pacific,SAMOA,OFU,Ofu_Olosega,OCC-OFU-009,2015_2016,8559,-14.18420607,-169.6577558,-14.1733008,-169.6419043,1,AGR,,,0.101859162,65.93045617,1018.591636,659.3045617
pacific,SAMOA,TAU,Tau,OCC-TAU-002,2018,12057,-14.209261,-169.451908,-14.2124,-169.44067,2,PAV,,,0.016976527,11.48576287,169.7652726,114.8576287
pacific,SAMOA,TAU,Tau,OCC-TAU-002,2018,12061,-14.212277,-169.443066,-14.2124,-169.44067,2,SAG,,,0.022635368,3.14998506,226.3536968,31.49985061
pacific,SAMOA,TAU,Tau,OCC-TAU-002,2015_2016,8356,-14.21248318,-169.4446263,-14.2124,-169.44067,2,AGR,,,0.011317685,3.796184905,113.1768484,37.96184905
pacific,SAMOA,TAU,Tau,OCC-TAU-002,2015_2016,8357,-14.21240397,-169.4355422,-14.2124,-169.44067,2,AGR,,,0,0,0,0
pacific,SAMOA,TAU,Tau,OCC-TAU-002,2015_2016,8358,-14.21074854,-169.4453203,-14.2124,-169.44067,2,SAG,,,0,0,0,0
pacific,SAMOA,TAU,Tau,OCC-TAU-002,2015_2016,8460,-14.20949277,-169.4283255,-14.2124,-169.44067,2,PAV,,,0.031123631,52.00898995,311.2363332,520.0898995
pacific,SAMOA,TAU,Tau,OCC-TAU-002,2015_2016,8462,-14.2107462,-169.4515328,-14.2124,-169.44067,2,PAV,,,0.014147105,12.15454479,141.4710605,121.5454479
pacific,SAMOA,TAU,Tau,OCC-TAU-002,2015_2016,8468,-14.21126696,-169.4366751,-14.2124,-169.44067,2,AGR,,,0.033953052,38.10268336,339.5305453,381.0268336
pacific,SAMOA,TAU,Tau,OCC-TAU-002,2015_2016,9326,-14.210869,-169.448188,-14.2124,-169.44067,2,AGR,,,0.028294211,15.09477798,282.942121,150.9477798
pacific,SAMOA,TAU,Tau,OCC-TAU-002,2015_2016,9336,-14.211185,-169.441368,-14.2124,-169.44067,2,AGR,,,0.005658842,4.483134591,56.58842421,44.83134591
pacific,SAMOA,TAU,Tau,OCC-TAU-002,2015_2016,9341,-14.208892,-169.45261,-14.2124,-169.44067,2,PAV,,,0.005658842,11.39897237,56.58842421,113.9897237
pacific,SAMOA,TAU,Tau,OCC-TAU-002,2015_2016,9348,-14.210866,-169.430079,-14.2124,-169.44067,2,PAV,,,0,0,0,0
pacific,SAMOA,TAU,Tau,OCC-TAU-002,2015_2016,9351,-14.210362,-169.429318,-14.2124,-169.44067,2,AGR,,,0.019805948,7.528463966,198.0594847,75.28463965
pacific,SAMOA,TAU,Tau,OCC-TAU-002,2015_2016,9356,-14.210074,-169.432259,-14.2124,-169.44067,2,SAG,,,0.005658842,2.498120842,56.58842421,24.98120842
pacific,SAMOA,TAU,Tau,OCC-TAU-002,2015_2016,9363,-14.209647,-169.425243,-14.2124,-169.44067,2,AGR,,,0.011317684,10.97551168,113.1768484,109.7551168
pacific,SAMOA,TAU,Tau,OCC-TAU-011,2018,12035,-14.259858,-169.500462,-14.25755,-169.50068,1,AGR,,,0.019805948,8.803362817,198.0594847,88.03362817
pacific,SAMOA,TAU,Tau,OCC-TAU-011,2018,12036,-14.249736,-169.503866,-14.25755,-169.50068,1,SAG,,,0.011317684,6.020970308,113.1768484,60.20970308
pacific,SAMOA,TAU,Tau,OCC-TAU-011,2018,12038,-14.25838,-169.501075,-14.25755,-169.50068,1,AGR,,,0.011317684,18.85187938,113.1768484,188.5187938
pacific,SAMOA,TAU,Tau,OCC-TAU-011,2018,12040,-14.265586,-169.49765,-14.25755,-169.50068,1,AGR,,,0.011317684,3.00866099,113.1768484,30.0866099
pacific,SAMOA,TAU,Tau,OCC-TAU-011,2015_2016,8531,-14.26539738,-169.4984157,-14.25755,-169.50068,1,AGR,,,0.036782474,20.41810158,367.8247574,204.1810158
pacific,SAMOA,TAU,Tau,OCC-TAU-011,2015_2016,8532,-14.25880702,-169.5009768,-14.25755,-169.50068,1,SCR,,,0.011317684,16.78543056,113.1768484,167.8543056
pacific,SAMOA,TAU,Tau,OCC-TAU-011,2015_2016,8533,-14.24836275,-169.5046515,-14.25755,-169.50068,1,PAV,,,0,0,0,0
pacific,SAMOA,TAU,Tau,OCC-TAU-011,2015_2016,9369,-14.262859,-169.49918,-14.25755,-169.50068,1,AGR,,,0,0,0,0
pacific,SAMOA,TAU,Tau,OCC-TAU-011,2015_2016,9373,-14.256738,-169.501438,-14.25755,-169.50068,1,AGR,,,0.005658842,0.964481368,56.58842421,9.644813675
pacific,SAMOA,TAU,Tau,OCC-TAU-011,2015_2016,9374,-14.249055,-169.504886,-14.25755,-169.50068,1,AGR,,,0.033953052,16.86610733,339.5305453,168.6610733
pacific,SAMOA,TAU,Tau,OCC-TAU-011,2015_2016,9378,-14.261713,-169.499496,-14.25755,-169.50068,1,AGR,,,0.005658842,1.680507004,56.58842421,16.80507004
pacific,SAMOA,TAU,Tau,OCC-TAU-011,2015_2016,9379,-14.252345,-169.504136,-14.25755,-169.50068,1,AGR,,,0.016976526,27.40470474,169.7652726,274.0470474
pacific,SAMOA,TUT,Tutuila,OCC-TUT-002,2018,11896,-14.248522,-170.645943,-14.24479,-170.65237,3,AGR,,,0.05092958,15.84781147,509.2958179,158.4781147
pacific,SAMOA,TUT,Tutuila,OCC-TUT-002,2018,11898,-14.248343,-170.638509,-14.24479,-170.65237,3,AGR,,,0.011317684,7.0468308,113.1768484,70.468308
pacific,SAMOA,TUT,Tutuila,OCC-TUT-002,2018,11899,-14.250148,-170.657163,-14.24479,-170.65237,3,AGR,,,0.005658842,2.988058621,56.58842421,29.88058621
pacific,SAMOA,TUT,Tutuila,OCC-TUT-002,2015_2016,8130,-14.24473406,-170.6617562,-14.24479,-170.65237,3,APR,,,0.031123632,10.19953685,311.2363331,101.9953685
pacific,SAMOA,TUT,Tutuila,OCC-TUT-002,2015_2016,8134,-14.2497031,-170.6578363,-14.24479,-170.65237,3,AGR,,,0.022635368,8.157361773,226.3536968,81.57361773
pacific,SAMOA,TUT,Tutuila,OCC-TUT-002,2015_2016,8135,-14.25527698,-170.6526074,-14.24479,-170.65237,3,SCR,,,0.028294211,4.700540937,282.942121,47.00540937
pacific,SAMOA,TUT,Tutuila,OCC-TUT-002,2015_2016,8136,-14.25285554,-170.6456568,-14.24479,-170.65237,3,AGR,,,0.073564951,12.5881827,735.6495147,125.881827
pacific,SAMOA,TUT,Tutuila,OCC-TUT-002,2015_2016,9461,-14.251471,-170.641196,-14.24479,-170.65237,3,SAG,,,0.02829421,25.93691758,282.9421211,259.3691758
pacific,SAMOA,TUT,Tutuila,OCC-TUT-002,2015_2016,9462,-14.250376,-170.658847,-14.24479,-170.65237,3,AGR,,,0.022635368,9.767533485,226.3536968,97.67533485
pacific,SAMOA,TUT,Tutuila,OCC-TUT-002,2015_2016,9466,-14.251465,-170.642726,-14.24479,-170.65237,3,AGR,,,0.019805947,13.15416346,198.0594847,131.5416346
pacific,SAMOA,TUT,Tutuila,OCC-TUT-002,2015_2016,9471,-14.244918,-170.660984,-14.24479,-170.65237,3,AGR,,,0.033953053,52.34338136,339.5305452,523.4338136
pacific,SAMOA,TUT,Tutuila,OCC-TUT-007,2015_2016,8141,-14.28050995,-170.5427711,-14.28521,-170.56401,2,RRB,,,0.028294211,8.171642501,282.942121,81.71642501
pacific,SAMOA,TUT,Tutuila,OCC-TUT-007,2015_2016,8145,-14.27493883,-170.5390604,-14.28521,-170.56401,2,PAV,,,0.028294211,4.183549385,282.942121,41.83549384
pacific,SAMOA,TUT,Tutuila,OCC-TUT-007,2015_2016,8171,-14.29553208,-170.5602007,-14.28521,-170.56401,2,AGR,,,0.011317684,1.738047247,113.1768484,17.38047247
pacific,SAMOA,TUT,Tutuila,OCC-TUT-007,2015_2016,8196,-14.27730655,-170.5383293,-14.28521,-170.56401,2,PAV,,,0,0,0,0
pacific,SAMOA,TUT,Tutuila,OCC-TUT-007,2015_2016,8198,-14.28297515,-170.5391197,-14.28521,-170.56401,2,PAV,,,0,0,0,0
pacific,SAMOA,TUT,Tutuila,OCC-TUT-007,2015_2016,8211,-14.27895259,-170.535355,-14.28521,-170.56401,2,PAV,,,0.019805948,2.756043111,198.0594847,27.56043111
pacific,SAMOA,TUT,Tutuila,OCC-TUT-007,2015_2016,8607,-14.2903814,-170.5452216,-14.28521,-170.56401,2,AGR,,,0.011317684,51.94798926,113.1768484,519.4798926
pacific,SAMOA,TUT,Tutuila,OCC-TUT-007,2015_2016,8608,-14.28037927,-170.5409494,-14.28521,-170.56401,2,PAV,,,0.107518006,103.7177824,1075.18006,1037.177824
pacific,SAMOA,TUT,Tutuila,OCC-TUT-007,2015_2016,8609,-14.28520977,-170.5454785,-14.28521,-170.56401,2,PAV,,,0,0,0,0
pacific,SAMOA,TUT,Tutuila,OCC-TUT-007,2015_2016,8610,-14.27612051,-170.5483165,-14.28521,-170.56401,2,PAV,,,0.011317684,1.44974627,113.1768484,14.49746269
pacific,SAMOA,TUT,Tutuila,OCC-TUT-007,2015_2016,8612,-14.27702383,-170.5461749,-14.28521,-170.56401,2,PAV,,,0.028294212,5.132360153,282.942121,51.32360153
pacific,SAMOA,TUT,Tutuila,OCC-TUT-007,2015_2016,8613,-14.27911093,-170.5445941,-14.28521,-170.56401,2,PAV,,,0.019805947,27.70782441,198.0594847,277.0782441
pacific,SAMOA,TUT,Tutuila,OCC-TUT-007,2015_2016,8614,-14.27832395,-170.5359025,-14.28521,-170.56401,2,PAV,,,0,0,0,0
pacific,SAMOA,TUT,Tutuila,OCC-TUT-007,2015_2016,8615,-14.27967737,-170.5486776,-14.28521,-170.56401,2,PAV,,,0.022635369,12.43608473,226.3536968,124.3608473
pacific,SAMOA,TUT,Tutuila,OCC-TUT-007,2015_2016,8616,-14.28394234,-170.5452819,-14.28521,-170.56401,2,PAV,,,0,0,0,0
pacific,SAMOA,TUT,Tutuila,OCC-TUT-007,2015_2016,8617,-14.28243703,-170.5454776,-14.28521,-170.56401,2,PAV,,,0,0,0,0
pacific,SAMOA,TUT,Tutuila,OCC-TUT-007,2015_2016,8618,-14.27857289,-170.5488229,-14.28521,-170.56401,2,PAV,,,0,0,0,0
pacific,SAMOA,TUT,Tutuila,OCC-TUT-007,2015_2016,8625,-14.28213688,-170.5362991,-14.28521,-170.56401,2,PAV,,,0,0,0,0
pacific,SAMOA,TUT,Tutuila,OCC-TUT-007,2015_2016,8626,-14.28530842,-170.5376673,-14.28521,-170.56401,2,PAV,,,0,0,0,0
pacific,SAMOA,TUT,Tutuila,OCC-TUT-007,2015_2016,8627,-14.28632355,-170.5460188,-14.28521,-170.56401,2,PAV,,,0,0,0,0
pacific,SAMOA,TUT,Tutuila,OCC-TUT-007,2015_2016,8628,-14.27851958,-170.5497621,-14.28521,-170.56401,2,PAV,,,0,0,0,0
pacific,SAMOA,TUT,Tutuila,OCC-TUT-007,2015_2016,8629,-14.27731728,-170.5477759,-14.28521,-170.56401,2,PAV,,,0,0,0,0
pacific,SAMOA,TUT,Tutuila,OCC-TUT-007,2015_2016,8634,-14.27995616,-170.5464494,-14.28521,-170.56401,2,PAV,,,0.005658842,0.427259862,56.58842421,4.272598619
pacific,SAMOA,TUT,Tutuila,OCC-TUT-007,2015_2016,8636,-14.27903046,-170.5473913,-14.28521,-170.56401,2,PAV,,,0,0,0,0
pacific,SAMOA,TUT,Tutuila,OCC-TUT-007,2015_2016,8637,-14.27849947,-170.5383992,-14.28521,-170.56401,2,PAV,,,0,0,0,0
pacific,SAMOA,TUT,Tutuila,OCC-TUT-017,2018,11959,-14.364167,-170.762555,-14.36351,-170.763,1,AGR,,,0.02263537,2.884549465,226.3536968,28.84549465
pacific,SAMOA,TUT,Tutuila,OCC-TUT-017,2018,11960,-14.364264,-170.761483,-14.36351,-170.763,1,AGR,,,0.062247266,7.519044908,622.4726662,75.19044908
pacific,SAMOA,TUT,Tutuila,OCC-TUT-017,2018,11961,-14.365855,-170.761946,-14.36351,-170.763,1,AGR,,,0.031123632,4.272667168,311.2363331,42.72667168
pacific,SAMOA,TUT,Tutuila,OCC-TUT-017,2018,11966,-14.364081,-170.761593,-14.36351,-170.763,1,AGR,,,0.059417843,6.795009167,594.1784542,67.95009166
pacific,SAMOA,TUT,Tutuila,OCC-TUT-017,2015_2016,8066,-14.36384602,-170.7628876,-14.36351,-170.763,1,AGR,,,0.02263537,2.274176824,226.3536968,22.74176824
pacific,SAMOA,TUT,Tutuila,OCC-TUT-017,2015_2016,8069,-14.36478244,-170.7616231,-14.36351,-170.763,1,AGR,,,0.02546479,2.379955606,254.6479089,23.79955605
pacific,SAMOA,TUT,Tutuila,OCC-TUT-017,2015_2016,8074,-14.36688571,-170.7626392,-14.36351,-170.763,1,AGR,,,0.056588424,3.068905678,565.8842421,30.68905678
pacific,SAMOA,TUT,Tutuila,OCC-TUT-017,2015_2016,8081,-14.36471061,-170.7608348,-14.36351,-170.763,1,AGR,,,0.031123632,4.740966477,311.2363331,47.40966477
pacific,SAMOA,TUT,Tutuila,OCC-TUT-017,2015_2016,8239,-14.36267448,-170.7632905,-14.36351,-170.763,1,AGR,,,0.031123631,10.81570031,311.2363332,108.1570031
pacific,SAMOA,TUT,Tutuila,OCC-TUT-017,2015_2016,8240,-14.36607175,-170.7638888,-14.36351,-170.763,1,AGR,,,0.022635368,5.983608896,226.3536968,59.83608896
pacific,SAMOA,TUT,Tutuila,OCC-TUT-017,2015_2016,8277,-14.36448639,-170.7624339,-14.36351,-170.763,1,AGR,,,0.016976526,1.74342629,169.7652726,17.4342629
pacific,SAMOA,TUT,Tutuila,OCC-TUT-017,2015_2016,8279,-14.36477976,-170.7625032,-14.36351,-170.763,1,AGR,,,0.045270737,4.916432287,452.7073937,49.16432286
pacific,SAMOA,TUT,Tutuila,OCC-TUT-017,2015_2016,8280,-14.36657223,-170.7630362,-14.36351,-170.763,1,AGR,,,0.028294211,4.600172835,282.942121,46.00172834
pacific,SAMOA,TUT,Tutuila,OCC-TUT-017,2015_2016,8291,-14.36330547,-170.7633607,-14.36351,-170.763,1,AGR,,,0.028294211,4.071593528,282.942121,40.71593527
pacific,SAMOA,TUT,Tutuila,OCC-TUT-017,2015_2016,8299,-14.36509525,-170.7633883,-14.36351,-170.763,1,AGR,,,0.073564951,7.606789492,735.6495147,76.06789491
pacific,SAMOA,TUT,Tutuila,OCC-TUT-017,2015_2016,8638,-14.36352801,-170.7628401,-14.36351,-170.763,1,AGR,,,0.059417845,15.35864981,594.1784541,153.5864981
pacific,SAMOA,TUT,Tutuila,OCC-TUT-017,2015_2016,9388,-14.366522,-170.76237,-14.36351,-170.763,1,AGR,,,0.050929581,6.358388027,509.2958179,63.58388027
pacific,SAMOA,TUT,Tutuila,OCC-TUT-017,2015_2016,9394,-14.365433,-170.762445,-14.36351,-170.763,1,SAG,,,0.016976527,1.604186455,169.7652726,16.04186455
pacific,SAMOA,TUT,Tutuila,OCC-TUT-017,2015_2016,9397,-14.363186,-170.763849,-14.36351,-170.763,1,AGR,,,0.028294212,17.5559891,282.942121,175.559891
pacific,SAMOA,TUT,Tutuila,OCC-TUT-022,2018,11853,-14.300153,-170.814107,-14.29464,-170.812,4,PAV,,,0.056588424,14.2596251,565.884242,142.596251
pacific,SAMOA,TUT,Tutuila,OCC-TUT-022,2018,11854,-14.294894,-170.810763,-14.29464,-170.812,4,AGR,,,0.053759002,11.96254866,537.5900299,119.6254865
pacific,SAMOA,TUT,Tutuila,OCC-TUT-022,2018,11855,-14.293851,-170.809258,-14.29464,-170.812,4,AGR,,,0.07356495,16.17985201,735.6495147,161.7985201
pacific,SAMOA,TUT,Tutuila,OCC-TUT-022,2018,11863,-14.295922,-170.812136,-14.29464,-170.812,4,AGR,,,0.028294211,3.264152997,282.9421211,32.64152997
pacific,SAMOA,TUT,Tutuila,OCC-TUT-022,2018,11876,-14.291791,-170.805349,-14.29464,-170.812,4,AGR,,,0.065076686,21.05382709,650.7668784,210.5382709
pacific,SAMOA,TUT,Tutuila,OCC-TUT-022,2015_2016,8217,-14.29868678,-170.8164448,-14.29464,-170.812,4,SCR,,,0,0,0,0
pacific,SAMOA,TUT,Tutuila,OCC-TUT-022,2015_2016,9292,-14.300975,-170.816434,-14.29464,-170.812,4,AGR,,,0.011317685,3.972095326,113.1768484,39.72095326
pacific,SAMOA,TUT,Tutuila,OCC-TUT-022,2015_2016,9296,-14.295683,-170.811918,-14.29464,-170.812,4,AGR,,,0.031123632,9.305317595,311.2363331,93.05317594
pacific,SAMOA,TUT,Tutuila,OCC-TUT-022,2015_2016,9297,-14.297871,-170.81331,-14.29464,-170.812,4,AGR,,,0,0,0,0
pacific,SAMOA,TUT,Tutuila,OCC-TUT-022,2015_2016,9300,-14.299021,-170.814758,-14.29464,-170.812,4,SAG,,,0.005658842,1.003861817,56.58842421,10.03861817
