basin,region,subRegion,island,siteName,yearFishSurvey,siteFishSurvey,latitudeFishSurvey,longitudeFishSurvey,latitudeBMU,longitudeBMU,boundaryNumber,habitatFishSurvey,density_ind_PSU,biomass_kg_PSU,density_ind_m2,biomass_g_m2,density_ind_ha,biomass_kg_ha
atlantic,DRTO,west,,birdKeyReef,2016,2073U,24.60684558,-82.87195053,24.60684558,-82.87195053,,SPGR_HR,7.75,0.046341061,,,437.8531073,2.61813904
atlantic,DRTO,west,,birdKeyReef,2016,2141U,24.60041312,-82.87337354,24.60041312,-82.87337354,,SPGR_LR,14.25,0.531479159,,,805.0847458,30.02707113
atlantic,DRTO,west,,birdKeyReef,2016,2142U,24.600005,-82.872275,24.600005,-82.872275,,SPGR_HR,27.625,3.62901355,,,1560.734463,205.0290141
atlantic,DRTO,west,,birdKeyReef,2016,2143U,24.61121046,-82.87047,24.61121046,-82.87047,,SPGR_HR,21.625,0.470791484,,,1221.751412,26.59838893
atlantic,DRTO,west,,birdKeyReef,2016,2146U,24.59171835,-82.88101318,24.59171835,-82.88101318,,SPGR_LR,23.875,1.511962521,,,1348.870056,85.42161136
atlantic,DRTO,west,,birdKeyReef,2016,2147U,24.59150648,-82.87433973,24.59150648,-82.87433973,,SPGR_HR,23.5,0.662611996,,,1327.683616,37.43570599
atlantic,DRTO,west,,birdKeyReef,2016,2166U,24.58932494,-82.88459494,24.58932494,-82.88459494,,SPGR_HR,14.25,0.147575997,,,805.0847458,8.337626949
atlantic,DRTO,west,,birdKeyReef,2018,2166U,24.59322542,-82.88966559,24.59322542,-82.88966559,,CONT_LR,1.25,0.005638811,,,70.62146893,0.318576893
atlantic,DRTO,west,,birdKeyReef,2018,2189U,24.58261524,-82.89143049,24.58261524,-82.89143049,,SPGR_HR,19.25,0.685299209,,,1087.570621,38.71746944
atlantic,DRTO,west,,birdKeyReef,2021,2229,24.61165,-82.87114,24.61165,-82.87114,,SPGR_HR,10.5,0.553910714,,,593.220339,31.29439062
atlantic,DRTO,west,,birdKeyReef,2016,2258U,24.58649908,-82.88755135,24.58649908,-82.88755135,,SPGR_LR,38.75,0.550640632,,,2189.265537,31.10964023
atlantic,DRTO,west,,birdKeyReef,2018,2337U,24.59531958,-82.88599518,24.59531958,-82.88599518,,CONT_MR,10.5,0.395173795,,,593.220339,22.32620311
atlantic,DRTO,west,,birdKeyReef,2018,2341U,24.59544,-82.883944,24.59544,-82.883944,,CONT_LR,11.5,0.38017058,,,649.7175141,21.47856384
atlantic,DRTO,west,,birdKeyReef,2021,2373,24.58943,-82.88391,24.58943,-82.88391,,SPGR_HR,8.5,0.190186548,,,480.2259887,10.74500271
atlantic,DRTO,west,,birdKeyReef,2016,2551U,24.58292487,-82.88840484,24.58292487,-82.88840484,,CONT_MR,23.4865,0.237985365,,,1326.920904,13.44550085
atlantic,DRTO,west,,birdKeyReef,2016,2576U,24.59858582,-82.87165051,24.59858582,-82.87165051,,SPGR_HR,13.5,0.181224388,,,762.7118644,10.23866599
atlantic,DRTO,west,,birdKeyReef,2016,2577U,24.59761899,-82.87083412,24.59761899,-82.87083412,,CONT_MR,26.75,0.573732368,,,1511.299435,32.41425808
atlantic,DRTO,west,,birdKeyReef,2016,2580U,24.60273717,-82.87375567,24.60273717,-82.87375567,,SPGR_HR,23.125,0.673928132,,,1306.497175,38.07503571
atlantic,DRTO,west,,birdKeyReef,2016,2581U,24.61012901,-82.87097967,24.61012901,-82.87097967,,SPGR_HR,21.25,0.653357892,,,1200.564972,36.91287525
atlantic,DRTO,west,,birdKeyReef,2018,2770U,24.58301576,-82.88912,24.58301576,-82.88912,,SPGR_HR,10.5,0.597480064,,,593.220339,33.75593582
atlantic,DRTO,west,,birdKeyReef,2018,2856U,24.60654829,-82.87320449,24.60654829,-82.87320449,,SPGR_HR,16.75,0.321706962,,,946.3276836,18.17553458
atlantic,DRTO,west,,birdKeyReef,2018,2857U,24.60507991,-82.87389995,24.60507991,-82.87389995,,SPGR_HR,22.25,5.300548848,,,1257.062147,299.4660366
atlantic,FGB,east,,eastBank,2018,7190,27.9091,-93.60069,27.9091,-93.60069,,HR,1.5,0.320424652,,,84.74576271,18.10308768
atlantic,FGB,east,,eastBank,2018,7208,27.9092,-93.60012,27.9092,-93.60012,,HR,3.5,1.773222209,,,197.740113,100.1820457
atlantic,FGB,east,,eastBank,2018,7246,27.90907,-93.59922,27.90907,-93.59922,,HR,2.5,0.913150159,,,141.2429379,51.59040446
atlantic,FGB,east,,eastBank,2018,7302,27.90515,-93.59765,27.90515,-93.59765,,HR,3.5,0.652604791,,,197.740113,36.87032718
atlantic,FGB,east,,eastBank,2018,7304,27.9058,-93.59762,27.9058,-93.59762,,HR,1,0.328422944,,,56.49717514,18.55496859
atlantic,FGB,east,,eastBank,2018,7339,27.90671,-93.59649,27.90671,-93.59649,,HR,1.5,0.175090134,,,84.74576271,9.892097966
atlantic,FGB,east,,eastBank,2018,7400,27.9096,-93.5973,27.9096,-93.5973,,HR,1.5,0.600659915,,,84.74576271,33.93558842
atlantic,FGB,east,,eastBank,2018,7401,27.9094,-93.5973,27.9094,-93.5973,,HR,5.5,1.235781303,,,310.7344633,69.81815271
atlantic,FGB,east,,eastBank,2018,7402,27.9094,-93.5975,27.9094,-93.5975,,HR,6,0.494143735,,,338.9830508,27.91772514
atlantic,FGB,east,,eastBank,2018,7403,27.9096,-93.5975,27.9096,-93.5975,,HR,3,0.186148416,,,169.4915254,10.51685966
atlantic,FGB,east,,eastBank,2018,7404,27.9075,-93.5991,27.9075,-93.5991,,HR,4,0.275453437,,,225.9887006,15.56234107
atlantic,FGB,east,,eastBank,2018,7405,27.9073,-93.5991,27.9073,-93.5991,,HR,3,1.849675316,,,169.4915254,104.5014303
atlantic,FGB,east,,eastBank,2018,7406,27.9073,-93.5994,27.9073,-93.5994,,HR,1.5,1.251769827,,,84.74576271,70.72145915
atlantic,FGB,east,,eastBank,2018,7407,27.9075,-93.5994,27.9075,-93.5994,,HR,2.5,0.368499175,,,141.2429379,20.81916243
atlantic,FGB,east,,eastBank,2018,7408,27.9087,-93.5997,27.9087,-93.5997,,HR,5,0.291731261,,,282.4858757,16.48199215
atlantic,FGB,east,,eastBank,2018,7409,27.9087,-93.5999,27.9087,-93.5999,,HR,2,0.451880411,,,112.9943503,25.52996672
atlantic,FGB,east,,eastBank,2018,7410,27.9089,-93.5999,27.9089,-93.5999,,HR,4,1.316772472,,,225.9887006,74.39392497
atlantic,FGB,east,,eastBank,2022,9044,27.90807,-93.60203,27.90807,-93.60203,,HR,2,0.497475574,,,112.9943503,28.10596463
atlantic,FGB,east,,eastBank,2022,9045,27.90875,-93.60218,27.90875,-93.60218,,HR,11,3.198134925,,,621.4689266,180.685589
atlantic,FGB,east,,eastBank,2022,9046,27.90995,-93.60215,27.90995,-93.60215,,HR,6.5,0.671215742,,,367.2316384,37.92179333
atlantic,FGB,east,,eastBank,2022,9048,27.90948,-93.60183,27.90948,-93.60183,,HR,9,1.160915433,,,508.4745763,65.58844254
atlantic,FGB,east,,eastBank,2022,9049,27.91183,-93.60093,27.91183,-93.60093,,HR,5.5,0.962029821,,,310.7344633,54.35196729
atlantic,FGB,east,,eastBank,2022,9050,27.9073,-93.6006,27.9073,-93.6006,,HR,6,1.80729618,,,338.9830508,102.1071288
atlantic,FGB,east,,eastBank,2022,9051,27.91122,-93.6006,27.91122,-93.6006,,HR,3.5,0.750796571,,,197.740113,42.41788537
atlantic,FGB,east,,eastBank,2022,9052,27.9115,-93.60038,27.9115,-93.60038,,HR,2.5,1.791904023,,,141.2429379,101.2375154
atlantic,FGB,east,,eastBank,2022,9057,27.9068,-93.6001,27.9068,-93.6001,,HR,1,0.137288869,,,56.49717514,7.756433277
atlantic,FGB,east,,eastBank,2022,9058,27.91127,-93.59983,27.91127,-93.59983,,HR,2,1.606086924,,,112.9943503,90.73937424
atlantic,FGB,east,,eastBank,2022,9061,27.9116,-93.5995,27.9116,-93.5995,,HR,5,2.252403075,,,282.4858757,127.254411
atlantic,FGB,east,,eastBank,2022,9064,27.90683,-93.5991,27.90683,-93.5991,,HR,2,1.117541031,,,112.9943503,63.13791136
atlantic,FGB,east,,eastBank,2022,9065,27.90873,-93.599,27.90873,-93.599,,HR,4.5,2.665080938,,,254.2372881,150.5695445
atlantic,FGB,east,,eastBank,2022,9066,27.9107,-93.59916,27.9107,-93.59916,,HR,2.5,1.098022544,,,141.2429379,62.03517198
atlantic,FGB,east,,eastBank,2022,9068,27.90873,-93.59863,27.90873,-93.59863,,HR,4,1.570890549,,,225.9887006,88.75087847
atlantic,FGB,east,,eastBank,2022,9069,27.90922,-93.59868,27.90922,-93.59868,,HR,4,1.753208708,,,225.9887006,99.05133944
atlantic,FGB,east,,eastBank,2022,9070,27.9094,-93.5985,27.9094,-93.5985,,HR,4,2.843834058,,,225.9887006,160.6685908
atlantic,FGB,east,,eastBank,2022,9071,27.91053,-93.59882,27.91053,-93.59882,,HR,3,1.075030172,,,169.4915254,60.73616791
atlantic,FGB,east,,eastBank,2022,9074,27.90453,-93.59774,27.90453,-93.59774,,HR,5.5,2.007601998,,,310.7344633,113.4238417
atlantic,FGB,east,,eastBank,2022,9075,27.90626,-93.59783,27.90626,-93.59783,,HR,4.5,1.169465645,,,254.2372881,66.07150537
atlantic,FGB,east,,eastBank,2022,9076,27.90853,-93.59795,27.90853,-93.59795,,HR,2,1.583249612,,,112.9943503,89.44913062
atlantic,FGB,east,,eastBank,2022,9081,27.9099,-93.5971,27.9099,-93.5971,,HR,5.5,1.281762731,,,310.7344633,72.4159735
atlantic,FGB,east,,eastBank,2022,9082,27.90511,-93.59661,27.90511,-93.59661,,HR,3,0.615939115,,,169.4915254,34.79882006
atlantic,FGB,east,,eastBank,2022,9087,27.90502,-93.59593,27.90502,-93.59593,,LR,4.5,1.193655342,,,254.2372881,67.43815492
atlantic,FLK,lower,,inshore,2018,1002U,24.5679043,-81.65905089,24.5679043,-81.65905089,,ISOL_LR,2.5,0.005814391,,,141.2429379,0.328496667
atlantic,FLK,lower,,inshore,2018,1008U,24.55260118,-81.68615984,24.55260118,-81.68615984,,ISOL_LR,13.5,2.474386483,,,762.7118644,139.7958465
atlantic,FLK,lower,,inshore,2018,1009U,24.55058022,-81.69836871,24.55058022,-81.69836871,,ISOL_LR,9.25,0.045836374,,,522.5988701,2.58962565
atlantic,FLK,lower,,inshore,2018,1034U,24.57757575,-81.43966258,24.57757575,-81.43966258,,ISOL_MR,6.5,0.242997765,,,367.2316384,13.72868729
atlantic,FLK,lower,,inshore,2018,1036U,24.56209522,-81.55650754,24.56209522,-81.55650754,,ISOL_MR,11.75,1.199406659,,,663.8418079,67.76308808
atlantic,FLK,lower,,inshore,2022,1037,24.57847,-81.43934,24.57847,-81.43934,,ISOL_HR,34,0.707088978,,,1920.903955,39.94852983
atlantic,FLK,lower,,inshore,2022,1055,24.55509,-81.56663,24.55509,-81.56663,,ISOL_HR,9,0.028340007,,,508.4745763,1.601130339
atlantic,FLK,lower,,inshore,2022,1063,24.5775,-81.4438,24.5775,-81.4438,,CONT_HR,18,0.198070225,,,1016.949153,11.19040819
atlantic,FLK,lower,,inshore,2022,1369,24.55046,-81.70069,24.55046,-81.70069,,ISOL_HR,27.5,4.510445609,,,1553.672316,254.8274355
atlantic,FLK,lower,,inshore,2016,1370U,24.55887556,-81.50894045,24.55887556,-81.50894045,,ISOL_LR,11.75,0.48178689,,,663.8418079,27.21959831
atlantic,FLK,lower,,inshore,2016,1371U,24.57063196,-81.45806196,24.57063196,-81.45806196,,ISOL_MR,31.5,0.09348203,,,1779.661017,5.281470621
atlantic,FLK,lower,,inshore,2016,1373U,24.58476519,-81.44386008,24.58476519,-81.44386008,,ISOL_MR,29.375,1.336746072,,,1659.60452,75.52237695
atlantic,FLK,lower,,inshore,2018,1531U,24.55920827,-81.50610575,24.55920827,-81.50610575,,ISOL_MR,29.25,1.512697435,,,1652.542373,85.46313192
atlantic,FLK,lower,,inshore,2018,1532U,24.55076627,-81.58693736,24.55076627,-81.58693736,,ISOL_MR,7.25,0.385878709,,,409.6045198,21.80105701
atlantic,FLK,lower,,inshore,2018,1534U,24.56132516,-81.50220968,24.56132516,-81.50220968,,ISOL_LR,11.75,0.906268153,,,663.8418079,51.20159056
atlantic,FLK,lower,,inshore,2022,1849,24.55269,-81.70299,24.55269,-81.70299,,ISOL_LR,0.5,0.00000832,,,28.24858757,0.000470056
atlantic,FLK,lower,,offshore,2022,1084,24.55588,-81.43408,24.55588,-81.43408,,ISOL_LR,0,0,,,0,0
atlantic,FLK,lower,,offshore,2022,1087,24.52081,-81.59098,24.52081,-81.59098,,CONT_MR,5.5,0.02313117,,,310.7344633,1.306845763
atlantic,FLK,lower,,offshore,2022,1089,24.50689,-81.59154,24.50689,-81.59154,,RUBB_MR,4,1.089084693,,,225.9887006,61.53020864
atlantic,FLK,lower,,offshore,2022,1095,24.54847,-81.4527,24.54847,-81.4527,,CONT_MR,0,0,,,0,0
atlantic,FLK,lower,,offshore,2022,1097,24.52027,-81.59045,24.52027,-81.59045,,CONT_MR,7.5,0.66695872,,,423.7288136,37.68128362
atlantic,FLK,lower,,offshore,2022,1166,24.51023,-81.5676,24.51023,-81.5676,,CONT_MR,1,0.004043303,,,56.49717514,0.228435198
atlantic,FLK,lower,,offshore,2022,1168,24.51019,-81.56821,24.51019,-81.56821,,CONT_LR,7,0.358855543,,,395.480226,20.27432446
atlantic,FLK,lower,,offshore,2022,1170,24.55312,-81.43715,24.55312,-81.43715,,CONT_MR,30,4.777548917,,,1694.915254,269.9180179
atlantic,FLK,lower,,offshore,2018,1174U,24.54304129,-81.44363313,24.54304129,-81.44363313,,CONT_MR,0,0,,,0,0
atlantic,FLK,lower,,offshore,2018,1176U,24.55160517,-81.43135404,24.55160517,-81.43135404,,CONT_LR,10.75,0.022638413,,,607.3446328,1.279006384
atlantic,FLK,lower,,offshore,2022,1231,24.53316,-81.4674,24.53316,-81.4674,,SPGR_MR,5.5,0.015215046,,,310.7344633,0.859607119
atlantic,FLK,lower,,offshore,2018,1231U,24.53820555,-81.45357891,24.53820555,-81.45357891,,SPGR_LR,5.75,0.182465825,,,324.8587571,10.30880367
atlantic,FLK,lower,,offshore,2018,1261U,24.50559126,-81.58700013,24.50559126,-81.58700013,,SPGR_HR,12.25,0.508394552,,,692.0903955,28.72285605
atlantic,FLK,lower,,offshore,2018,1311U,24.52963985,-81.47153006,24.52963985,-81.47153006,,SPGR_LR,3.5,0.049886581,,,197.740113,2.818450904
atlantic,FLK,lower,,offshore,2016,1393U,24.52469745,-81.57616767,24.52469745,-81.57616767,,CONT_LR,6,1.272448647,,,338.9830508,71.88975407
atlantic,FLK,lower,,offshore,2016,1406U,24.50961574,-81.57145042,24.50961574,-81.57145042,,SPGR_HR,19.55,7.936445244,,,1104.519774,448.3867369
atlantic,FLK,lower,,offshore,2016,1431U,24.53993406,-81.47143099,24.53993406,-81.47143099,,CONT_LR,0,0,,,0,0
atlantic,FLK,lower,,offshore,2016,1439U,24.51482436,-81.56417336,24.51482436,-81.56417336,,CONT_LR,1.25,0.050188915,,,70.62146893,2.835531921
atlantic,FLK,lower,,offshore,2016,1441U,24.54112909,-81.44360579,24.54112909,-81.44360579,,CONT_LR,9.75,0.254270801,,,550.8474576,14.36558198
atlantic,FLK,lower,,offshore,2016,1479U,24.53360212,-81.45719371,24.53360212,-81.45719371,,SPGR_LR,23.375,0.701061905,,,1320.621469,39.60801723
atlantic,FLK,lower,,offshore,2018,1671U,24.54406173,-81.44120859,24.54406173,-81.44120859,,CONT_LR,4.25,0.011689364,,,240.1129944,0.660416045
atlantic,FLK,lower,,offshore,2018,1674U,24.55325294,-81.44021988,24.55325294,-81.44021988,,CONT_LR,15.25,2.626264216,,,861.5819209,148.3765094
atlantic,FLK,middle,,inshore,2022,1004,24.69326,-81.03875,24.69326,-81.03875,,CONT_LR,12.5,0.695708958,,,706.2146893,39.30559085
atlantic,FLK,middle,,inshore,2022,1005,24.69657,-81.05188,24.69657,-81.05188,,ISOL_LR,9.5,0.015459109,,,536.7231638,0.873395989
atlantic,FLK,middle,,inshore,2018,1011U,24.69558449,-81.05188063,24.69558449,-81.05188063,,ISOL_LR,30.75,3.88527573,,,1737.288136,219.5071034
atlantic,FLK,middle,,inshore,2022,1039,24.66643,-81.07462,24.66643,-81.07462,,ISOL_MR,4.5,0.099319609,,,254.2372881,5.611277345
atlantic,FLK,middle,,inshore,2018,1049U,24.66762896,-81.07011,24.66762896,-81.07011,,ISOL_MR,15.25,1.682071345,,,861.5819209,95.03227938
atlantic,FLK,middle,,inshore,2018,1053U,24.69007737,-81.03385969,24.69007737,-81.03385969,,ISOL_MR,17.25,1.544954321,,,974.5762712,87.28555486
atlantic,FLK,middle,,inshore,2016,1245U,24.69644325,-81.0525045,24.69644325,-81.0525045,,ISOL_LR,10.375,0.043870469,,,586.1581921,2.478557571
atlantic,FLK,middle,,inshore,2016,1250U,24.65112471,-81.14212341,24.65112471,-81.14212341,,ISOL_LR,11.5,0.030369893,,,649.7175141,1.715813164
atlantic,FLK,middle,,inshore,2016,1251U,24.6659054,-81.07067434,24.6659054,-81.07067434,,ISOL_MR,11.2505,0.383228837,,,635.6214689,21.65134672
atlantic,FLK,middle,,inshore,2018,1552U,24.6737305,-81.06303122,24.6737305,-81.06303122,,ISOL_LR,8.5,0.227775786,,,480.2259887,12.86868847
atlantic,FLK,middle,,offshore,2016,1285U,24.62694073,-81.10913474,24.62694073,-81.10913474,,SPGR_HR,15.1255,1.038747073,,,854.5480226,58.68627531
atlantic,FLK,middle,,offshore,2018,1285U,24.62592795,-81.11145353,24.62592795,-81.11145353,,SPGR_HR,20.5,16.47433414,,,1158.19209,930.7533412
atlantic,FLK,middle,,offshore,2016,1286U,24.6261719,-81.10806356,24.6261719,-81.10806356,,SPGR_HR,12.375,2.322319244,,,699.1525424,131.2044771
atlantic,FLK,middle,,offshore,2018,1286U,24.62666862,-81.11020829,24.62666862,-81.11020829,,SPGR_HR,14.5,3.066719418,,,819.2090395,173.2609841
atlantic,FLK,middle,,offshore,2018,1327U,24.62440408,-81.11544076,24.62440408,-81.11544076,,CONT_MR,10,2.399390373,,,564.9717514,135.5587781
atlantic,FLK,middle,,offshore,2016,1335U,24.62346394,-81.10883832,24.62346394,-81.10883832,,SPGR_LR,33.9155,0.780270514,,,1916.129944,44.08307989
atlantic,FLK,middle,,offshore,2016,1336U,24.6253241,-81.10534289,24.6253241,-81.10534289,,SPGR_LR,29,0.457920418,,,1638.418079,25.87121006
atlantic,FLK,middle,,offshore,2016,1339U,24.62532504,-81.10173443,24.62532504,-81.10173443,,SPGR_LR,14.8755,0.124167428,,,840.4237288,7.015108927
atlantic,FLK,middle,,offshore,2018,1344U,24.62451473,-81.11385521,24.62451473,-81.11385521,,SPGR_LR,1,0.20984029,,,56.49717514,11.85538362
atlantic,FLK,middle,,offshore,2018,1345U,24.62249909,-81.11342,24.62249909,-81.11342,,SPGR_LR,18.25,5.97976923,,,1031.073446,337.8400695
atlantic,FLK,middle,,offshore,2022,1405,24.62538,-81.11225,24.62538,-81.11225,,SPGR_HR,26,1.938445542,,,1468.926554,109.5166973
atlantic,FLK,middle,,offshore,2022,1435,24.62442,-81.11379,24.62442,-81.11379,,CONT_MR,5,0.614652005,,,282.4858757,34.72610198
atlantic,FLK,middle,,offshore,2022,1436,24.62554,-81.11239,24.62554,-81.11239,,SPGR_HR,16,0.791250054,,,903.9548023,44.70339288
atlantic,FLK,middle,,offshore,2022,1477,24.62201,-81.11191,24.62201,-81.11191,,SPGR_HR,4,0.242098531,,,225.9887006,13.67788311
atlantic,FLK,middle,,offshore,2022,1478,24.62547,-81.10481,24.62547,-81.10481,,SPGR_HR,12,0.124849685,,,677.9661017,7.05365452
atlantic,FLK,middle,,offshore,2016,1657U,24.63236558,-81.09090326,24.63236558,-81.09090326,,SPGR_HR,21.001,3.955289969,,,1186.497175,223.4627101
atlantic,FLK,middle,,offshore,2022,1680,24.63308,-81.08176,24.63308,-81.08176,,SPGR_MR,20.5,11.85167593,,,1158.19209,669.5862105
atlantic,FLK,middle,,offshore,2022,9036,24.62724,-81.11044,24.62724,-81.11044,,CONT_MR,5,0.172738845,,,282.4858757,9.75925678
atlantic,FLK,middle,,offshore,2022,9069,24.6249,-81.11135,24.6249,-81.11135,,CONT_LR,3,0.143124832,,,169.4915254,8.086148701
atlantic,FLK,middle,,offshore,2022,9070,24.62589,-81.1104,24.62589,-81.1104,,SPGR_HR,9.5,4.289882105,,,536.7231638,242.3662206
atlantic,FLK,middle,,offshore,2022,9151,24.62678,-81.11092,24.62678,-81.11092,,SPGR_HR,10.5,3.111028724,,,593.220339,175.7643347
atlantic,FLK,middle,,offshore,2022,9194,24.62538,-81.11042,24.62538,-81.11042,,SPGR_MR,2,0.028825995,,,112.9943503,1.628587288
atlantic,FLK,upper,,inshore,2022,1006,24.9495,-80.55454,24.9495,-80.55454,,ISOL_LR,0.5,0.000547757,,,28.24858757,0.030946723
atlantic,FLK,upper,,inshore,2018,1013U,24.94848519,-80.55135261,24.94848519,-80.55135261,,ISOL_LR,0.25,0.001484339,,,14.12429379,0.08386096
atlantic,FLK,upper,,inshore,2018,1014U,24.94973,-80.55353,24.94973,-80.55353,,ISOL_LR,0.333,0.172179161,,,18.81355932,9.727636215
atlantic,FLK,upper,,inshore,2022,1016,24.95192,-80.53704,24.95192,-80.53704,,ISOL_HR,10.5,0.601540933,,,593.220339,33.98536345
atlantic,FLK,upper,,inshore,2018,1057U,24.93350975,-80.5494998,24.93350975,-80.5494998,,ISOL_HR,27.25,1.88107993,,,1539.548023,106.2757023
atlantic,FLK,upper,,inshore,2018,1058U,24.9022216,-80.61657546,24.9022216,-80.61657546,,ISOL_LR,1.25,0.070784474,,,70.62146893,3.999122825
atlantic,FLK,upper,,inshore,2018,1059H,24.90323,-80.61779,24.90323,-80.61779,,ISOL_MR,15,0.074441713,,,847.4576271,4.205746497
atlantic,FLK,upper,,inshore,2018,1059U,24.90303,-80.61721,24.90303,-80.61721,,ISOL_LR,3,0.004865954,,,169.4915254,0.274912655
atlantic,FLK,upper,,inshore,2022,1077,24.90207,-80.61317,24.90207,-80.61317,,ISOL_LR,0,0,,,0,0
atlantic,FLK,upper,,inshore,2016,1247U,24.94290273,-80.55424373,24.94290273,-80.55424373,,ISOL_HR,37.5,5.714937738,,,2118.644068,322.8778383
atlantic,FLK,upper,,inshore,2016,1253U,24.9086602,-80.6101151,24.9086602,-80.6101151,,ISOL_LR,0,0,,,0,0
atlantic,FLK,upper,,inshore,2016,1255U,24.93386965,-80.55018607,24.93386965,-80.55018607,,ISOL_HR,51.0715,3.940434823,,,2885.39548,222.6234363
atlantic,FLK,upper,,inshore,2016,1256U,24.93743881,-80.54765988,24.93743881,-80.54765988,,ISOL_HR,39.375,3.754563735,,,2224.576271,212.1222449
atlantic,FLK,upper,,inshore,2016,1257U,24.90400535,-80.61690048,24.90400535,-80.61690048,,ISOL_MR,33.5,1.028750085,,,1892.655367,58.12147373
atlantic,FLK,upper,,inshore,2016,1258U,24.90363931,-80.61613896,24.90363931,-80.61613896,,ISOL_HR,25.375,5.185213368,,,1433.615819,292.9499078
atlantic,FLK,upper,,inshore,2022,1371,24.93279,-80.54947,24.93279,-80.54947,,ISOL_HR,17,0.946212957,,,960.4519774,53.45835915
atlantic,FLK,upper,,inshore,2022,1372,24.93671,-80.54596,24.93671,-80.54596,,ISOL_LR,1.5,0.005907037,,,84.74576271,0.333730904
atlantic,FLK,upper,,inshore,2022,1375,24.93747,-80.54764,24.93747,-80.54764,,ISOL_HR,16,0.490067057,,,903.9548023,27.68740435
atlantic,FLK,upper,,inshore,2022,1376,24.93409,-80.54923,24.93409,-80.54923,,ISOL_HR,10.5,0.195248524,,,593.220339,11.03099006
atlantic,FLK,upper,,inshore,2022,1379,24.90404,-80.61603,24.90404,-80.61603,,ISOL_HR,24.5,0.90760586,,,1384.180791,51.27716723
atlantic,FLK,upper,,inshore,2022,1380,24.90369,-80.61624,24.90369,-80.61624,,ISOL_HR,14.5,1.327003002,,,819.2090395,74.97192102
atlantic,FLK,upper,,inshore,2022,1497,24.94912,-80.538,24.94912,-80.538,,ISOL_LR,1,0.000238084,,,56.49717514,0.013451073
atlantic,FLK,upper,,inshore,2018,1514U,24.94523,-80.55161,24.94523,-80.55161,,ISOL_LR,0,0,,,0,0
atlantic,FLK,upper,,inshore,2022,1520,24.90091,-80.61759,24.90091,-80.61759,,ISOL_HR,12.5,16.11259135,,,706.2146893,910.3158957
atlantic,FLK,upper,,inshore,2022,1521,24.90029,-80.61704,24.90029,-80.61704,,ISOL_HR,22.5,0.354775106,,,1271.186441,20.0437913
atlantic,FLK,upper,,inshore,2022,1556,24.90235,-80.6206,24.90235,-80.6206,,ISOL_LR,0,0,,,0,0
atlantic,FLK,upper,,inshore,2018,1557H,24.93833,-80.54983,24.93833,-80.54983,,ISOL_LR,0,0,,,0,0
atlantic,FLK,upper,,inshore,2018,1557U,24.93808,-80.54971,24.93808,-80.54971,,ISOL_MR,5.5,0.834540171,,,310.7344633,47.1491622
atlantic,FLK,upper,,inshore,2022,9013,24.90357,-80.61605,24.90357,-80.61605,,ISOL_HR,33,1.235048371,,,1864.40678,69.77674412
atlantic,FLK,upper,,inshore,2022,9018,24.89723,-80.62202,24.89723,-80.62202,,ISOL_HR,77,1.165716323,,,4350.282486,65.85967927
atlantic,FLK,upper,,inshore,2022,9020,24.89815,-80.61774,24.89815,-80.61774,,ISOL_HR,25.5,0.186001588,,,1440.677966,10.50856429
atlantic,FLK,upper,,inshore,2022,9112,24.90447,-80.61357,24.90447,-80.61357,,ISOL_HR,38,0.777680122,,,2146.892655,43.93673006
atlantic,FLK,upper,,inshore,2022,9119,24.90403,-80.61852,24.90403,-80.61852,,ISOL_HR,92,5.377774606,,,5197.740113,303.8290738
atlantic,FLK,upper,,inshore,2022,9122,24.90358,-80.61902,24.90358,-80.61902,,ISOL_HR,16,2.256381239,,,903.9548023,127.479166
atlantic,FLK,upper,,inshore,2022,9210,24.90355,-80.60961,24.90355,-80.60961,,ISOL_HR,47.5,0.957635247,,,2683.615819,54.10368627
atlantic,FLK,upper,,inshore,2022,9211,24.90423,-80.60965,24.90423,-80.60965,,ISOL_HR,27.5,2.323394029,,,1553.672316,131.2651994
atlantic,FLK,upper,,inshore,2022,9215,24.89819,-80.61919,24.89819,-80.61919,,ISOL_HR,65.5,0.723024966,,,3700.564972,40.84886814
atlantic,FLK,upper,,offshore,2022,1126,24.86615,-80.58682,24.86615,-80.58682,,CONT_LR,0,0,,,0,0
atlantic,FLK,upper,,offshore,2022,1175,24.89777,-80.53732,24.89777,-80.53732,,SPGR_HR,6,0.266656887,,,338.9830508,15.06536085
atlantic,FLK,upper,,offshore,2022,1236,24.88056,-80.56252,24.88056,-80.56252,,SPGR_HR,13,1.916036549,,,734.4632768,108.2506525
atlantic,FLK,upper,,offshore,2016,1262U,24.86801634,-80.58508289,24.86801634,-80.58508289,,CONT_LR,1.5,0.003708034,,,84.74576271,0.209493446
atlantic,FLK,upper,,offshore,2018,1287U,24.88579073,-80.55222373,24.88579073,-80.55222373,,SPGR_HR,8,1.040616071,,,451.9774011,58.79186842
atlantic,FLK,upper,,offshore,2022,1291,24.89767,-80.53666,24.89767,-80.53666,,SPGR_HR,4.5,0.826224689,,,254.2372881,46.67936096
atlantic,FLK,upper,,offshore,2022,1292,24.88498,-80.55269,24.88498,-80.55269,,SPGR_HR,23.5,0.759237708,,,1327.683616,42.89478576
atlantic,FLK,upper,,offshore,2022,1293,24.87526,-80.56912,24.87526,-80.56912,,SPGR_HR,8,1.087328847,,,451.9774011,61.43100831
atlantic,FLK,upper,,offshore,2016,1312U,24.90710734,-80.53040928,24.90710734,-80.53040928,,CONT_LR,10.5,2.360920676,,,593.220339,133.3853489
atlantic,FLK,upper,,offshore,2016,1345U,24.91022677,-80.5236203,24.91022677,-80.5236203,,SPGR_LR,9.75,0.268264736,,,550.8474576,15.15619977
atlantic,FLK,upper,,offshore,2022,1346,24.87135,-80.57406,24.87135,-80.57406,,SPGR_HR,21,0.666389891,,,1186.440678,37.64914638
atlantic,FLK,upper,,offshore,2018,1347U,24.88436527,-80.55630933,24.88436527,-80.55630933,,SPGR_LR,23.25,1.214929156,,,1313.559322,68.64006531
atlantic,FLK,upper,,offshore,2018,1348U,24.88588467,-80.56202527,24.88588467,-80.56202527,,SPGR_LR,6.5,0.4404852,,,367.2316384,24.88616949
atlantic,FLK,upper,,offshore,2018,1387U,24.89741372,-80.53789817,24.89741372,-80.53789817,,SPGR_HR,6.75,0.734581993,,,381.3559322,41.50180751
atlantic,FLK,upper,,offshore,2018,1389U,24.89342506,-80.54090462,24.89342506,-80.54090462,,SPGR_HR,26,0.711790906,,,1468.926554,40.21417548
atlantic,FLK,upper,,offshore,2022,1682,24.90454,-80.53295,24.90454,-80.53295,,ISOL_HR,3.5,3.248542257,,,197.740113,183.5334608
atlantic,PR,east,,culebra,2016,1005,18.32018,-65.3327,18.32018,-65.3327,,PVMT,0,0,,,0,0
atlantic,PR,east,,culebra,2016,1009,18.3269,-65.33095,18.3269,-65.33095,,AGRF,32,1.881205757,,,1807.909605,106.2828111
atlantic,PR,east,,culebra,2016,1013,18.31184,-65.31681,18.31184,-65.31681,,SCR,18,0.034569098,,,1016.949153,1.953056384
atlantic,PR,east,,culebra,2016,1017,18.32151,-65.32755,18.32151,-65.32755,,SCR,0,0,,,0,0
atlantic,PR,east,,culebra,2019,6320,18.30126,-65.31244,18.30126,-65.31244,,PTRF,8,0.245255903,,,451.9774011,13.85626571
atlantic,PR,east,,culebra,2019,6330,18.3041,-65.312,18.3041,-65.312,,SCR,2.5,0.415697351,,,141.2429379,23.48572605
atlantic,PR,east,,culebra,2021,6344,18.30559,-65.31516,18.30559,-65.31516,,PTRF,15.5,0.377060269,,,875.7062147,21.30284006
atlantic,PR,east,,culebra,2021,6367,18.3145,-65.31828,18.3145,-65.31828,,BDRK,5,0.002819917,,,282.4858757,0.159317345
atlantic,PR,east,,culebra,2021,6395,18.32128,-65.33337,18.32128,-65.33337,,PVMT,8,0.267243122,,,451.9774011,15.09848147
atlantic,PR,east,,culebra,2021,6407,18.32425,-65.33233,18.32425,-65.33233,,SCR,0,0,,,0,0
atlantic,PR,east,,culebra,2021,6411,18.33053,-65.33249,18.33053,-65.33249,,AGRF,9.5,0.758655447,,,536.7231638,42.86188966
atlantic,PR,east,,fajardo,2016,1020,18.35498,-65.56694,18.35498,-65.56694,,PTRF,18,0.898822502,,,1016.949153,50.78093232
atlantic,PR,east,,fajardo,2016,1029,18.33913,-65.55685,18.33913,-65.55685,,PTRF,4,0.133812316,,,225.9887006,7.560017853
atlantic,PR,east,,fajardo,2016,1031,18.33812,-65.5616,18.33812,-65.5616,,PVMT,12,0.440906795,,,677.9661017,24.90998842
atlantic,PR,east,,fajardo,2016,1037,18.34444,-65.56046,18.34444,-65.56046,,AGRF,0,0,,,0,0
atlantic,PR,east,,fajardo,2019,6391,18.33794,-65.55695,18.33794,-65.55695,,AGRF,6,0.266601471,,,338.9830508,15.06223
atlantic,PR,east,,fajardo,2019,6395,18.34126,-65.57332,18.34126,-65.57332,,SCR,3.5,0.045215679,,,197.740113,2.554558136
atlantic,PR,east,,fajardo,2019,6398,18.34248,-65.56769,18.34248,-65.56769,,SCR,0,0,,,0,0
atlantic,PR,east,,fajardo,2019,6402,18.34369,-65.57078,18.34369,-65.57078,,PTRF,32,0.080674216,,,1807.909605,4.557865311
atlantic,PR,east,,fajardo,2019,6403,18.34462,-65.57417,18.34462,-65.57417,,PTRF,19,0.498386837,,,1073.446328,28.15744842
atlantic,PR,east,,fajardo,2019,6408,18.34541,-65.56293,18.34541,-65.56293,,AGRF,15.5,0.343969118,,,875.7062147,19.4332835
atlantic,PR,east,,fajardo,2019,6414,18.34908,-65.5779,18.34908,-65.5779,,SCR,2,0.066033881,,,112.9943503,3.73072774
atlantic,PR,east,,fajardo,2021,6420,18.34494,-65.57377,18.34494,-65.57377,,PTRF,19.5,0.070345586,,,1101.694915,3.974326893
atlantic,PR,east,,fajardo,2019,6437,18.35448,-65.56693,18.35448,-65.56693,,AGRF,19,0.684884458,,,1073.446328,38.69403718
atlantic,PR,east,,fajardo,2021,6437,18.35495,-65.57593,18.35495,-65.57593,,SCR,2,0.614353604,,,112.9943503,34.70924316
atlantic,PR,east,,fajardo,2021,6442,18.35598,-65.57395,18.35598,-65.57395,,PVMT,6,0.105368343,,,338.9830508,5.953013729
atlantic,PR,east,,fajardo,2019,6444,18.35547,-65.57403,18.35547,-65.57403,,PVMT,2,0.138546004,,,112.9943503,7.827457853
atlantic,PR,north,,fajardo,2016,2031,18.46334,-66.05654,18.46334,-66.05654,,SCR,2,0.001264869,,,112.9943503,0.071461525
atlantic,PR,north,,fajardo,2016,2032,18.46289,-66.00464,18.46289,-66.00464,,AGRF,0,0,,,0,0
atlantic,PR,north,,fajardo,2016,2046,18.45371,-66.02283,18.45371,-66.02283,,AGRF,0,0,,,0,0
atlantic,PR,north,,fajardo,2019,6532,18.45192,-66.02245,18.45192,-66.02245,,PTRF,0,0,,,0,0
atlantic,PR,north,,fajardo,2019,6535,18.45448,-66.04129,18.45448,-66.04129,,PTRF,0,0,,,0,0
atlantic,PR,north,,fajardo,2019,6536,18.45491,-66.03983,18.45491,-66.03983,,PTRF,0.5,0.066046891,,,28.24858757,3.731462768
atlantic,PR,north,,fajardo,2019,6540,18.45636,-66.04877,18.45636,-66.04877,,PTRF,0,0,,,0,0
atlantic,PR,north,,fajardo,2019,6541,18.45609,-66.02988,18.45609,-66.02988,,PTRF,1.5,0.007539296,,,84.74576271,0.425948927
atlantic,PR,north,,fajardo,2019,6543,18.45942,-66.01189,18.45942,-66.01189,,PVMT,0,0,,,0,0
atlantic,PR,north,,fajardo,2019,6544,18.46119,-66.00991,18.46119,-66.00991,,PVMT,0,0,,,0,0
atlantic,PR,north,,fajardo,2019,6545,18.46264,-66.04299,18.46264,-66.04299,,PVMT,0,0,,,0,0
atlantic,PR,north,,fajardo,2019,6548,18.46835,-66.1508,18.46835,-66.1508,,PVMT,0,0,,,0,0
atlantic,PR,north,,fajardo,2019,6551,18.47189,-66.14499,18.47189,-66.14499,,PVMT,0,0,,,0,0
atlantic,PR,south,,jobosBay,2016,3059,17.8891,-66.27213,17.8891,-66.27213,,PVMT,0,0,,,0,0
atlantic,PR,south,,jobosBay,2016,3061,17.912,-66.1142,17.912,-66.1142,,PVMT,6.5,0.151062855,,,367.2316384,8.534624576
atlantic,PR,south,,jobosBay,2016,3062,17.9324,-66.0336,17.9324,-66.0336,,AGRF,12,0.762865946,,,677.9661017,43.09977096
atlantic,PR,south,,jobosBay,2016,3090,17.9265,-66.1299,17.9265,-66.1299,,PVMT,0,0,,,0,0
atlantic,PR,south,,jobosBay,2016,3091,17.9366,-66.0406,17.9366,-66.0406,,AGRF,2,0.033632493,,,112.9943503,1.900140847
atlantic,PR,south,,jobosBay,2016,3103,17.94346,-66.07121,17.94346,-66.07121,,PTRF,0.5,0.151856435,,,28.24858757,8.579459605
atlantic,PR,south,,jobosBay,2016,3104,17.9469,-66.0881,17.9469,-66.0881,,PTRF,3,0.176001391,,,169.4915254,9.943581412
atlantic,PR,south,,jobosBay,2016,3114,17.9366,-66.0189,17.9366,-66.0189,,PVMT,0.5,0.015118005,,,28.24858757,0.854124576
atlantic,PR,south,,jobosBay,2016,3193,17.8852,-66.284,17.8852,-66.284,,SCR,0,0,,,0,0
atlantic,PR,south,,jobosBay,2021,6045,17.88837,-66.24729,17.88837,-66.24729,,PVMT,0,0,,,0,0
atlantic,PR,south,,jobosBay,2021,6083,17.91282,-66.24285,17.91282,-66.24285,,AGRF,10,1.785037811,,,564.9717514,100.8495938
atlantic,PR,south,,jobosBay,2021,6097,17.92131,-66.12521,17.92131,-66.12521,,PVMT,0,0,,,0,0
atlantic,PR,south,,laParguera,2016,3077,17.92023,-67.00885,17.92023,-67.00885,,AGRF,15.5,0.59349022,,,875.7062147,33.5305209
atlantic,PR,south,,laParguera,2016,3093,17.91831,-67.10453,17.91831,-67.10453,,AGRF,2.5,0.283243453,,,141.2429379,16.00245497
atlantic,PR,south,,laParguera,2016,3105,17.93189,-67.10159,17.93189,-67.10159,,PTRF,9.5,0.388710022,,,536.7231638,21.96101819
atlantic,PR,south,,laParguera,2016,3106,17.939,-67.0471,17.939,-67.0471,,SCR,0,0,,,0,0
atlantic,PR,south,,laParguera,2019,6038,17.9082416,-66.9966463,17.9082416,-66.9966463,,AGRF,11.5,1.683716738,,,649.7175141,95.12523944
atlantic,PR,south,,laParguera,2019,6044,17.9165737,-66.9724882,17.9165737,-66.9724882,,AGRF,2.5,0.238800575,,,141.2429379,13.49155791
atlantic,PR,south,,laParguera,2019,6050,17.9219077,-67.0078175,17.9219077,-67.0078175,,PVMT,0,0,,,0,0
atlantic,PR,south,,laParguera,2021,6056,17.90331,-67.00045,17.90331,-67.00045,,AGRF,24.5,2.102335771,,,1384.180791,118.7760323
atlantic,PR,south,,laParguera,2019,6058,17.9288979,-67.1200519,17.9288979,-67.1200519,,AGRF,9.5,0.348729549,,,536.7231638,19.70223441
atlantic,PR,south,,laParguera,2019,6062,17.9303353,-67.0369808,17.9303353,-67.0369808,,PVMT,0,0,,,0,0
atlantic,PR,south,,laParguera,2019,6085,17.9403658,-67.0916143,17.9403658,-67.0916143,,SCR,3,0.00055202,,,169.4915254,0.031187571
atlantic,PR,south,,laParguera,2021,6086,17.92542,-67.0909,17.92542,-67.0909,,AGRF,21.5,1.134991147,,,1214.689266,64.12379362
atlantic,PR,south,,laParguera,2021,6089,17.92716,-67.08344,17.92716,-67.08344,,AGRF,19,0.714450373,,,1073.446328,40.36442785
atlantic,PR,south,,laParguera,2016,3037,17.92586,-67.08847,17.92586,-67.08847,,AGRF,12,0.92404116,,,677.9661017,52.20571525
atlantic,PR,south,,laParguera,2016,3038,17.93944,-67.03694,17.93944,-67.03694,,AGRF,5.5,0.207429525,,,310.7344633,11.7191822
atlantic,PR,south,,laParguera,2016,3048,17.92213,-66.99948,17.92213,-66.99948,,PTRF,8.5,0.714034209,,,480.2259887,40.34091576
atlantic,PR,south,,laParguera,2016,3049,17.92854,-66.97656,17.92854,-66.97656,,PTRF,8.5,0.514844328,,,480.2259887,29.08725017
atlantic,PR,south,,laParguera,2016,3050,17.94373,-67.07207,17.94373,-67.07207,,PTRF,3.5,0.195484781,,,197.740113,11.04433791
atlantic,PR,west,,rincon,2019,6360,18.3440651,-67.2660386,18.3440651,-67.2660386,,SCR,0,0,,,0,0
atlantic,PR,west,,rincon,2019,6365,18.345446,-67.2688632,18.345446,-67.2688632,,AGRF,2.5,0.751356847,,,141.2429379,42.44953938
atlantic,PR,west,,rincon,2019,6370,18.3463537,-67.2693272,18.3463537,-67.2693272,,AGRF,6,0.303522973,,,338.9830508,17.14819056
atlantic,PR,west,,rincon,2019,6371,18.3463279,-67.2664891,18.3463279,-67.2664891,,AGRF,0.5,0.058162673,,,28.24858757,3.286026723
atlantic,PR,west,,rincon,2019,6375,18.3468183,-67.2707418,18.3468183,-67.2707418,,AGRF,1.5,0.303263668,,,84.74576271,17.13354056
atlantic,PR,west,,rincon,2019,6377,18.3477346,-67.2721519,18.3477346,-67.2721519,,AGRF,6,0.581530075,,,338.9830508,32.8548065
atlantic,PR,west,,rincon,2021,6377,18.34498,-67.26604,18.34498,-67.26604,,PTRF,4,0.493766114,,,225.9887006,27.89639062
atlantic,PR,west,,rincon,2019,6378,18.3477174,-67.2702598,18.3477174,-67.2702598,,SCR,1,0.23251605,,,56.49717514,13.1365
atlantic,PR,west,,rincon,2019,6379,18.3477131,-67.2697867,18.3477131,-67.2697867,,SCR,0.5,0.001378676,,,28.24858757,0.077891299
atlantic,PR,west,,rincon,2019,6380,18.3476615,-67.2641104,18.3476615,-67.2641104,,AGRF,0.5,0.000718372,,,28.24858757,0.040585989
atlantic,PR,west,,rincon,2019,6385,18.3499416,-67.266453,18.3499416,-67.266453,,AGRF,1,0.030734049,,,56.49717514,1.736386949
atlantic,PR,west,,rincon,2021,6385,18.34676,-67.26694,18.34676,-67.26694,,AGRF,9.5,0.223497006,,,536.7231638,12.62694949
atlantic,PR,west,,rincon,2021,6386,18.34686,-67.2651,18.34686,-67.2651,,AGRF,4,0.273284902,,,225.9887006,15.43982497
atlantic,PR,west,,rincon,2019,6387,18.3503933,-67.2664485,18.3503933,-67.2664485,,AGRF,2,0.04701083,,,112.9943503,2.655979096
atlantic,PR,west,,rincon,2021,6389,18.34783,-67.27162,18.34783,-67.27162,,AGRF,3.5,0.747749957,,,197.740113,42.24576028
atlantic,PR,west,,rincon,2021,6399,18.35056,-67.26813,18.35056,-67.26813,,PVMT,2.5,0.303614974,,,141.2429379,17.15338836
atlantic,PR,west,,rincon,2021,6400,18.3503,-67.26704,18.3503,-67.26704,,AGRF,1.5,0.019228194,,,84.74576271,1.086338644
atlantic,STJ,east,,newfound,2019,5182,18.33353,-64.66028,18.33353,-64.66028,,AGRF,15.5,0.553237933,,,875.7062147,31.2563804
atlantic,STJ,east,,newfound,2019,5188,18.33613,-64.66216,18.33613,-64.66216,,BDRK,18.5,0.915377988,,,1045.19774,51.71627051
atlantic,STJ,east,,newfound,2019,5218,18.34426,-64.66076,18.34426,-64.66076,,SCR,13.5,0.296518313,,,762.7118644,16.75244706
atlantic,STJ,east,,newfound,2019,5250,18.34879,-64.67526,18.34879,-64.67526,,SCR,16.5,0.037227672,,,932.2033898,2.103258305
atlantic,STJ,east,,newfound,2019,5261,18.35056,-64.67926,18.35056,-64.67926,,AGRF,37.5,1.319033551,,,2118.644068,74.52166955
atlantic,STJ,east,,newfound,2021,5268,18.34354,-64.66013,18.34354,-64.66013,,PVMT,10,0.217752694,,,564.9717514,12.30241209
atlantic,STJ,east,,newfound,2021,5274,18.34522,-64.66221,18.34522,-64.66221,,BDRK,1,0.025737387,,,56.49717514,1.454089661
atlantic,STJ,east,,newfound,2021,5304,18.35104,-64.67034,18.35104,-64.67034,,AGRF,6.5,0.149861943,,,367.2316384,8.466776441
atlantic,STJ,east,,newfound,2017,6171,18.33285,-64.66449,18.33285,-64.66449,,AGRF,6,0.074876149,,,338.9830508,4.230290904
atlantic,STJ,east,,newfound,2017,6184,18.33743,-64.66258,18.33743,-64.66258,,PTRF,1.5,0.01188133,,,84.74576271,0.671261582
atlantic,STJ,east,,newfound,2017,6206,18.34711,-64.66856,18.34711,-64.66856,,PTRF,9,0.324545595,,,508.4745763,18.33590932
atlantic,STJ,east,,newfound,2017,6209,18.34931,-64.67914,18.34931,-64.67914,,PTRF,33.5,1.01288611,,,1892.655367,57.22520395
atlantic,STJ,east,,newfound,2017,6239,18.34807,-64.67771,18.34807,-64.67771,,SCR,12.5,0.046720599,,,706.2146893,2.639581864
atlantic,STJ,north,,johnsonsReef,2019,5317,18.35968,-64.75918,18.35968,-64.75918,,AGRF,32,2.114197589,,,1807.909605,119.4461915
atlantic,STJ,north,,johnsonsReef,2019,5319,18.36018,-64.7612,18.36018,-64.7612,,AGRF,36,0.091535911,,,2033.898305,5.171520395
atlantic,STJ,north,,johnsonsReef,2019,5326,18.36136,-64.76777,18.36136,-64.76777,,AGRF,13.5,0.266175824,,,762.7118644,15.03818215
atlantic,STJ,north,,johnsonsReef,2019,5328,18.36171,-64.77119,18.36171,-64.77119,,AGRF,23,0.368039848,,,1299.435028,20.79321175
atlantic,STJ,north,,johnsonsReef,2019,5335,18.3628,-64.77025,18.3628,-64.77025,,PTRF,10.5,1.407596516,,,593.220339,79.52522689
atlantic,STJ,north,,johnsonsReef,2021,5356,18.36067,-64.77364,18.36067,-64.77364,,PVMT,2,0.012296728,,,112.9943503,0.694730395
atlantic,STJ,north,,johnsonsReef,2021,5358,18.36186,-64.7641,18.36186,-64.7641,,AGRF,20.5,0.504600445,,,1158.19209,28.50849972
atlantic,STJ,north,,johnsonsReef,2021,5377,18.36443,-64.77156,18.36443,-64.77156,,AGRF,16.5,0.496025644,,,932.2033898,28.02404768
atlantic,STJ,north,,johnsonsReef,2017,6117,18.36237,-64.75802,18.36237,-64.75802,,PTRF,9.5,0.617981911,,,536.7231638,34.91423226
atlantic,STJ,north,,johnsonsReef,2017,6225,18.36146,-64.77109,18.36146,-64.77109,,AGRF,50,0.181278856,,,2824.858757,10.24174328
atlantic,STJ,north,,johnsonsReef,2017,6279,18.36311,-64.77542,18.36311,-64.77542,,AGRF,42,1.108952561,,,2372.881356,62.65268706
atlantic,STJ,north,,johnsonsReef,2017,6331,18.36437,-64.77161,18.36437,-64.77161,,PTRF,18,0.911363802,,,1016.949153,51.48948034
atlantic,STJ,north,,johnsonsReef,2017,6392,18.36098,-64.76263,18.36098,-64.76263,,AGRF,44.5,2.264150807,,,2514.124294,127.9181247
atlantic,STJ,south,,tektite,2019,5089,18.30541,-64.71229,18.30541,-64.71229,,SCR,0,0,,,0,0
atlantic,STJ,south,,tektite,2019,5096,18.30744,-64.71985,18.30744,-64.71985,,BDRK,6,0.836738153,,,338.9830508,47.27334198
atlantic,STJ,south,,tektite,2019,5114,18.30987,-64.71704,18.30987,-64.71704,,BDRK,3,0.929090395,,,169.4915254,52.49098277
atlantic,STJ,south,,tektite,2021,5121,18.30357,-64.71097,18.30357,-64.71097,,AGRF,26,0.288945616,,,1468.926554,16.32461107
atlantic,STJ,south,,tektite,2021,5130,18.30555,-64.71277,18.30555,-64.71277,,SCR,0,0,,,0,0
atlantic,STJ,south,,tektite,2021,5140,18.30724,-64.71382,18.30724,-64.71382,,SCR,0,0,,,0,0
atlantic,STJ,south,,tektite,2021,5154,18.30902,-64.71287,18.30902,-64.71287,,BDRK,28.5,0.082372625,,,1610.169492,4.653820621
atlantic,STJ,south,,tektite,2021,5166,18.31026,-64.72176,18.31026,-64.72176,,PTRF,29,0.624475401,,,1638.418079,35.2810961
atlantic,STJ,south,,tektite,2017,6143,18.30311,-64.71059,18.30311,-64.71059,,AGRF,20.5,0.640197145,,,1158.19209,36.16933023
atlantic,STJ,south,,tektite,2017,6144,18.31429,-64.73415,18.31429,-64.73415,,PVMT,4,0.081536074,,,225.9887006,4.606557853
atlantic,STJ,south,,tektite,2017,6175,18.30808,-64.71913,18.30808,-64.71913,,AGRF,13,0.333666712,,,734.4632768,18.85122667
atlantic,STJ,south,,tektite,2017,6189,18.31608,-64.737,18.31608,-64.737,,AGRF,7,0.445501215,,,395.480226,25.16956017
atlantic,STJ,south,,tektite,2017,6258,18.31561,-64.72647,18.31561,-64.72647,,BDRK,28.5,0.400296012,,,1610.169492,22.6155939
atlantic,STJ,west,,stevenCay,2021,5215,18.33043,-64.80956,18.33043,-64.80956,,AGRF,21,0.356256469,,,1186.440678,20.12748412
atlantic,STJ,west,,stevenCay,2021,5218,18.33136,-64.80915,18.33136,-64.80915,,BDRK,13.5,1.316270167,,,762.7118644,74.36554616
atlantic,STJ,west,,stevenCay,2019,5221,18.34413,-64.7892,18.34413,-64.7892,,SCR,0,0,,,0,0
atlantic,STJ,west,,stevenCay,2019,5227,18.34514,-64.79599,18.34514,-64.79599,,AGRF,22.5,0.490199149,,,1271.186441,27.69486718
atlantic,STJ,west,,stevenCay,2019,5289,18.34166,-64.79162,18.34166,-64.79162,,AGRF,9.5,0.243865107,,,536.7231638,13.77768966
atlantic,STJ,west,,stevenCay,2017,6001,18.32579,-64.80147,18.32579,-64.80147,,BDRK,17,0.58601332,,,960.4519774,33.10809718
atlantic,STJ,west,,stevenCay,2017,6060,18.32787,-64.80966,18.32787,-64.80966,,HARD,0,0,,,0,0
atlantic,STJ,west,,stevenCay,2017,6278,18.3378,-64.79792,18.3378,-64.79792,,AGRF,24.5,0.582658445,,,1384.180791,32.91855621
atlantic,STJ,west,,stevenCay,2017,6352,18.34387,-64.79642,18.34387,-64.79642,,PTRF,33,0.435209603,,,1864.40678,24.58811316
atlantic,STJ,west,,stevenCay,2017,6900,18.32837,-64.80996,18.32837,-64.80996,,HARD,0,0,,,0,0
atlantic,STT,north,,innerBrass,2019,5432,18.37882,-64.97709,18.37882,-64.97709,,AGRF,18,0.53526291,,,1016.949153,30.24084237
atlantic,STT,north,,innerBrass,2019,5434,18.37973,-64.96517,18.37973,-64.96517,,PVMT,63,4.193985258,,,3559.322034,236.9483197
atlantic,STT,north,,innerBrass,2019,5435,18.38238,-64.97422,18.38238,-64.97422,,PVMT,3,0.142997064,,,169.4915254,8.078930169
atlantic,STT,north,,innerBrass,2019,5439,18.38632,-64.97631,18.38632,-64.97631,,BDRK,10,1.016280973,,,564.9717514,57.41700412
atlantic,STT,north,,innerBrass,2019,5441,18.39098,-64.97076,18.39098,-64.97076,,PVMT,36,2.437394632,,,2033.898305,137.7059114
atlantic,STT,north,,innerBrass,2019,5444,18.40088,-64.97542,18.40088,-64.97542,,BDRK,18,1.213085443,,,1016.949153,68.53590073
atlantic,STT,north,,innerBrass,2021,5444,18.38468,-64.96439,18.38468,-64.96439,,PVMT,14.5,0.511431796,,,819.2090395,28.89445175
atlantic,STT,north,,innerBrass,2021,5449,18.38698,-64.96364,18.38698,-64.96364,,PVMT,8,0.023949193,,,451.9774011,1.353061751
atlantic,STT,north,,innerBrass,2021,5457,18.38973,-64.96825,18.38973,-64.96825,,PVMT,12,0.228649961,,,677.9661017,12.91807689
atlantic,STT,north,,innerBrass,2021,5464,18.39821,-64.9748,18.39821,-64.9748,,BDRK,7,0.850584497,,,395.480226,48.0556213
atlantic,STT,north,,innerBrass,2021,5466,18.39961,-64.97691,18.39961,-64.97691,,PVMT,14,0.308286518,,,790.960452,17.4173174
atlantic,STT,north,,innerBrass,2017,6034,18.37698,-64.96288,18.37698,-64.96288,,AGRF,16.5,1.147487531,,,932.2033898,64.82980401
atlantic,STT,north,,innerBrass,2017,6102,18.38483,-64.95964,18.38483,-64.95964,,HARD,3,0.068064853,,,169.4915254,3.845471921
atlantic,STT,north,,innerBrass,2017,6234,18.3797,-64.96581,18.3797,-64.96581,,AGRF,1.5,0.115392681,,,84.74576271,6.519360508
atlantic,STT,south,,brewersBay,2019,5177,18.32859,-64.9714,18.32859,-64.9714,,AGRF,17.5,1.11972404,,,988.700565,63.2612452
atlantic,STT,south,,brewersBay,2019,5204,18.33896,-64.97864,18.33896,-64.97864,,BDRK,286,0.576338838,,,16158.19209,32.56151627
atlantic,STT,south,,brewersBay,2021,5212,18.32683,-64.97369,18.32683,-64.97369,,BDRK,8.5,0.187219533,,,480.2259887,10.57737475
atlantic,STT,south,,brewersBay,2019,5242,18.34517,-64.98805,18.34517,-64.98805,,AGRF,24,0.90684888,,,1355.932203,51.2344
atlantic,STT,south,,brewersBay,2019,5243,18.34524,-64.9838,18.34524,-64.9838,,PVMT,26,0.079282412,,,1468.926554,4.479232316
atlantic,STT,south,,brewersBay,2019,5251,18.34621,-64.98628,18.34621,-64.98628,,BDRK,14.5,0.557651236,,,819.2090395,31.50571955
atlantic,STT,south,,brewersBay,2021,5275,18.34305,-64.98288,18.34305,-64.98288,,AGRF,34,0.382399143,,,1920.903955,21.60447136
atlantic,STT,south,,brewersBay,2021,5289,18.34554,-64.9876,18.34554,-64.9876,,PTRF,29,0.468881772,,,1638.418079,26.49049559
atlantic,STT,south,,brewersBay,2017,6120,18.34608,-64.98832,18.34608,-64.98832,,PTRF,20.5,1.408335707,,,1158.19209,79.5669891
atlantic,STT,south,,brewersBay,2017,6193,18.32857,-64.97172,18.32857,-64.97172,,AGRF,11.5,0.516262283,,,649.7175141,29.16736062
atlantic,STT,south,,brewersBay,2017,6212,18.34307,-64.98274,18.34307,-64.98274,,PTRF,22,0.324468111,,,1242.937853,18.33153169
atlantic,STT,south,,brewersBay,2017,6229,18.32765,-64.97366,18.32765,-64.97366,,AGRF,19.5,0.498975095,,,1101.694915,28.19068333
atlantic,STT,west,,sava,2019,5202,18.33612,-65.07932,18.33612,-65.07932,,PVMT,8.5,0.528058905,,,480.2259887,29.83383644
atlantic,STT,west,,sava,2019,5206,18.33835,-65.07545,18.33835,-65.07545,,AGRF,5.5,0.072492015,,,310.7344633,4.095594068
atlantic,STT,west,,sava,2019,5226,18.34232,-65.06933,18.34232,-65.06933,,HARD,2,0.09632384,,,112.9943503,5.442024859
atlantic,STT,west,,sava,2019,5240,18.34445,-65.05365,18.34445,-65.05365,,PVMT,0,0,,,0,0
atlantic,STT,west,,sava,2019,5247,18.34506,-65.05332,18.34506,-65.05332,,PVMT,0,0,,,0,0
atlantic,STT,west,,sava,2021,5291,18.34583,-65.05309,18.34583,-65.05309,,PVMT,0,0,,,0,0
atlantic,STT,west,,sava,2019,5437,18.38283,-65.05736,18.38283,-65.05736,,HARD,6.5,0.696914001,,,367.2316384,39.37367237
atlantic,STT,west,,sava,2021,5438,18.37654,-65.05313,18.37654,-65.05313,,HARD,0,0,,,0,0
atlantic,STT,west,,sava,2017,6015,18.38013,-65.06458,18.38013,-65.06458,,BDRK,4,0.64177031,,,225.9887006,36.2582096
atlantic,STT,west,,sava,2017,6086,18.33763,-65.06265,18.33763,-65.06265,,HARD,4,0.327043224,,,225.9887006,18.47701831
atlantic,STT,west,,sava,2017,6087,18.34148,-65.05565,18.34148,-65.05565,,HARD,0,0,,,0,0
atlantic,STT,west,,sava,2017,6088,18.34432,-65.05556,18.34432,-65.05556,,HARD,0,0,,,0,0
atlantic,STX,east,,langBank,2017,1109,17.81115,-64.49591,17.81115,-64.49591,,AGRF,25,1.8629239,,,1412.429379,105.2499379
atlantic,STX,east,,langBank,2017,1110,17.81464,-64.49993,17.81464,-64.49993,,AGRF,26.5,1.672763951,,,1497.175141,94.50643791
atlantic,STX,east,,langBank,2017,1111,17.81535,-64.47942,17.81535,-64.47942,,SCR,7.5,1.16262877,,,423.7288136,65.68524124
atlantic,STX,east,,langBank,2017,1112,17.81903,-64.50109,17.81903,-64.50109,,PVMT,26.5,3.296209732,,,1497.175141,186.2265385
atlantic,STX,east,,langBank,2017,1113,17.82053,-64.49941,17.82053,-64.49941,,PVMT,5,0.502239629,,,282.4858757,28.37512028
atlantic,STX,east,,langBank,2017,1143,17.79675,-64.47728,17.79675,-64.47728,,PTRF,13.5,0.484086703,,,762.7118644,27.34953124
atlantic,STX,east,,langBank,2017,1215,17.82393,-64.48649,17.82393,-64.48649,,PVMT,30,3.624752337,,,1694.915254,204.7882676
atlantic,STX,east,,langBank,2017,1216,17.82445,-64.4851,17.82445,-64.4851,,PVMT,27,3.183623498,,,1525.423729,179.8657344
atlantic,STX,east,,langBank,2021,4366,17.79965,-64.47679,17.79965,-64.47679,,PTRF,9,0.528273371,,,508.4745763,29.84595316
atlantic,STX,east,,langBank,2021,4379,17.80236,-64.48253,17.80236,-64.48253,,AGRF,20,1.173923576,,,1129.943503,66.32336588
atlantic,STX,east,,langBank,2021,4380,17.80234,-64.45738,17.80234,-64.45738,,AGRF,10,1.143296064,,,564.9717514,64.59299797
atlantic,STX,east,,langBank,2021,4382,17.80283,-64.49682,17.80283,-64.49682,,AGRF,17,0.587216235,,,960.4519774,33.17605847
atlantic,STX,east,,langBank,2019,4385,17.79952,-64.47838,17.79952,-64.47838,,AGRF,46.5,1.669106662,,,2627.118644,94.29981141
atlantic,STX,east,,langBank,2019,4389,17.80066,-64.4729,17.80066,-64.4729,,AGRF,6.5,1.241474844,,,367.2316384,70.13982169
atlantic,STX,east,,langBank,2021,4389,17.80592,-64.50377,17.80592,-64.50377,,AGRF,7.5,0.673159053,,,423.7288136,38.03158492
atlantic,STX,east,,langBank,2019,4393,17.80148,-64.50202,17.80148,-64.50202,,AGRF,22.5,1.480398155,,,1271.186441,83.63831384
atlantic,STX,east,,langBank,2021,4393,17.80685,-64.4934,17.80685,-64.4934,,AGRF,15.5,0.843411372,,,875.7062147,47.65036
atlantic,STX,east,,langBank,2019,4402,17.80372,-64.4828,17.80372,-64.4828,,AGRF,10,0.691989882,,,564.9717514,39.09547356
atlantic,STX,east,,langBank,2019,4408,17.80572,-64.45976,17.80572,-64.45976,,PVMT,13,1.213395844,,,734.4632768,68.55343751
atlantic,STX,east,,langBank,2021,4408,17.81227,-64.49013,17.81227,-64.49013,,AGRF,14,0.455650464,,,790.960452,25.74296407
atlantic,STX,east,,langBank,2019,4411,17.80581,-64.50138,17.80581,-64.50138,,PTRF,8,1.05248625,,,451.9774011,59.4625
atlantic,STX,east,,langBank,2021,4411,17.81488,-64.45996,17.81488,-64.45996,,AGRF,9.5,0.845110982,,,536.7231638,47.74638316
atlantic,STX,east,,langBank,2019,4412,17.80612,-64.46411,17.80612,-64.46411,,PVMT,2,0.42826035,,,112.9943503,24.1955
atlantic,STX,east,,langBank,2021,4415,17.82076,-64.50078,17.82076,-64.50078,,SCR,0,0,,,0,0
atlantic,STX,east,,langBank,2019,4420,17.81066,-64.47383,17.81066,-64.47383,,PVMT,12.5,1.085707949,,,706.2146893,61.33943215
atlantic,STX,east,,langBank,2019,4426,17.81339,-64.46237,17.81339,-64.46237,,PVMT,15,1.78949111,,,847.4576271,101.1011927
atlantic,STX,east,,langBank,2021,4428,17.83331,-64.45361,17.83331,-64.45361,,HARD,17.5,1.533158199,,,988.700565,86.61910729
atlantic,STX,east,,langBank,2021,4429,17.83434,-64.45164,17.83434,-64.45164,,HARD,16,1.86773055,,,903.9548023,105.5215
atlantic,STX,east,,langBank,2019,4430,17.82136,-64.49477,17.82136,-64.49477,,PVMT,0.5,0.1223424,,,28.24858757,6.912
atlantic,STX,east,,langBank,2019,4431,17.82511,-64.48109,17.82511,-64.48109,,PVMT,4,0.506006885,,,225.9887006,28.5879596
atlantic,STX,east,,langBank,2019,4432,17.82557,-64.49556,17.82557,-64.49556,,PVMT,9,0.992262857,,,508.4745763,56.06004842
atlantic,STX,east,,langBank,2019,4434,17.82839,-64.47005,17.82839,-64.47005,,PVMT,9,1.154237501,,,508.4745763,65.21115825
atlantic,STX,north,,saltRiver,2017,1023,17.78533,-64.76053,17.78533,-64.76053,,AGRF,8,0.47212194,,,451.9774011,26.67355593
atlantic,STX,north,,saltRiver,2017,1024,17.78686,-64.75798,17.78686,-64.75798,,AGRF,12,0.45021309,,,677.9661017,25.4357678
atlantic,STX,north,,saltRiver,2017,1039,17.7843,-64.75804,17.7843,-64.75804,,AGRF,0.5,0.0362496,,,28.24858757,2.048
atlantic,STX,north,,saltRiver,2017,1119,17.79189,-64.74884,17.79189,-64.74884,,PVMT,7,0.480709615,,,395.480226,27.15873531
atlantic,STX,north,,saltRiver,2017,1149,17.7907,-64.75179,17.7907,-64.75179,,PVMT,2.5,0.43080915,,,141.2429379,24.3395
atlantic,STX,north,,saltRiver,2017,1222,17.78621,-64.75496,17.78621,-64.75496,,PVMT,0,0,,,0,0
atlantic,STX,north,,saltRiver,2017,1223,17.78908,-64.75253,17.78908,-64.75253,,PVMT,0.5,0.00303555,,,28.24858757,0.1715
atlantic,STX,north,,saltRiver,2017,1277,17.78462,-64.75881,17.78462,-64.75881,,AGRF,15,1.144637185,,,847.4576271,64.66876751
atlantic,STX,north,,saltRiver,2017,1278,17.78538,-64.76102,17.78538,-64.76102,,AGRF,11,0.525737967,,,621.4689266,29.70271
atlantic,STX,north,,saltRiver,2017,1293,17.78465,-64.75708,17.78465,-64.75708,,HARD,2,0.1483968,,,112.9943503,8.384
atlantic,STX,north,,saltRiver,2017,1379,17.78206,-64.75699,17.78206,-64.75699,,AGRF,18,1.475041382,,,1016.949153,83.3356713
atlantic,STX,north,,saltRiver,2017,1380,17.784,-64.75332,17.784,-64.75332,,AGRF,1.5,0.049854255,,,84.74576271,2.816624576
atlantic,STX,north,,saltRiver,2017,1423,17.78287,-64.75615,17.78287,-64.75615,,PVMT,6.5,0.593856818,,,367.2316384,33.55123266
atlantic,STX,north,,saltRiver,2019,4265,17.78059,-64.75503,17.78059,-64.75503,,AGRF,0,0,,,0,0
atlantic,STX,north,,saltRiver,2019,4266,17.78059,-64.75428,17.78059,-64.75428,,AGRF,7.5,0.285048279,,,423.7288136,16.10442254
atlantic,STX,north,,saltRiver,2021,4269,17.78502,-64.7593,17.78502,-64.7593,,AGRF,6.5,0.266552697,,,367.2316384,15.05947441
atlantic,STX,north,,saltRiver,2021,4278,17.78626,-64.75544,17.78626,-64.75544,,PVMT,0,0,,,0,0
atlantic,STX,north,,saltRiver,2021,4279,17.78684,-64.74844,17.78684,-64.74844,,PVMT,0,0,,,0,0
atlantic,STX,north,,saltRiver,2021,4289,17.78846,-64.74672,17.78846,-64.74672,,PVMT,9,0.840493659,,,508.4745763,47.48551746
atlantic,STX,north,,saltRiver,2021,4292,17.78867,-64.75616,17.78867,-64.75616,,AGRF,11.5,0.562264617,,,649.7175141,31.76636254
atlantic,STX,north,,saltRiver,2021,4293,17.78879,-64.74941,17.78879,-64.74941,,PVMT,4,0.53382457,,,225.9887006,30.15958023
atlantic,STX,north,,saltRiver,2021,4303,17.78957,-64.75134,17.78957,-64.75134,,PVMT,5,0.310986138,,,282.4858757,17.56983831
atlantic,STX,north,,saltRiver,2019,4312,17.78409,-64.75974,17.78409,-64.75974,,PVMT,1,0.104643982,,,56.49717514,5.912089379
atlantic,STX,north,,saltRiver,2019,4313,17.78419,-64.75796,17.78419,-64.75796,,AGRF,4.5,0.078423169,,,254.2372881,4.430687514
atlantic,STX,north,,saltRiver,2019,4316,17.78471,-64.75882,17.78471,-64.75882,,AGRF,4.5,0.3708504,,,254.2372881,20.952
atlantic,STX,north,,saltRiver,2019,4317,17.78479,-64.75723,17.78479,-64.75723,,HARD,0.5,0.0019116,,,28.24858757,0.108
atlantic,STX,north,,saltRiver,2019,4322,17.78541,-64.76117,17.78541,-64.76117,,AGRF,6.5,0.441693935,,,367.2316384,24.9544596
atlantic,STX,north,,saltRiver,2021,4322,17.79065,-64.75218,17.79065,-64.75218,,PVMT,4,1.014691831,,,225.9887006,57.32722209
atlantic,STX,north,,saltRiver,2019,4323,17.78549,-64.75631,17.78549,-64.75631,,AGRF,7.5,0.464551856,,,423.7288136,26.24586757
atlantic,STX,north,,saltRiver,2021,4330,17.79163,-64.74812,17.79163,-64.74812,,PVMT,0,0,,,0,0
atlantic,STX,north,,saltRiver,2019,4346,17.78876,-64.75593,17.78876,-64.75593,,AGRF,8,0.210581325,,,451.9774011,11.89725
atlantic,STX,north,,saltRiver,2019,4355,17.78903,-64.74952,17.78903,-64.74952,,PVMT,0.5,0.211455376,,,28.24858757,11.94663141
atlantic,STX,north,,saltRiver,2019,4356,17.78965,-64.74818,17.78965,-64.74818,,PVMT,0,0,,,0,0
atlantic,STX,north,,saltRiver,2019,4361,17.79078,-64.75346,17.79078,-64.75346,,PVMT,0,0,,,0,0
atlantic,STX,north,,saltRiver,2019,4362,17.79045,-64.75185,17.79045,-64.75185,,PVMT,1.5,0.12495315,,,84.74576271,7.0595
atlantic,STX,north,,saltRiver,2019,4440,17.78372,-64.74928,17.78372,-64.74928,,BDRK,0,0,,,0,0
atlantic,STX,north,,saltRiver,2019,4441,17.78404,-64.74903,17.78404,-64.74903,,BDRK,0,0,,,0,0
atlantic,STX,south,,south,2017,1033,17.69822,-64.62501,17.69822,-64.62501,,HARD,5.5,0.912751501,,,310.7344633,51.56788141
atlantic,STX,south,,south,2017,1075,17.69895,-64.62971,17.69895,-64.62971,,PVMT,2,0.197356805,,,112.9943503,11.15010198
atlantic,STX,south,,south,2017,1076,17.7013,-64.63713,17.7013,-64.63713,,PVMT,8.5,0.251250055,,,480.2259887,14.19491836
atlantic,STX,south,,south,2017,1077,17.70898,-64.62505,17.70898,-64.62505,,PVMT,4,0.34311218,,,225.9887006,19.38486893
atlantic,STX,south,,south,2017,1132,17.68541,-64.67719,17.68541,-64.67719,,PVMT,1.5,0.14670645,,,84.74576271,8.2885
atlantic,STX,south,,south,2017,1133,17.68855,-64.68384,17.68855,-64.68384,,PVMT,1,0.31801871,,,56.49717514,17.96715876
atlantic,STX,south,,south,2017,1138,17.69783,-64.62761,17.69783,-64.62761,,AGRF,9.5,0.481231794,,,536.7231638,27.18823695
atlantic,STX,south,,south,2017,1204,17.7066,-64.65866,17.7066,-64.65866,,PVMT,2,0.258872069,,,112.9943503,14.62554062
atlantic,STX,south,,south,2017,1206,17.71147,-64.64917,17.71147,-64.64917,,PVMT,1.5,0.228740509,,,84.74576271,12.9231926
atlantic,STX,south,,south,2017,1207,17.72153,-64.62972,17.72153,-64.62972,,PVMT,0,0,,,0,0
atlantic,STX,south,,south,2017,1208,17.7215,-64.62848,17.7215,-64.62848,,PVMT,1,0.092842634,,,56.49717514,5.245346554
atlantic,STX,south,,south,2021,4072,17.68904,-64.67068,17.68904,-64.67068,,PVMT,0,0,,,0,0
atlantic,STX,south,,south,2021,4077,17.69125,-64.67834,17.69125,-64.67834,,AGRF,0.5,0.0362496,,,28.24858757,2.048
atlantic,STX,south,,south,2021,4078,17.69176,-64.6712,17.69176,-64.6712,,AGRF,1.5,0.205908482,,,84.74576271,11.63324757
atlantic,STX,south,,south,2021,4089,17.69999,-64.6229,17.69999,-64.6229,,AGRF,3,0.1143597,,,169.4915254,6.461
atlantic,STX,south,,south,2019,4093,17.6871,-64.65536,17.6871,-64.65536,,HARD,0.5,0.13828125,,,28.24858757,7.8125
atlantic,STX,south,,south,2019,4097,17.69511,-64.66777,17.69511,-64.66777,,PVMT,0,0,,,0,0
atlantic,STX,south,,south,2021,4099,17.70694,-64.63877,17.70694,-64.63877,,PVMT,0,0,,,0,0
atlantic,STX,south,,south,2019,4107,17.70504,-64.6574,17.70504,-64.6574,,PVMT,0,0,,,0,0
atlantic,STX,south,,south,2019,4119,17.71108,-64.65334,17.71108,-64.65334,,PVMT,0.5,0.01779145,,,28.24858757,1.005166667
atlantic,STX,west,,spratHole,2017,1018,17.74224,-64.89974,17.74224,-64.89974,,AGRF,22,1.038052668,,,1242.937853,58.64704339
atlantic,STX,west,,spratHole,2017,1291,17.74039,-64.89951,17.74039,-64.89951,,HARD,5.5,0.402824621,,,310.7344633,22.75845316
atlantic,STX,west,,spratHole,2017,1420,17.72054,-64.89236,17.72054,-64.89236,,AGRF,9.5,0.382859668,,,536.7231638,21.63048972
atlantic,STX,west,,spratHole,2017,1421,17.72498,-64.89439,17.72498,-64.89439,,AGRF,10,0.251930676,,,564.9717514,14.23337153
atlantic,STX,west,,spratHole,2017,1506,17.71644,-64.88994,17.71644,-64.88994,,AGRF,2.5,0.3585135,,,141.2429379,20.255
atlantic,STX,west,,spratHole,2017,1507,17.71744,-64.8905,17.71744,-64.8905,,AGRF,4.5,0.547700251,,,254.2372881,30.94351701
atlantic,STX,west,,spratHole,2017,1509,17.73591,-64.89772,17.73591,-64.89772,,AGRF,6,0.295685721,,,338.9830508,16.70540797
atlantic,STX,west,,spratHole,2017,1510,17.73629,-64.89451,17.73629,-64.89451,,AGRF,4.5,0.498356533,,,254.2372881,28.15573633
atlantic,STX,west,,spratHole,2017,1511,17.744,-64.90017,17.744,-64.90017,,AGRF,17.5,0.860186724,,,988.700565,48.59812
atlantic,STX,west,,spratHole,2021,4132,17.74405,-64.89849,17.74405,-64.89849,,AGRF,44,3.023033002,,,2485.875706,170.792825
atlantic,STX,west,,spratHole,2019,4142,17.71651,-64.88952,17.71651,-64.88952,,PVMT,8.5,0.739564567,,,480.2259887,41.78330887
atlantic,STX,west,,spratHole,2019,4143,17.71662,-64.88915,17.71662,-64.88915,,SCR,15.5,0.977999251,,,875.7062147,55.25419497
atlantic,STX,west,,spratHole,2019,4152,17.72579,-64.89577,17.72579,-64.89577,,AGRF,24.5,0.822757323,,,1384.180791,46.48346458
atlantic,STX,west,,spratHole,2019,4156,17.73168,-64.89635,17.73168,-64.89635,,AGRF,10,0.550416787,,,564.9717514,31.09699362
atlantic,STX,west,,spratHole,2019,4164,17.74064,-64.89966,17.74064,-64.89966,,HARD,10,0.361228145,,,564.9717514,20.40836977
atlantic,STX,west,,spratHole,2019,4166,17.74255,-64.89687,17.74255,-64.89687,,AGRF,5.5,0.854006948,,,310.7344633,48.24898011